OBJECTID,PUBLIC_NAME,PARENT_NAME,NESTED,OFFICIAL_NAME,LABEL,ALIAS,DPP_ASSET_ID,ADDRESS_911,ZIP_CODE,ADDRESS_BRT,ALIAS_ADDRESS,ACREAGE,PROPERTY_CLASSIFICATION,PPR_USE,PPR_PROG_DISTRICT,PPR_OPS_DISTRICT,COUNCIL_DISTRICT,POLICE_DISTRICT,CITY_SCALE_MAPS,LOCAL_SCALE_MAPS,PROGRAM_SITES,COMMENTS,Shape__Area,Shape__Length
1,William H (Billy) Markward Memorial Playground,Schuylkill River Park,Y,William H. (Billy) Markward Memorial Playground,Markward,Joseph O'Connor Memorial Pool,1903,400 S LECOUNT ST,19146,"400-16 S TANEY ST;338-46 S 26TH ST;300 S 26TH ST;2601-13 SOUTH ST","400-16 S TANEY ST;577 S TANEY ST;Pine & Taney;338-46 S 26TH ST;300 S 26TH ST;2620 Pine St;350 S 26th St;2601-13 SOUTH ST, 26th & South;570 S 26TH ST",3.75279089,RECREATION_CENTER,RECREATION_SITE,11,"5;7",2,"9;17",Y,Y,Y,Markward site includes the O'Connor Pool,25871.44140625,1094.40263919397
2,Schuylkill Banks,Schuylkill Banks,N,,Schuylkill Banks,,2794,2425 CHESTNUT ST,19103,"2500 SPRING GARDEN ST;2451 MARKET ST;2369-71 JFK BLVD; 2448-52 CHERRY ST;2331 CHERRY ST;2345-49 RACE ST;2427A-31 WALNUT ST;2433-41 WALNUT ST;2518-26 L","2500 SPRING GARDEN ST;2451 MARKET ST;2369-71 JFK BLVD; 2448-52 CHERRY ST;2331 CHERRY ST;2345-49 RACE ST;2427A-31 WALNUT ST;2433-41 WALNUT ST;2518-26 LOCUST ST;",14.7172547,BREEZEWAY_GREENWAY,GREENWAY_PARKWAY,"9;11","5;7","2;5","9;17",Y,Y,N,Bill 160113 (4/14/16) -South of South St Bridge,101477.171875,9300.67027508346
3,Schuylkill River Park,Schuylkill River Park,N,,Schuylkill River Park,,2992,300 S 25TH ST,19103,"400-16 S TANEY ST, 338-46 S 26TH ST, 300 S 26TH ST, 302-22 S 25TH ST, 2500R-06 LOCUST ST","Pine & Taney, 400-16 S TANEY ST, 338-46 S 26TH ST, 300 S 26TH ST, 302-22 S 25TH ST, 2500R-06 LOCUST ST, 400 S LECOUNT ST",3.94782599,NEIGHBORHOOD_PARK,RECREATION_SITE,11,"5, 7",2,9,Y,Y,N,,27216.90625,799.048353772286
4,Frankford Boat Launch,Frankford Boat Launch,N,Frankford Boat Launch,Frankford Launch,"PA Fish & Boat;Frankford Arsenal Boat Launch",3090,5625 TACONY ST,19137,5625 TACONY ST,5650 Tacony St,11.36972953,BOAT_SITE,BOATHOUSE_LAUNCH,6,2,6,15,Y,Y,N,,78513.8359375,1585.3597159602
5,Robert A Borski Park,Robert A Borski Park,N,Robert A. Borski Park,Borski,"Orthodox Street Parcel; Bridesburg Riverfront Park; Congressman Robert A Borski Jr Park",3091,3101 ORTHODOX ST,19137,3101 ORTHODOX ST,3101 ORTHODOX ST,10.56733676,NEIGHBORHOOD_PARK,MISC_PARK,6,2,6,15,Y,Y,N,"Officially acquired from PAID in 10/2019. Doc 53586794; LWCF Restrictions; In Construction",72921.2578125,1304.88066789402
6,Wissahickon Valley Park,Wissahickon Valley Park,N,Wissahickon Valley Park,Wissahickon Valley Park, ,1357,,19128,"5000 HERMIT LN;9001 LYKENS LN;950 NORTHWESTERN AVE;854 MANATAWNA AVE;900 WISES MILL RD;5800,7050,8601 WISSAHICKON AVE","9001 LYKENS LN, 950 NORTHWESTERN AVE",1683.46408689,WATERSHED_PARK,CONSERVATION_DRAINAGE_WATERSHED,3,4,"4;8","5;14;39",Y,Y,N,,11641051.9921875,91233.2847582858
7,West Fairmount Park,West Fairmount Park,N,West Fairmount Park,West Fairmount Park,,1714,,19131,3401 W GIRARD AVE,3401 W GIRARD AVE,1036.24730203,WATERSHED_PARK,CONSERVATION_DRAINAGE_WATERSHED,7,5,"3;4","16;19",Y,Y,N,,7152694.74609375,70633.2414886657
8,Pennypack Park,Pennypack Park,N,Pennypack Park,Pennypack Park,"Little City (Rhawn/Holmhurst); Crystal Spring (Rhawn/Rowland)",1651,,19152,8300 FRANKFORD AVE,8300 FRANKFORD AVE,1353.25928959,WATERSHED_PARK,CONSERVATION_DRAINAGE_WATERSHED,"1;2",1,"6;10","7;8;15",Y,Y,N,,9362141.0078125,50417.2570294007
9,East Fairmount Park,East Fairmount Park,N,East Fairmount Park,East Fairmount Park, ,1713,,19121,"2500 SPRING GARDEN ST;3300 N 33RD ST","2500 SPRING GARDEN ST;3300 N 33RD ST",450.99245903,WATERSHED_PARK,CONSERVATION_DRAINAGE_WATERSHED,"3;8;9",5,4,"5;9;22;39",Y,Y,N,,3112516.2890625,34217.6929670641
10,Tacony Creek Park,Tacony Creek Park,N,Tacony Creek Park,Tacony Creek Park,Brookwood Park,1961,,19120,,,200.41837515,WATERSHED_PARK,CONSERVATION_DRAINAGE_WATERSHED,5,3,"7;8;9","2;15;24;25;35",Y,Y,N,,1385039.19921875,19006.3578100777
11,Franklin Delano Roosevelt Park,Franklin Delano Roosevelt Park,N,Franklin Delano Roosevelt (FDR) Park,FDR Park,"League Island Park;The Lakes;FDR Park",231,3500 S BROAD ST,19145,"3500 S BROAD ST;1954 PATTISON AVE","3500 S BROAD ST;1954 PATTISON AVE;Broad & Pattison",346.92950911,WATERSHED_PARK,MISC_PARK,11,7,2,1,Y,Y,N,,2388504.66015625,6568.8305757685
12,Hunting Park,Hunting Park,N,,Hunting,,845,1101 W HUNTING PARK AVE,19140,"4101 OLD YORK RD, 903 W WINGOHOCKING ST","900 HUNTING PARK AVE, 9th & Roosevelt;4101 OLD YORK RD, 903 W WINGOHOCKING ST",71.10080685,NEIGHBORHOOD_PARK,RECREATION_SITE,4,3,5,25,Y,Y,N,,491156.05078125,4036.79237488804
13,Awbury Park and Recreation Center,Awbury Park and Recreation Center,N,Awbury Park and Recreation Center,Awbury,,604,6101 ARDLEIGH ST,19138,6101 ARDLEIGH ST,Ardleigh & Haines,27.91895059,RECREATION_CENTER,RECREATION_SITE,4,4,8,14,Y,Y,Y,Review the parcel boundaries,193069.296875,2019.27688652076
14,29th and Passyunk Park,29th and Passyunk Park,N,,29th and Passyunk, ,432,2827 W PASSYUNK AVE,19145,2827 W PASSYUNK AVE,Newkirk & Passyunk,0.55602517,PLAYGROUND_SITE,MISC_PARK,11,7,2,1,Y,Y,N,,3830.2421875,247.032047885141
15,Fisher Park,Fisher Park,N,Fisher Park,Fisher,,679,572 W SPENCER ST,19120,6000 N 05TH ST,"571 W SPENCER ST;610 W SPENCER ST;6000 N 05TH ST;5th & Nedro",24.49826734,RECREATION_CENTER,RECREATION_SITE,4,3,9,35,Y,Y,Y,,169363.03125,1798.57864739545
16,Eastwick Regional Playground,Eastwick Regional Playground,N,Eastwick Regional Playground,Eastwick Regional,,499,7899 MERCURY PL,19153,2500 S 77TH ST,"80TH and MARS PL;2500 S 77TH ST",22.83103148,RECREATION_CENTER,RECREATION_SITE,10,8,2,12,Y,Y,Y,,157199.875,3777.76977497874
17,Whitby Avenue Playground,Cobbs Creek Park,Y,,Whitby, ,1372,1300 COBBS CREEK PKY,19143,,,5.6460138,PLAYGROUND_SITE,MISC_PARK,10,8,3,12,Y,Y,N,,38915.8359375,949.454742499838
18,Price Street Play Lot,Price Street Play Lot,N,,Price St, ,826,185 W PRICE ST,19144,177-85 W PRICE ST,177-85 W PRICE ST,0.18084303,PLAYGROUND_SITE,MISC_PARK,3,4,8,14,Y,Y,N,,1249.83984375,143.734003094234
19,Sedgley Woods Disc Golf Course,East Fairmount Park,Y,,Sedgley Woods, ,3013,3400 RESERVOIR DR,19121,,,21.13119835,ATHLETIC_SITE,ATHLETIC_OTHER,8,5,4,22,Y,Y,N,,145803.234375,1661.31318895625
20,Robert Wilson III Park,Cobbs Creek Park,Y,Robert Wilson III Park,Wilson,61st and Baltimore Ave Playground,3454,6100 BALTIMORE AVE,19143,,,1.16279606,PLAYGROUND_SITE,MISC_PARK,10,8,3,12,Y,Y,N,1911 Ordinance assigned to Department of Rec,8015.1875,360.391789080281
21,Rufus O Williams Memorial Playground,Cobbs Creek Park,Y,Rufus O. Williams Memorial Playground,R Williams,Cobbs Creek Playground,2128,700 COBBS CREEK PKY,19143,,"63rd St and Catherine St, 63rd St and Christian St",3.83112544,PLAYGROUND_SITE,MISC_PARK,10,8,3,18,Y,Y,N,,26413.4296875,817.250366154819
22,Lauretha Vaird Fields,Tacony Creek Park,Y,,Vaird,"Tabor Rams Club;Lauretha Vaird Boys and Girls Club",1890,4800 WHITAKER AVE,19120,4903 BINGHAM ST,"Whitaker & Loudon;4903 BINGHAM ST",6.30820388,ATHLETIC_SITE,RECREATION_SITE,5,3,7,25,Y,Y,N,,43583.734375,858.843003786953
23,Torresdale and Enfield Fields,Pennypack Park,Y,,Torresdale and Enfield, ,1370,4600 ENFIELD AVE,19136,8300 FRANKFORD AVE,8300 FRANKFORD AVE,6.58785936,ATHLETIC_SITE,RECREATION_SITE,2,1,6,8,Y,Y,N,,45538.640625,1309.04110482427
24,Chamounix Tennis Courts,West Fairmount Park,Y,,Chamounix Tennis, ,1827,3601 CHAMOUNIX DR,19131,3401 W GIRARD AVE,"3687 CHAMOUNIX DR;3250 CHAMOUNIX DR",4.16762387,ATHLETIC_SITE,ATHLETIC_OTHER,7,5,4,16,N,Y,N,,28774.60546875,1281.84781744333
25,Smith Memorial Playground and Playhouse,East Fairmount Park,Y,,Smith Memorial, ,1955,3418 SMITH MEMORIAL DR,19121,,"3500 RESERVOIR DR;33rd & Oxford",4.58905863,EVENT_VENUE,RECREATION_SITE,8,5,4,22,Y,Y,N,,31667.8125,730.793017830408
26,Garland and Bingham Fields,Tacony Creek Park,Y,,Garland and Bingham,Tabor and Garland Play Area,1368,620 GARLAND ST,19120,5153 E TABOR RD,"Tabor & Garland; 5153 E TABOR RD",3.48386697,PLAYGROUND_SITE,ATHLETIC_OTHER,5,3,9,2,Y,Y,N,,24077.84765625,825.642883055371
27,Hammond and Nedro Fields,Tacony Creek Park,Y,,Hammond and Nedro,,1866,5901 HAMMOND AVE,19120,,5821 HAMMOND AVE,4.04153295,ATHLETIC_SITE,RECREATION_SITE,5,3,9,35,Y,Y,N,,27937.47265625,773.909743367516
28,Wissahickon Environmental Center,Wissahickon Valley Park,Y,,Wissahickon Environ Center,"Tree House, Andorra Nature Center; Wissahickon Environmental Education Center",3456,300 W NORTHWESTERN AVE,19128,9001 LYKENS LN,"300 W NORTHWESTERN AVE;9001 LYKENS LN",2.54220901,RECREATION_CENTER,ENVIRONMENTAL_EDUCATION_CENTER,3,4,4,5,Y,Y,Y,,17594.54296875,654.043349331605
29,Ford Road Playground,West Fairmount Park,Y,,Ford Rd,Ford Road North,2899,3905 FORD RD,19131,3905 FORD RD,,1.59552321,PLAYGROUND_SITE,MISC_PARK,7,5,4,"16;19",Y,Y,N,,11016.05078125,449.485675388502
30,Verree and Susquehanna Playground,Pennypack Park,Y,,Verree and Susquehanna,"Champions, Pennypack Park Playground",1371,8543 VERREE RD,19111,8300 FRANKFORD AVE,8300 FRANKFORD AVE,3.85260749,PLAYGROUND_SITE,MISC_PARK,1,1,10,7,Y,Y,N,,26663.0859375,1049.84986508725
31,Jose Manuel Collazo Park,Jose Manuel Collazo Park,N,Jose Manuel Collazo Park,Collazo,,636,3261 MASCHER ST,19140,130-60 W WESTMORELAND ST,130-60 W WESTMORELAND ST,1.53912457,PLAYGROUND_SITE,MISC_PARK,5,3,7,25,Y,Y,N,,10626.72265625,413.465264223727
32,Frankford and Solly Playground,Pennypack Park,Y,,Frankford and Solly,Rocky Falls Day Camp,2934,8318 FRANKFORD AVE,19136,8300 FRANKFORD AVE,8300 FRANKFORD AVE,2.19570046,PLAYGROUND_SITE,RECREATION_SITE,2,1,6,8,Y,Y,N,,15179.83984375,507.64008345044
33,26th and Pennsylvania Playground,East Fairmount Park,Y,,26th and Pennsylvania,2600 Pennsylvania Ave Playground,3458,2700 PENNSYLVANIA AVE,19130,2500 SPRING GARDEN ST,"2601 PENNSYLVANIA AVE;2500 SPRING GARDEN ST",0.06715696,PLAYGROUND_SITE,MISC_PARK,9,5,4,9,Y,Y,N,,463.2578125,90.0511486423769
34,Rainbow De Colores Playground,Rainbow De Colores Playground,N,Rainbow De Colores Playground,Rainbow De Colores,"Dauphin Street Play Lot;5th Street",638,2326 N 05TH ST,19133,"2324-30 N 05TH ST, 2325 N REESE ST","2324-30 N 05TH ST, 2300 N 5th St;2325 N REESE ST",0.26964676,PLAYGROUND_SITE,MISC_PARK,8,6,7,26,Y,Y,N,,1861.05078125,187.019699508736
35,10th and Lemon Playground,10th and Lemon Playground,N,,10th and Lemon,10th and Mount Vernon Playground,2914,1015 MOUNT VERNON ST,19123,1015-21 MOUNT VERNON ST,1015-21 MOUNT VERNON ST,0.21888515,PLAYGROUND_SITE,MISC_PARK,9,6,5,9,Y,Y,N,Site Renovations started in 2023.,1509.67578125,169.494220720067
36,47th and Grays Ferry Park,47th and Grays Ferry Park,N,,47th and Grays Ferry, ,292,4700 PASCHALL AVE,19143,4700 PASCHALL AVE,,0.17619562,CONSERVATION_UNDEVELOPED,BREEZEWAY_ISLAND,10,8,3,18,N,N,N,,1214.453125,152.80535810686
37,Butler and Percy Play Lot,Butler and Percy Play Lot,N,,Butler and Percy, ,649,919 W BUTLER ST,19140,913-921 BUTLER ST,913-921 BUTLER ST,0.1432794,PLAYGROUND_SITE,MISC_PARK,4,3,5,25,Y,Y,N,Site Renovations started in 2023.,989.55859375,124.780907198061
38,Horton Street Play Lot,Horton Street Play Lot,N,,Horton, ,463,233 HORTON ST,19139,225-35 HORTON ST,225-35 N HORTON ST,0.10438242,PLAYGROUND_SITE,MISC_PARK,7,8,4,19,Y,Y,N,,719.99609375,111.898570976726
39,Lawrence Street Playground,Lawrence Street Playground,N,,Lawrence,Community Park,111,856 N LAWRENCE ST,19123,"854-58 N LAWRENCE ST, 857-61 N ORKNEY ST","854-58 N LAWRENCE ST, 857-61 N ORKNEY ST",0.14325748,PLAYGROUND_SITE,MISC_PARK,9,2,5,9,Y,Y,N,,988.125,139.17614576389
40,Webb Street Play Lot,Webb Street Play Lot,N,,Webb,Sergeant Tot Lot,799,2538 WEBB ST,19125,2536-38 WEBB ST,"2536-38 WEBB ST, Webb & Sergeant",0.10208345,PLAYGROUND_SITE,MISC_PARK,9,2,1,26,Y,Y,N,,704.28515625,112.767032309576
41,Hunting Park Recreation Center,Hunting Park,Y,Hunting Park Recreation Center,Hunting Rec, ,3460,1101 W HUNTING PARK AVE,19140,4101 OLD YORK RD,"9th & Roosevelt;4101 OLD YORK RD",5.36610847,RECREATION_CENTER,RECREATION_SITE,4,3,5,25,N,Y,Y,,37069.86328125,823.172364167107
42,Belmont Plateau,West Fairmount Park,Y,,Belmont Plateau, ,1818,1800 BELMONT MANSION DR,19131,3401 W GIRARD AVE,"Belmont and Montgomery;3401 W GIRARD AVE",46.97519883,ATHLETIC_SITE,ATHLETIC_OTHER,7,5,4,16,Y,Y,N,,324232.375,2387.83196856951
43,Chamounix Fields North,West Fairmount Park,Y,,Chamounix North,Chamounix North Softball Field,3105,3299 CHAMOUNIX DR,19131,,,4.01151827,ATHLETIC_SITE,ATHLETIC_OTHER,7,5,4,16,N,Y,N,,27698.44140625,700.411167979631
44,Edgley Fields,East Fairmount Park,Y,Edgley Fields,Edgely, ,3106,2100 RESERVOIR DR,19121,,,28.20644489,ATHLETIC_SITE,ATHLETIC_OTHER,8,5,4,22,Y,Y,N,,194696.06640625,1744.46342810641
45,Dairy Fields,East Fairmount Park,Y,,Dairy, ,1841,3700 MOUNT PLEASANT DR,19121,,,14.78784358,ATHLETIC_SITE,ATHLETIC_OTHER,8,5,4,22,Y,Y,N,,102058.34765625,1283.57871962814
46,Salvatore Pachella Memorial Field,Wissahickon Valley Park,Y,Salvatore Pachella Memorial Field,Pachella,,1925,6901 HENRY AVE,19128,700 GORGAS LN,"700 LIVEZEY LA;700 GORGAS LN;900 WISES MILL RD",9.49051085,ATHLETIC_SITE,ATHLETIC_OTHER,3,4,4,5,Y,Y,N,,65613.5859375,1102.95825209147
47,Belmont and Edgley Fields,West Fairmount Park,Y,,Belmont and Edgley,"Belmont & Edgley Cricket Fields;Cricket(Archery);Edgley Ultimate;Frisbee and Archery",1816,4105 EDGLEY AVE,19131,3401 W GIRARD AVE,"4001 EDGLEY DR;3401 W GIRARD AVE",9.46663162,ATHLETIC_SITE,ATHLETIC_OTHER,7,5,4,16,Y,Y,N,,65354.66015625,1334.33980014086
48,Chamounix Fields South,West Fairmount Park,Y,,Chamounix South, ,3107,3701 CHAMOUNIX DR,19131,3401 W GIRARD AVE,3401 W GIRARD AVE,4.41428278,ATHLETIC_SITE,ATHLETIC_OTHER,7,5,4,16,N,Y,N,,30474.42578125,692.434620138093
49,Pleasant Hill Park,Pleasant Hill Park,N,,Pleasant Hill,"Torresdale Fish Hatchery;Pleasant Hill Beach;Fish Hatchery Boat Ramp/Launch",3086,9201 N DELAWARE AVE,19136,9201 N DELAWARE AVE,"Delaware River & Linden;8900 N DELAWARE AVE;9200 DELAWARE AVE;5220 LINDEN AVE",8.47598189,NEIGHBORHOOD_PARK,RECREATION_SITE,2,1,6,8,Y,Y,N,Hatchery portion comes from PWD,58596.07421875,1056.39585283591
50,David P Montgomery Field,Wissahickon Valley Park,Y,David P. Montgomery Field,Montgomery Field,"Daisy Fields;Daisy Day Camp",3065,5366 HERMIT LN,19128,,"620 HERMIT LA, Quentin & Vicaris, 5000 HERMIT LN",3.27315818,ATHLETIC_SITE,RECREATION_SITE,3,4,4,5,Y,Y,N,,22614.1796875,737.07198829503
51,Dell Music Center,East Fairmount Park,Y,The Dell Music Center,Dell Center,"Robin Hood Dell East,Georgie Woods Entertainment Center,The Dell",1845,3101 STRAWBERRY MANSION DR,19132,3300 N 33RD ST,"3300 N 33RD ST;2500 SPRING GARDEN ST;2499 STRAWBERRY MN BR DR;2400 STRAWBERRY MN DR;Ridge & Huntingdon",8.53095893,EVENT_VENUE,OTHER,8,5,4,22,Y,Y,N,,58893.65234375,1335.49447975908
52,Sweetbriar Fields,West Fairmount Park,Y,,Sweetbriar Fields, ,3117,3700 SWEETBRIAR LN,19131,3401 W GIRARD AVE,3401 W GIRARD AVE,10.07926988,ATHLETIC_SITE,ATHLETIC_OTHER,7,5,4,16,N,Y,N,,69547.53515625,1055.34577703075
53,Ohio House Fields,West Fairmount Park,Y,,Ohio House Fields, ,3108,4700 STATES DR,19131,3401 W GIRARD AVE,3401 W GIRARD AVE,4.86951601,ATHLETIC_SITE,ATHLETIC_OTHER,7,5,4,19,N,Y,N,,33608.6875,852.406146061192
54,John F Boyce Memorial Field,Wissahickon Valley Park,Y,John F. Boyce Memorial Field,Boyce, ,3097,5901 HENRY AVE,19128,5801 HENRY AVE,5801 HENRY AVE,3.37906449,ATHLETIC_SITE,ATHLETIC_OTHER,3,4,4,5,N,Y,N,,23352.6953125,687.181908873474
55,Arrow Field,Wissahickon Valley Park,Y,,Arrow,,730,640 W WALNUT LN,19128,640 W WALNUT LN,,3.37049183,ATHLETIC_SITE,ATHLETIC_OTHER,3,4,4,5,N,Y,N,,23291.5390625,688.278886584444
56,Pennypack Environmental Center,Pennypack Park,Y,,Pennypack Environ Center,Verree Rd Interpretive Center,3462,8600 VERREE RD,19115,8300 FRANKFORD AVE,8300 FRANKFORD AVE,2.34791348,RECREATION_CENTER,ENVIRONMENTAL_EDUCATION_CENTER,1,1,10,7,Y,Y,Y,Opened in 1978.,16252.84375,523.604683187518
57,Cobbs Creek Golf Course,Cobbs Creek Park,Y,Cobbs Creek Golf Course,Cobbs Creek Golf,"Karakung Golf Course;Olde Golf Course",993,7900 LANSDOWNE AVE,19151,"7800 CITY AVE, 7400 LANSDOWNE AVE","68th & Haverford;7800 CITY AVE, 7400 LANSDOWNE AVE",323.23522797,GOLF_FACILITY,ATHLETIC_GOLF,7,8,4,19,Y,Y,N,Located in Cobbs Creek Park. Closed for Renovations 11/2020. Cobbs Creek Park was created 1904-1928. Golf Club was opened in 1916.,2229839.8828125,12669.2278384352
58,Pennypack on the Delaware,Pennypack on the Delaware,N,,Pennypack on the Delaware,"Pennypack Park at Mouth of Delaware;River Fields",1631,8201 STATE RD,19136,"8201 STATE RD, 8401 STATE RD","7801 State Rd, 7999 STATE RD;8401 STATE RD",180.49905658,WATERSHED_PARK,MISC_PARK,2,1,6,"8;15",Y,Y,N,,1247392.34375,13088.4140637409
59,Fox Chase Farm,Fox Chase Farm,N,,Fox Chase Farm,"Butler Exhibit Farm;Butler Tract",1323,8821 PINE RD,19111,8800 PINE RD,"8700 PINE RD;8800 PINE RD;8500 Pine Rd;Pine Rd & Shady Ln",119.97564552,FARM,URBANAGRICULTURE_FARM,1,1,10,7,Y,Y,N,,830578.38671875,3907.89756130755
60,Poquessing Creek Park 1,Poquessing Creek Park,Y,Poquessing Creek Park,Poquessing Creek Park 1, ,2795,1247 STEVENS RD,19116,,1217 STEVENS RD,22.85302344,WATERSHED_PARK,CONSERVATION_DRAINAGE_WATERSHED,1,1,10,7,Y,Y,N,,158385.77734375,3092.1362301475
61,Ralph R Rizzo Sr Ice Rink,Ralph R Rizzo Sr Ice Rink,N,"Ralph R. Rizzo, Sr. Ice Rink",Rizzo,,1407,1001 S FRONT ST,19147,1201-99 S FRONT ST,"1101 S FRONT ST;1201-99 S FRONT ST",1.975853,RECREATION_CENTER,RECREATION_SITE,12,7,1,3,Y,Y,Y,PPR has a lease agreement with PennDOT.,13615.36328125,516.900862986807
62,Morris Park,Morris Park,N,Morris Park,Morris Park, ,1283,6600 SHERWOOD RD,19151,,68th St & Lansdowne Ave,119.08908588,CONSERVATION_UNDEVELOPED,CONSERVATION_DRAINAGE_WATERSHED,7,8,4,19,Y,Y,N,,821739.74609375,6624.40620279635
63,Jim Junod Recreation Center,Jim Junod Recreation Center,N,Jim Junod Recreation Center,Junod,,1883,12770 DUNKS FERRY RD,19154,3102 MECHANICSVILLE RD,"12800 DUNKS FERRY RD;12776 DUNKS FERRY RD;12754 DUNKSFERRY RD;3102 MECHANICSVILLE RD;Dunksferry & Mechanicsville",23.51589184,RECREATION_CENTER,RECREATION_SITE,1,1,10,8,Y,Y,Y,,162859.1875,1674.55138451237
64,Juniata Golf Club,Tacony Creek Park,Y,Juniata Golf Club,Juniata Golf Club, ,348,1391 E CAYUGA ST,19124,,"4400 M ST;Castor & Cayuga;1363 E Cayuga ST",91.92960299,GOLF_FACILITY,ATHLETIC_GOLF,5,3,7,"15;24",Y,Y,N,,635043.5,4652.88776118183
65,Walton Run,Walton Run,N,,Walton Run, ,2790,11200 ACADEMY RD,19154,,11000 ACADEMY RD,90.7082626,CONSERVATION_UNDEVELOPED,CONSERVATION_DRAINAGE_WATERSHED,2,1,10,8,Y,Y,N,,627888.7109375,6253.61003671829
66,John F Byrne Golf Club,John F Byrne Golf Club,N,John F. Byrne Golf Club,Byrne Golf,"Holmesburg Golf Course;Poquessing Golf Course",547,9550 LEON ST,19114,9550 LEON ST,Eden & Leon,85.74746206,GOLF_FACILITY,ATHLETIC_GOLF,2,1,6,8,Y,Y,N,1972 Golf Course transferred to Fairmount Park Commission from the City.,593109.26953125,4176.82510982403
67,Walnut Lane Golf Club,Wissahickon Valley Park,Y,Walnut Lane Golf Club,Walnut Ln Golf, ,1656,5819 MAGDALENA ST,19128,"5801 HENRY AVE;639 WALNUT LN;700 WALNUT LN","5801 HENRY AVE;639 WALNUT LN;700 WALNUT LN;800 WALNUT LN",67.27524209,GOLF_FACILITY,ATHLETIC_GOLF,3,4,4,5,Y,Y,N,Golf course created between 1934-1940.,464904.140625,5827.26406745969
68,Bartrams Garden,Bartrams Garden,N,Bartram's Garden National Historic Landmark,Bartrams Garden,Bartram's Homestead,476,5400 LINDBERGH BLVD,19143,2901 S 56TH ST,"5443 Bartram Rd, 57th & Schuylkill River; 2901 S 56TH ST;5405 Bartram Dr",49.90831811,EVENT_VENUE,HISTORIC_SITE,10,8,3,12,Y,Y,N,,343904.54296875,3538.67951407653
69,Kelly Pool,West Fairmount Park,Y,,Kelly Pool,J.B. Kelly Pool,1278,4200 LANSDOWNE DR,19131,,42nd & Parkside,1.3284154,POOL_SITE,POOL,7,5,4,16,Y,Y,Y,,9166.41796875,397.378588084625
70,Joseph C Fluehr Memorial Park,Joseph C Fluehr Memorial Park,N,Joseph C. Fluehr Memorial Park,Fluehr,Eden Hallmount Park,188,4800 GRANT AVE,19114,4800 GRANT AVE,4200 Grant Ave,65.3787993,ATHLETIC_SITE,MISC_PARK,2,1,6,8,Y,Y,N,Condemned portion (triangle) behind Eden added to park in 1979.,452133.02734375,3072.71170021824
71,Philadelphia Zoo,West Fairmount Park,Y,,Zoo,Philadelphia Zoological Gardens,504,3400 W GIRARD AVE,19104,3400 W GIRARD AVE,,55.03027349,EVENT_VENUE,ZOO,7,5,"3;4",16,N,Y,N,Adjusted to include outer curbline of Zoological St but not RR retaining wall. ,379641.59375,4266.56318937365
72,Manatawna Farm,Manatawna Farm,N,,Manatawna, ,1899,100 SPRING LN,19128,8482 HAGYS MILL RD,"844 MANATAWNA RD;899 Manatawna Dr;8482 HAGYS MILL RD",64.52573195,FARM,URBANAGRICULTURE_FARM,3,4,4,5,Y,Y,N,,446276.31640625,3965.8280149092
73,Wisters Woods Park,Wisters Woods Park,N,,Wisters Woods, ,875,1998 BELFIELD AVE,19141,"5401 E WISTER ST, 1901 LINDLEY AVE, 432-60 E WISTER ST, 1601 LINDLEY AVE","Duncannon & Wister;5401 E WISTER ST, 1901 LINDLEY AVE, 432-60 E WISTER ST, 1601 LINDLEY AVE",61.00310521,ATHLETIC_SITE,CONSERVATION_DRAINAGE_WATERSHED,4,4,8,"14;35",Y,Y,N,,421624.1171875,7417.84714559149
74,Fairmount Park Horticulture Center,West Fairmount Park,Y,Fairmount Park Horticulture Center,Horticulture Center, ,1874,4200 HORTICULTURAL DR,19131,3401 W GIRARD AVE,"4180 HORTICULTURAL DR; 100 N HORTICULTURAL DR",39.19065268,EVENT_VENUE,URBANAGRICULTURE_GARDEN,7,5,4,16,Y,Y,N,Horticulture Center built in 1976,270457.3671875,3013.00510184549
75,Wissinoming Park,Wissinoming Park,N,Wissinoming Park,Wissinoming,,1973,5801 FRANKFORD AVE,19135,5801 FRANKFORD AVE,"Frankford & Comly;5773 FRANKFORD AVE;5747 FRANKFORD AVE;4043 E CHELTENHAM AVE",42.63252407,RECREATION_CENTER,RECREATION_SITE,6,2,7,15,Y,Y,Y,,294567.20703125,2216.66894776195
76,Roxborough Reservoir Park,Roxborough Reservoir Park,N,Roxborough Reservoir Park,Roxborough Reservoir, ,2792,601 PORT ROYAL AVE,19128,601 PORT ROYAL AVE,,37.28503739,CONSERVATION_UNDEVELOPED,RESERVOIR,3,4,4,5,Y,Y,N,,257859.79296875,2021.17172454774
77,Manayunk Canal,Manayunk Canal,N,,Manayunk Canal, ,2793,109 FOUNTAIN ST,19127,"4500 MAIN ST;7600 NIXON ST","7 Lock St;4500 MAIN ST",33.75008004,BREEZEWAY_GREENWAY,GREENWAY_PARKWAY,3,4,4,5,N,Y,N,,233262.46484375,9636.78023499181
78,Michael Palmer Playground,Michael Palmer Playground,N,Michael Palmer Playground,M Palmer,Far Northeast Athletic Association,1926,2972 COMLY RD,19154,"11701 THORNTON RD, 2981 COMLY RD","11701 THORNTON RD;3035 COMLY RD;Comly & Thornton;2981 COMLY RD;11774 THORNTON RD;2929 COMLY RD",74.15825179,RECREATION_CENTER,RECREATION_SITE,2,1,10,8,Y,Y,Y,Northern portion of Palmer is leased to Far Northeast Athletic Association,513500.18359375,4043.88037374867
79,William A Lackman Memorial Playground,William A Lackman Memorial Playground,N,William A. Lackman Memorial Playground,Lackman,,1888,1165 BARTLETT ST,19115,800 BARTLETT ST,"800 BARTLETT ST;1101 BARTLETT ST;1151 BARTLETT ST;Chesworth & Bartlett",11.44183675,RECREATION_CENTER,RECREATION_SITE,1,1,10,7,Y,Y,Y,,79233.72265625,1145.94601696385
80,Wooden Bridge Run,Wooden Bridge Run,N,,Wooden Bridge, ,1632,2855 WILLITS RD,19114,2855 WILLITS RD,,49.97198536,CONSERVATION_UNDEVELOPED,CONSERVATION_DRAINAGE_WATERSHED,2,1,6,8,Y,Y,N,,345685.546875,4658.81377343884
81,29th and Chalmers Playground,29th and Chalmers Playground,N,,29th and Chalmers,Rhodes Middle School,1990,2900 N 29TH ST,19132,3001 W LEHIGH AVE,"3001 W LEHIGH AVE;2800 CHALMERS AVE",12.42792905,PLAYGROUND_SITE,RECREATION_SITE,3,6,4,39,Y,Y,N,Building is non-PPR.,85805.96875,1600.99201202359
82,Carroll Park (Cobbs Creek),Cobbs Creek Park,Y,,Carroll (Cobbs Creek),Price Park,3098,7800 CITY AVE,19151,,,29.57754926,CONSERVATION_UNDEVELOPED,CONSERVATION_DRAINAGE_WATERSHED,7,8,N/A,N/A,Y,Y,N,Edited boundaries per October 1928 ordinance (in archives). Not in City of Philadelphia City Limits,204083.87890625,2504.98710700587
83,Holme Crispin Park,Holme Crispin Park,N,,Holme Crispin,"Pennypack Community Center, Crispin Gardens Athletic Club",1633,2999 HOLME AVE,19136,"2870 WILLITS RD, 3064 HOLME AVE","Holme & Convent;2870 WILLITS RD, 3064 HOLME AVE",31.64380001,ATHLETIC_SITE,RECREATION_SITE,2,1,6,8,Y,Y,N,Crispin Gardens Athletic Club leases building and fields.,218851.6875,3325.54649619201
84,Disston Park,Disston Park,N,,Disston Park,Keystone,170,6447 KEYSTONE ST,19135,"6401 KEYSTONE ST, 6501 KEYSTONE ST, 6601 KEYSTONE ST, 6701 KEYSTONE ST, 6901 KEYSTONE ST, 6951 KEYSTONE ST","6501-6951 KEYSTONE ST;4423 LONGSHORE AVE;Keystone & Princeton;6401 KEYSTONE ST, 6501 KEYSTONE ST, 6601 KEYSTONE ST, 6701 KEYSTONE ST, 6901 KEYSTONE ST, 6951 KEYSTONE ST",23.49995295,ATHLETIC_SITE,MISC_PARK,6,2,6,15,Y,Y,N,,162358.171875,4343.49007874954
85,Joseph E Mander Playground,East Fairmount Park,Y,Joseph E. Mander Playground,Mander,,1900,2102 N 33RD ST,19132,,"33rd & Diamond;3309 DIAMOND ST;2142 N 33RD ST;3303 DIAMOND ST;2140 N 33RD ST",22.26594622,RECREATION_CENTER,RECREATION_SITE,8,5,4,22,Y,Y,Y,,153685.10546875,1574.91263941089
86,Marconi Plaza,Marconi Plaza,N,Marconi Plaza,Marconi,Oregon Plaza,1221,2700 S BROAD ST,19148,"2700 S BROAD ST;2701 S BROAD ST","Broad & Oregon;2701 S BROAD ST;1360-80 OREGON AVE;2700 S BROAD ST",18.84613709,PLAYGROUND_SITE,SQUARE_PLAZA,11,7,2,"1;3",Y,Y,N,Bocci Club leases building.,129800.9453125,2098.04847410323
87,Fort Mifflin,Fort Mifflin,N,Fort Mifflin,Ft Mifflin,Fort Mifflin Historical Site,1267,4800 FORT MIFFLIN RD,19153,4800 FORT MIFFLIN RD,1 Fort Mifflin Rd,40.37292582,EVENT_VENUE,HISTORIC_SITE,10,8,2,12,Y,Y,N,,277734.3046875,3600.285705917
88,Fox Chase Recreation Center,Fox Chase Recreation Center,N,Fox Chase Recreation Center,Fox Chase,Fox Chase School Playground,1857,7901 RIDGEWAY ST,19111,"601 BORBECK AVE, 700 RHAWN ST","601 BORBECK AVE;700 RHAWN ST;7976 ROCKWELL AVE;7901 RIDGEWAY ST;Rockwell & Ridgeway",16.36916298,RECREATION_CENTER,RECREATION_SITE,1,1,10,2,Y,Y,Y,Portion of site is leased from School District,113263.57421875,1538.34936289044
89,William (Billy) Gambrel Playground,William (Billy) Gambrel Playground,N,William (Billy) Gambrel Playground,Gambrel,"Whitehall Commons Playground;White Hall Commons",1862,1900 WAKELING ST,19124,1900 WAKELING ST,4950 DITMAN ST,11.54475246,RECREATION_CENTER,RECREATION_SITE,6,2,7,15,Y,Y,Y,,79743.875,1184.68408403015
90,J Francis Finnegan Playground,J Francis Finnegan Playground,N,J. Francis Finnegan Playground,J Finnegan,"Paschall Playground; James Finnegan",95,6801 GROVERS AVE,19142,6801 GROVERS AVE,69th & Grovers,17.69740338,RECREATION_CENTER,RECREATION_SITE,10,8,2,12,Y,Y,Y,,121886.86328125,1833.57539529764
91,Lawncrest Recreation Center,Lawncrest Recreation Center,N,Lawncrest Recreation Center,Lawncrest,,1891,6030 RISING SUN AVE,19111,6000 RISING SUN AVE,"6000 RISING SUN AVE, Rising Sun & Comly",14.83826654,RECREATION_CENTER,RECREATION_SITE,1,3,9,2,Y,Y,Y,"Library, Water, and PPD/Fire portions of land are not administered by PPR.",102591.1875,1381.91600771485
92,Pastorius Park,Pastorius Park,N,Pastorius Park,Pastorius, ,1213,200 W HARTWELL LN,19118,"198, 200, 201 W HARTWELL LN, 220 SUNRISE LN","Pocono & Southhampton, Lincoln Dr & Abington Ave;198, 200, 201 W HARTWELL LN, 220 SUNRISE LN",16.4611563,NEIGHBORHOOD_PARK,MISC_PARK,3,4,8,14,Y,Y,N,Named for Francis Pastorius,113892.90234375,1639.27795576302
93,Joseph F Vogt Playground,Joseph F Vogt Playground,N,Joseph F. Vogt Playground,Vogt,,1968,4351 UNRUH AVE,19135,4131 UNRUH AVE,"4131 UNRUH AVE;4240 KNORR ST",15.83185436,RECREATION_CENTER,RECREATION_SITE,2,2,6,15,Y,Y,Y,,109404.5625,1403.38833453912
94,American Legion Playground,American Legion Playground,N,American Legion Playground,American,,1808,4801 DEVEREAUX AVE,19135,6201 TORRESDALE AVE,"6201 TORRESDALE AVE;Torresdale & Devereaux",15.72173189,RECREATION_CENTER,RECREATION_SITE,6,2,6,15,Y,Y,Y,,108609.98046875,1363.73371334345
95,George Jacobs Playground,George Jacobs Playground,N,George Jacobs Playground,Jacobs,,1877,4500 LINDEN AVE,19136,9050 TORRESDALE AVE,"4558 LINDEN AVE;9050 TORRESDALE AVE;Linden & Jackson",14.68924535,RECREATION_CENTER,RECREATION_SITE,2,1,6,8,Y,Y,Y,Torresdale Boys Club leases the athletic buliding and fields on the property.,101574.33203125,1369.23199962801
96,Torresdale Recreation Center,Torresdale Recreation Center,N,Torresdale Recreation Center,Torresdale,,68,9501 LEON ST,19114,9550 FRANKFORD AVE,"9550 FRANKFORD AVE;9500 FRANKFORD AVE;Frankford & Aubrey",14.22119289,RECREATION_CENTER,RECREATION_SITE,2,1,6,8,Y,Y,Y,,98360.6171875,1389.36403544169
97,William B Simons Recreation Center,William B Simons Recreation Center,N,William B. Simons Recreation Center,Simons,"Simons Youth Access & Teen Center;Simons Youth Center & Teen Center;William B. Simons Playfield",1953,7224 WOOLSTON AVE,19138,1601-35 E WALNUT LN,"1601-35 E WALNUT LA, 7200 WOOLSTON AVE, Walnut & Rodney",13.12051496,RECREATION_CENTER,RECREATION_SITE,4,4,9,14,Y,Y,Y,,90752.52734375,1263.76911352307
98,Olney Recreation Center,Olney Recreation Center,N,Olney Recreation Center,Olney,,1924,199 E SPENCER AVE,19120,100 E GODFREY AVE,"100 E GODFREY AVE;A & Champlost;6000 A ST;6059 A ST",13.62146671,RECREATION_CENTER,RECREATION_SITE,5,3,9,35,Y,Y,Y,Rebuild Renovation Started in 2024,94166.74609375,1312.85553825835
99,Wakefield Park,Wakefield Park,N,,Wakefield, ,877,5300 N 16TH ST,19141,"5100 N 16TH ST, 5300 N 16TH ST","16th & Lindley;5100 N 16TH ST",14.64808094,NEIGHBORHOOD_PARK,CONSERVATION_DRAINAGE_WATERSHED,4,4,8,35,Y,Y,N,,101235.57421875,1975.17995676777
100,Julian Abele Park,Julian Abele Park,N,,Abele, ,1159,923 S 22ND ST,19146,917-31 S 22ND ST,"917 S 22ND ST;917-31 S 22ND ST",0.28605084,NEIGHBORHOOD_PARK,SQUARE_PLAZA,11,7,2,17,Y,Y,N,,1971.6171875,183.470862223662
101,Charles A Russo Playground,Charles A Russo Playground,N,Charles A. Russo Playground,Russo,Tacony Park,1946,7301 TORRESDALE AVE,19136,7301 TORRESDALE AVE,"7321 TORRESDALE AVE;Torresdale & Cottman;7370 EDMUND ST;7352 EDMUND ST",12.46289021,RECREATION_CENTER,RECREATION_SITE,2,1,6,15,Y,Y,Y,Mayfair Athletic Club leases the southeastern building on the Russo property.,86125.8515625,1186.86403613396
102,Max Myers Playground,Max Myers Playground,N,Max Myers Playground,M Myers,,1904,1805 HELLERMAN ST,19149,1601 HELLERMAN ST,"1601 HELLERMAN ST;1800 MAGEE AVE;6500 BUSTLETON AVE;6501 HORROCKS ST;Horrocks & Magee",12.37033782,RECREATION_CENTER,RECREATION_SITE,1,1,7,2,Y,Y,Y,Site Renovated in 2022.,85506.94140625,1232.70662897891
103,Corporal Jimmy OConnor Memorial Playground,Corporal Jimmy OConnor Memorial Playground,N,Corporal Jimmy O'Connor Memorial Playground,Jimmy OConnor,"Chalfont & Deerpath Playground;Chalfont Playground;Rush School;Fitzpatrick School",1826,4340 DEERPATH LN,19154,"4330 DEERPATH LN, 11061 KNIGHTS RD, 4330 DEERPATH LN, 11081 KNIGHTS RD","4200 DEERPATH LN;4330 DEERPATH LN;4336 DEERPATH LA;4330-40 DEERPATH LN;4330 DEERPATH LN;11081 KNIGHTS RD;11061 KNIGHTS RD",13.73990355,RECREATION_CENTER,RECREATION_SITE,2,1,10,8,Y,Y,Y,"Land is owned by City, School District owns the track land and south driveway, which PPR leases. Our Lady of Calvary Athletic Association leases out athletic fields and track.",95091.53125,2096.04275113734
104,Gustine Recreation Center,Gustine Recreation Center,N,Gustine Recreation Center,Gustine,"Gustine Lake Rec Center; Legacy Tennis",1984,4842 RIDGE AVE,19129,,4868 RIDGE AVE,12.12361947,RECREATION_CENTER,RECREATION_SITE,3,4,4,39,Y,Y,Y,On site are a PWD facility and the Legacy Youth and Tennis facility.,83738.33203125,1287.66844477851
105,Clarence H Clark Park,Clarence H Clark Park,N,,Clark,,2906,4301 CHESTER AVE,19104,"4301 CHESTER AVE, 1101 S 45TH ST","43rd & Woodland;1101 S 45TH ST",12.03396792,PLAYGROUND_SITE,MISC_PARK,10,8,3,18,Y,Y,N,Rosenberger Hall premises is leased to PAID/University of Sciences.,82961.578125,1786.2232806261
106,Karen Donnelly Park,Karen Donnelly Park,N,Karen Donnelly Park,Donnelly,,166,230 DICKINSON ST,19147,230-34 DICKINSON ST,230-34 DICKINSON ST,0.2330446,PLAYGROUND_SITE,MISC_PARK,12,7,1,3,Y,Y,N,,1605.70703125,202.26489078066
107,Suffolk Park,Suffolk Park,N,Suffolk Park,Suffolk,"Suffolk Park;Eastwick Park",400,7401 LINDBERGH BLVD,19153,7401 LINDBERGH BLVD,74th & Lindbergh,11.30889162,PLAYGROUND_SITE,MISC_PARK,10,8,2,12,Y,Y,N,,77867.7890625,1160.15568491084
108,Carmella A DiTizio Playground,Carmella A DiTizio Playground,N,Carmella A. DiTizio Playground,Carmella,Whitehall Playground,1823,2150 WAKELING ST,19124,2100 WAKELING ST,"2100 WAKELING ST, 2180 WAKELING ST",11.18315124,RECREATION_CENTER,RECREATION_SITE,6,2,7,15,Y,Y,Y,,77239.69921875,1102.92890254874
109,George C Pelbano Playground,George C Pelbano Playground,N,George C. Pelbano Playground,Pelbano,"Rhawnhurst Raiders Athletic Association;The Frank Bond Memorial Field",1987,2138 SOLLY AVE,19152,8101 BUSTLETON AVE,"8101 BUSTLETON AVE, Bustleton & Solly; 2124 SOLLY AVE",10.51602635,RECREATION_CENTER,RECREATION_SITE,1,1,10,7,Y,Y,Y,Football Field Scoreboard called field Frank Bond Memorial Field,72738.453125,1111.75220270248
110,Joseph A Ferko Playground,Tacony Creek Park,Y,Joseph A. Ferko Playground,Ferko,Juniata Park,1854,1101 E CAYUGA ST,19124,1101 E CAYUGA ST,"J & Cayuga;1223 E CAYUGA ST",10.53091284,RECREATION_CENTER,RECREATION_SITE,5,3,7,24,Y,Y,Y,Juniata Boys and Girls Club leases the eastern building on the Ferko property.,72742.1796875,1580.76480831401
111,Germany Hill,Germany Hill,N,,Germany Hill, ,609,4849 SMICK ST,19128,"4815, 4849, 4855 SMICK ST, 200 FOUNTAIN ST","4815, 4855 SMICK ST, 200 FOUNTAIN ST",10.82682679,CONSERVATION_UNDEVELOPED,CONSERVATION_DRAINAGE_WATERSHED,3,4,4,5,Y,Y,N,,74829.83984375,1332.52843984554
112,Thomas E Jardel Memorial Field,Thomas E Jardel Memorial Field,N,Thomas E. Jardel Memorial Field,Jardel,Burholme Recreation Center,1879,1400 COTTMAN AVE,19111,1400 COTTMAN AVE,"Cottman & Pennway, 1432 COTTMAN AVE",10.77963065,RECREATION_CENTER,RECREATION_SITE,1,1,9,2,Y,Y,Y,,74549.91015625,1107.5619986934
113,Carroll Park,Carroll Park,N,,Carroll, ,374,5801 W GIRARD AVE,19131,5801 W GIRARD AVE,58th & Girard,5.63618341,PLAYGROUND_SITE,SQUARE_PLAZA,7,8,4,19,Y,Y,N,,38881.91015625,784.14080256605
114,Daniel Boyle Memorial Recreation Center,Daniel Boyle Memorial Recreation Center,N,Daniel Boyle Memorial Recreation Center,Boyle Rec,Somerton Playground,1843,13045 KELVIN AVE,19116,13024 STEVENS RD,"13024 STEVENS RD;13235 KELVIN AVE",10.68965923,RECREATION_CENTER,RECREATION_SITE,1,1,10,7,Y,Y,Y,,74072.8515625,1183.72158636924
115,Stenton Park,Stenton Park,N,Stenton Park,Stenton,,1958,1699 W COURTLAND ST,19140,4600 N 16TH ST,"16th & Wyoming;4600 N 16TH ST;4601 N 18TH ST",14.76482079,RECREATION_CENTER,RECREATION_SITE,4,4,8,35,Y,Y,Y,City owns all land. Mansion Campus is long term lease to National Society of Colonial Dames of America (1910).,102017.2890625,1257.8346692662
116,Thomas Holme School Playground,Thomas Holme School Playground,N,Thomas Holme School Playground,Holme School,,2939,3280 HOLME AVE,19114,9152 ACADEMY RD,"9152 ACADEMY RD;9125 ACADEMY RD",10.12771034,RECREATION_CENTER,RECREATION_SITE,2,1,6,8,Y,Y,N,School District - Thomas Holme Elementary School,70042.5234375,1148.20054734219
117,Charles A Papa Playground,Morris Park,Y,Charles A. Papa Playground,Papa,,1929,6839 LANSDOWNE AVE,19151,,68th St & Lansdowne Ave,8.53013415,RECREATION_CENTER,RECREATION_SITE,7,8,4,19,Y,Y,Y,There is no parcel here,58852.609375,1471.30273420529
118,Water Tower Recreation Center,Water Tower Recreation Center,N,Water Tower Recreation Center,Water Tower,,1979,267 E HARTWELL LN,19118,"209-99 E HARTWELL LN;8030-40 WINSTON RD","209-99 E HARTWELL LN;8030-40 WINSTON RD;245 E HARTWELL LN;8299 ARDLEIGH ST;Hartwell & Ardleigh",9.54956974,RECREATION_CENTER,RECREATION_SITE,3,4,8,14,Y,Y,Y,Tennis Courts were developed in 1958.,66081.11328125,1538.06781339223
119,Thomas Hart Park,Thomas Hart Park,N,Thomas Hart Park,Hart,,578,1321 N 04TH ST,19122,1315-21 N 04TH ST,1315-21 N 04TH ST,0.2155337,PLAYGROUND_SITE,MISC_PARK,9,2,5,26,Y,Y,N,,1486.91015625,175.494639265274
120,James J Ramp Playground,James J Ramp Playground,N,James J. Ramp Playground,Ramp,"Holmesburg Recreation Center; Holmesburg War Veterans Memorial Playground",1938,3340 SOLLY AVE,19136,"3300 SOLLY AVE, 3340 SOLLY AVE","3300-40 SOLLY AVE, Solly & Rowland;3300 SOLLY AVE, 3350 SOLLY AVE",9.04397754,RECREATION_CENTER,RECREATION_SITE,2,1,6,8,Y,Y,Y,,62530.88671875,1161.40663957834
121,Pepper School Playground,Pepper School Playground,N,,Pepper School,,2799,2801 S 84TH ST,19153,2801 S 84TH ST,8400 LYONS AVE,8.69419964,PLAYGROUND_SITE,MISC_PARK,10,8,2,12,Y,Y,N,,59848.04296875,983.158866262117
122,Elizabeth M Picariello Playground,Elizabeth M Picariello Playground,N,Elizabeth M. Picariello Playground,Picariello,"Liberty Bell Youth Organization;Sergeant Patrick C. McDonald Memorial Gymnasium;LaBrum School",1934,10815 CALERA RD,19154,"3325 RED LION RD;10851 CALERA RD","3325 RED LION RD;10801 CALERA RD;Red Lion & Calera;10851 CALERA RD",10.35795095,RECREATION_CENTER,RECREATION_SITE,2,1,10,8,Y,Y,Y,"Land under Gym is owned by the City.PPR leases land from School District; Athletic Field area to Liberty Bell Youth Organization. Part of the Labrum School Property.",71690.99609375,1251.6466846467
123,Reyburn Park,Reyburn Park,N,,Reyburn, ,2828,1950 W LEHIGH AVE,19132,"1950 W LEHIGH AVE, 2020-50 W LEHIGH AVE","2020-50 W LEHIGH AVE;21st & Lehigh",7.25306354,PLAYGROUND_SITE,MISC_PARK,8,6,5,22,Y,Y,N,,50070.71484375,1282.22427864758
124,Ronald Trumbette Playground,Ronald Trumbette Playground,N,,Trumbette, ,135,9050 TORRESDALE AVE,19136,"9000 TORRESDALE AVE, 9050 TORRESDALE AVE","9000 TORRESDALE AVE;Torresdale & Tolbut",8.46819384,PLAYGROUND_SITE,MISC_PARK,2,1,6,8,Y,Y,N,,58551.78515625,1012.06717073623
125,Seymour Tarken Recreation Center,Seymour Tarken Recreation Center,N,Seymour Tarken Recreation Center,Tarken,,1962,6350 FRONTENAC ST,19111,6250 FRONTENAC ST,"6250 FRONTENAC ST;6300 FRONTENAC ST;6320 FRONTENAC ST;6201 SUMMERDALE AVE;Frontenac & Levick",8.89483047,RECREATION_CENTER,RECREATION_SITE,1,1,9,2,Y,Y,Y,,61488.09375,1021.75045231218
126,33rd and Oxford Driving Range,East Fairmount Park,Y,,33rd and Oxford Range,"Strawberry Green Driving Range;33rd St Driving Range",1802,3300 RESERVOIR DR,19121,2500 SPRING GARDEN ST,"2500 SPRING GARDEN ST;33rd & Oxford;1500 N 33rd St",8.21639678,GOLF_FACILITY,ATHLETIC_GOLF,8,5,4,22,N,Y,N,Located in East Fairmount Park,56696.8984375,966.811313450993
127,Edward Houseman Playground,Edward Houseman Playground,N,Edward Houseman Playground,Houseman,,1875,900 E GODFREY AVE,19124,802 E GODFREY AVE,"802 E GODFREY AVE;5091 SUMMERDALE AVE;4979 SUMMERDALE AVE;4955 SUMMERDALE AVE;5151 SUMMERDALE AVE;Summerdale & Godfrey",8.66516115,RECREATION_CENTER,RECREATION_SITE,5,3,9,2,Y,Y,Y,,59879.3125,1111.89710680307
128,Samuel F Houston Playground,Wissahickon Valley Park,Y,Samuel F. Houston Playground,Houston,,1876,994 SEQUOIA RD,19128,8601 WISSAHICKON AVE,"8601 WISSAHICKON AVE;900 GRAKYN LA;999 GRAKYN LA;Grakyn & Wissahickon",6.20141897,RECREATION_CENTER,RECREATION_SITE,3,4,4,5,Y,Y,Y,,42904.671875,921.992533331832
129,Vernon Park,Vernon Park,N,,Vernon,"Black Writers Museum;Wister Mansion",632,5754 GERMANTOWN AVE,19144,5710-18 GERMANTOWN AVE,"5754 GERMANTOWN AVE;5818 GERMANTOWN AVE;5710-18 GERMANTOWN AVE;5805 GREENE ST;5801 GREENE ST;Germantown & Chelten",8.47444085,NEIGHBORHOOD_PARK,RECREATION_SITE,3,4,8,14,Y,Y,N,Vernon House leased.,58573.0859375,1067.54369727202
130,Haddington-Marshall L Shepard Sr Recreation Center,Haddington-Marshall L Shepard Sr Recreation Center,N,"Haddington-Marshall L. Shepard, Sr. Recreation Center",Shepard,,1952,5700 HAVERFORD AVE,19131,5700 HAVERFORD AVE,57th & Haverford,8.21454581,RECREATION_CENTER,RECREATION_SITE,7,8,4,19,Y,Y,Y,,56662.39453125,979.852671063715
131,Penn Treaty Park,Penn Treaty Park,N,,Penn Treaty, ,317,1299 BEACH ST,19125,"1201-33 N DELAWARE AVE, 1227-37 BEACH ST, 1301 BEACH ST","1201-1301 BEACH ST, Beach & Columbia;1201-33 N DELAWARE AVE, 1227-37 BEACH ST, 1301 BEACH ST",8.52023264,PLAYGROUND_SITE,MISC_PARK,9,2,1,26,Y,Y,N,,58758.16015625,1283.97935287583
132,Wingohocking Park,Wingohocking Park,N,,Wingohocking, ,1369,1200 W WINGOHOCKING ST,19140,4101 OLD YORK RD,4101 OLD YORK RD,8.34381239,PLAYGROUND_SITE,MISC_PARK,4,3,8,35,Y,Y,N,,57644.4140625,1312.97749943867
133,W Freeland Kendrick Recreation Center,W Freeland Kendrick Recreation Center,N,W. Freeland Kendrick Recreation Center,Kendrick,,1885,5878 RIDGE AVE,19128,5822-24 RIDGE AVE,"5822-24 RIDGE AVE, Ridge & Pensdale",8.01513139,RECREATION_CENTER,RECREATION_SITE,3,4,4,5,Y,Y,Y,,55387.25390625,931.283098565251
134,Fanny Kemble Abolitionist Memorial Park,Fanny Kemble Abolitionist Memorial Park,N,Fanny Kemble Abolitionist Memorial Park,Kemble,,731,5641 OGONTZ AVE,19141,"1649 W OLNEY AVE, 5625, 5631-37, 5641-81, 5689, 5699 OGONTZ AVE, 5650 N 16TH ST","16th & Chew;1649 W OLNEY AVE, 5625, 5631-37, 5641-81, 5689, 5699 OGONTZ AVE, 5650 N 16TH ST",8.000155,PLAYGROUND_SITE,MISC_PARK,4,4,8,35,Y,Y,N,,55301.83984375,1088.01019856879
135,Bridesburg Recreation Center,Bridesburg Recreation Center,N,Bridesburg Recreation Center,Bridesburg,,1822,4625 RICHMOND ST,19137,4625 RICHMOND ST,"4649 RICHMOND ST, Richmond & Ash, 4601 RICHMOND ST",7.98273891,RECREATION_CENTER,RECREATION_SITE,6,2,6,15,Y,Y,Y,,55115.48046875,938.23851597021
136,Bradford Park,Bradford Park,N,,Bradford,Rhawnhurst,236,2400 FAUNCE ST,19152,2400 FAUNCE ST,"Faunce & Bradford, Calvert & Shelmire",8.51281098,NEIGHBORHOOD_PARK,MISC_PARK,1,1,6,2,Y,Y,N,Named for William Bradford in 1982.,58863.20703125,995.670353957161
137,Johnny Sample Recreation Center,Cobbs Creek Park,Y,Johnny Sample Recreation Center,Sample,Cobbs Creek Recreation Center and Pool,1836,250 S 63RD ST,19139,12 COBBS CREEK PKWY,"63rd & Spruce; 280 Cobbs Creek Parkway;12 COBBS CREEK PKWY",6.76257694,RECREATION_CENTER,RECREATION_SITE,10,8,3,18,Y,Y,Y,,46635.21875,1396.18932232148
138,Ralph Brooks Park,Ralph Brooks Park,N,Ralph Brooks Park,Brooks,,1360,1601 S 20TH ST,19145,1601-13 S 20TH ST,1601-13 S 20TH ST,0.2854354,PLAYGROUND_SITE,MISC_PARK,11,7,2,17,Y,Y,N,,1966.82421875,189.850115349697
139,Francis J Myers Recreation Center,Francis J Myers Recreation Center,N,Francis J. Myers Recreation Center,FJ Myers,,1858,5800 CHESTER AVE,19143,5800 CHESTER AVE,"58th & Kingsessing;5801 KINGSESSING AVE",7.62504584,RECREATION_CENTER,RECREATION_SITE,10,8,2,12,Y,Y,Y,Rebuild Renovations stated in 2024,52546.12109375,935.559657267645
140,Somerton Woods,Somerton Woods,N,,Somerton Woods,Stevens & Welton Neighborhood Park,44,900 WELTON ST,19116,900 WELTON ST,"Stevens Rd & Welton Rd;11730 STEVENS RD;11030 STEVENS RD",7.59133886,CONSERVATION_UNDEVELOPED,CONSERVATION_DRAINAGE_WATERSHED,1,1,10,7,Y,Y,N,,52592.68359375,958.413270653473
141,Thomas B Smith Recreation Center,Thomas B Smith Recreation Center,N,Thomas B. Smith Recreation Center,Smith,Wilson Park,502,2200 S 24TH ST,19145,"2100 S 24TH ST, 2200 S 24TH ST","2100 S 24TH ST, 24th & Jackson",7.5907246,RECREATION_CENTER,RECREATION_SITE,11,7,2,1,Y,Y,Y,,52295.59765625,997.532840718843
142,Rittenhouse Square,Rittenhouse Square,N,Rittenhouse Square,Rittenhouse, ,977,1800 WALNUT ST,19103,1800 WALNUT ST,18th & Walnut,7.31387262,NEIGHBORHOOD_PARK,SQUARE_PLAZA,11,5,5,9,Y,Y,N,,50423.83984375,870.116925675686
143,Samuel Rose Recreation Center,Cobbs Creek Park,Y,Samuel Rose Recreation Center,Rose,Overbrook Park,1944,1225 N 75TH ST,19151,N/A,"7500 LANSDOWNE AVE;75th & Lansdowne;7401 LANSDOWNE AVE;1300 N 75th St",7.36635958,EVENT_VENUE,RECREATION_SITE,7,8,4,19,Y,Y,N,,50821.16015625,932.258064332652
144,Loudoun Park,Loudoun Park,N,,Loudoun, ,1180,4650 GERMANTOWN AVE,19144,4650 GERMANTOWN AVE,Germantown & Apsley,7.66799045,NEIGHBORHOOD_PARK,MISC_PARK,4,4,8,39,Y,Y,N,portion of park leased to mansion.,52983.47265625,1197.59608983187
145,Clearview Park,Clearview Park,N,,Clearview, ,500,7600 BUIST AVE,19153,"7600 BUIST AVE, 7615-21 CHELWYNDE AVE, 7631 CHELWYNDE AVE, 2545 S 77TH ST, 2522 S 76TH ST","77th & Buist;7615-21 CHELWYNDE AVE, 7631 CHELWYNDE AVE, 2545 S 77TH ST, 2522 S 76TH ST",5.58651071,NEIGHBORHOOD_PARK,MISC_PARK,10,8,2,12,Y,Y,N,,38468.4609375,1557.80121425819
146,Elmwood Park,Elmwood Park,N,,Elmwood, ,2907,7101 DICKS AVE,19142,7101 DICKS AVE,71st & Buist,7.23458398,NEIGHBORHOOD_PARK,SQUARE_PLAZA,10,8,2,12,Y,Y,N,,49824.9765625,851.182883615872
147,Harry S McDevitt Playground,Harry S McDevitt Playground,N,Harry S. McDevitt Playground,McDevitt,,1906,3580 SCOTTS LN,19129,3500 CRAWFORD ST,"3186 SCOTTS LN;3501 SCOTTS LN;3531 SCOTTS LN;3500 CRAWFORD ST",6.25335398,RECREATION_CENTER,RECREATION_SITE,3,4,4,39,Y,Y,Y,,43187.4765625,914.137317265324
148,Washington Square,Washington Square,N,Washington Square,Washington, ,16,600 WALNUT ST,19106,600 WALNUT ST,"6th & Walnut; 650 WALNUT ST",7.1882027,EVENT_VENUE,SQUARE_PLAZA,12,5,1,9,Y,Y,N,,49553.83984375,981.06083741263
149,Charles J Ziehler Playground,Charles J Ziehler Playground,N,Charles J. Ziehler Playground,Ziehler,,1976,5530 B ST,19120,200-64 E OLNEY AVE,"200-64 E OLNEY AVE;B & Olney",7.10839101,RECREATION_CENTER,RECREATION_SITE,5,3,9,35,Y,Y,Y,Site Renovations started in 2023.,49129.02734375,884.925177974694
150,Franklin Square,Franklin Square,N,Franklin Square,Franklin, ,53,200 N 06TH ST,19106,"200 N 06TH ST, 711 RACE ST","6th & Race;711 RACE ST;500 Vine St",7.16492352,EVENT_VENUE,SQUARE_PLAZA,9,5,1,9,Y,Y,N,,49405.890625,1024.69413223215
151,Thomas Mitchell Playground,Thomas Mitchell Playground,N,Thomas Mitchell Playground,Mitchell,,1912,3694 CHESTERFIELD RD,19114,3694 CHESTERFIELD RD,"3600 WHITEHALL LN;3700 WHITEHALL LN;Morrel & Crown",6.84147744,RECREATION_CENTER,RECREATION_SITE,2,1,10,8,Y,Y,Y,Site Renovated in 2022-2023.,47331.0625,980.576783093238
152,Gilbert Stuart Park,Gilbert Stuart Park,N,,Stuart, ,843,5132 GERMANTOWN AVE,19144,5132 GERMANTOWN AVE,,0.28774015,NEIGHBORHOOD_PARK,SQUARE_PLAZA,4,4,8,39,Y,Y,N,,1988.48828125,176.376338050722
153,Charles M Finley Playground,Charles M Finley Playground,N,Charles M. Finley Playground,Finley,Whitehall Commons,1989,1006 E HORTTER ST,19150,7701 MANSFIELD AVE,"7701 MANSFIELD AVE;Upsal & Mansfield;1001 E UPSAL ST;1037 E UPSAL ST",6.64473217,RECREATION_CENTER,RECREATION_SITE,3,4,9,14,Y,Y,Y,,45965.91015625,875.483904592075
154,Von Colln Field,Benjamin Franklin Parkway,Y,,Von Colln, ,1232,2250 PENNSYLVANIA AVE,19130,N/A,"2200-2268 PENNSYLVANIA AVE;23rd & Pennsylvania",6.56999502,RECREATION_CENTER,ATHLETIC_OTHER,9,5,5,9,N,Y,N,,45312.8359375,897.610215712313
155,Norris Square,Norris Square,N,Norris Square,Norris, ,2905,2100 N HOWARD ST,19122,2100 N HOWARD ST,"2100-60 N HOWARD ST, Diamond & Hancock",6.40064101,PLAYGROUND_SITE,SQUARE_PLAZA,8,6,7,26,Y,Y,N,Site Renovations started in 2022,44170.71484375,823.895799898487
156,Tomlinson and Gifford Playground,Tomlinson and Gifford Playground,N,Tomlinson and Gifford Playground,Tomlinson and Gifford,,1863,487 TOMLINSON RD,19116,575 TOMLINSON RD,575 TOMLINSON RD,6.4000252,RECREATION_CENTER,RECREATION_SITE,1,1,10,7,Y,Y,Y,,44338.5703125,851.561635365206
157,McPherson Square,McPherson Square,N,,McPherson, ,576,601 E INDIANA AVE,19134,601 E INDIANA AVE,Kensington & Indiana,6.39110448,PLAYGROUND_SITE,SQUARE_PLAZA,5,3,7,24,Y,Y,Y,,44120.58984375,833.075626098038
158,Morris Estate Cultural Center,Morris Estate Cultural Center,N,Morris Estate Cultural Center,Morris Estate,,1914,1610 CHELTEN AVE,19141,"1610 CHELTEN AVE, 1700 CHELTEN AVE","1700 CHELTEN AVE;1600 CHELTEN AVE",6.38125279,RECREATION_CENTER,RECREATION_SITE,4,4,8,35,Y,Y,Y,"Portion of land (ball diamond) is currently owned by School District (2020), rest is City owned.",44124.65234375,922.500304757223
159,Sergeant John J McVeigh Recreation Center,Sergeant John J McVeigh Recreation Center,N,Sergeant John J. McVeigh Recreation Center,McVeigh,John J. McKinley Playground,1908,3390 D ST,19134,400-64 E ONTARIO ST,400-64 E ONTARIO ST,6.32015353,RECREATION_CENTER,RECREATION_SITE,5,3,7,25,Y,Y,Y,,43637.40234375,828.893333754658
160,Malcolm X Memorial Park,Malcolm X Memorial Park,N,Malcolm X Memorial Park,Malcolm X,Black Oak Park,182,5100 PINE ST,19143,5100 PINE ST,51st & Pine,6.29779613,PLAYGROUND_SITE,SQUARE_PLAZA,10,8,3,18,Y,Y,N,,43422.74609375,826.45623070636
161,Robert T Heitzman Recreation Center,Robert T Heitzman Recreation Center,N,Robert T. Heitzman Recreation Center,Heitzman,Knight Playground,1870,3645 AMBER ST,19134,2136 CASTOR AVE,"Castor & Amber;3631 AMBER ST;2136 CASTOR AVE",2.90762604,RECREATION_CENTER,RECREATION_SITE,6,2,6,24,Y,Y,Y,Site Renovated in 2022-2023.,20074.34765625,577.61735027239
162,Joseph A Scanlon Playground,Joseph A Scanlon Playground,N,Joseph A. Scanlon Playground,Scanlon,"Webster Playground, Scanlon Ice Rink",1950,1099 E TIOGA ST,19134,1099 E TIOGA ST,"1099 E TIOGA ST, Tioga & J",6.20991504,RECREATION_CENTER,RECREATION_SITE,5,3,7,24,Y,Y,Y,,42877.921875,908.627276361371
163,Fairmount Water Works Historic Area,East Fairmount Park,Y,Fairmount Water Works Historic Area,Water Works, ,2880,650 WATER WORKS DR,19130,2500 SPRING GARDEN ST,"2500 SPRING GARDEN ST;620-690 AQUARIUM DR;630-690 WATER WORKS DR",5.38908855,EVENT_VENUE,HISTORIC_SITE,9,5,4,9,Y,Y,N,,37173.58984375,1347.41264770581
164,Frank McArdle Memorial Recreation Center,Frank McArdle Memorial Recreation Center,N,Frank McArdle Memorial Recreation Center,McArdle,,1991,2945 WELSH RD,19152,8930 ASHTON RD,"2933 WELSH RD;2801 WELSH RD;8930 ASHTON RD;2951 WELSH RD;Welsh & Tolbut",6.13680759,PLAYGROUND_SITE,RECREATION_SITE,2,1,6,8,Y,Y,N,,42447.34765625,1088.11904507079
165,Boniface Piccoli Playground,Boniface Piccoli Playground,N,Boniface Piccoli Playground,Piccoli,,1935,1500 E CAYUGA ST,19124,1501 E BRISTOL ST,"1501 E BRISTOL ST;O & Bristol",6.01259396,RECREATION_CENTER,RECREATION_SITE,5,3,7,24,Y,Y,Y,,41529.10546875,807.022372641094
166,Mayfair Recreation Center,Mayfair Recreation Center,N,Mayfair Recreation Center,Mayfair,Mayfair Community Center,1905,3000 SAINT VINCENT ST,19149,2901 PRINCETON AVE,"2901 PRINCETON AVE;3015 PRINCETON AVE;2990 SAINT VINCENT ST",6.52184663,RECREATION_CENTER,RECREATION_SITE,2,1,6,15,Y,Y,Y,One of the buildings and fields leased out to Mayfair Community Development Corporation,45081.53515625,989.56969684077
167,Cliveden Park,Cliveden Park,N,Cliveden Park,Cliveden, ,1106,501 E JOHNSON ST,19119,501 E JOHNSON ST,"6400 Chew Ave, Chew & Cliveden",5.95249698,PLAYGROUND_SITE,MISC_PARK,3,4,8,14,Y,Y,N,,41161.37109375,849.528773924998
168,Helen G Sturgis Playground,Helen G Sturgis Playground,N,Helen G. Sturgis Playground,Sturgis,,1960,6420 N 2ND ST,19126,200-20 W 65TH AVE,"200-20 W 65TH AVE;2nd & 65th;210 W 65TH AVE;6460 N 2ND ST",5.84218364,RECREATION_CENTER,RECREATION_SITE,5,3,9,35,Y,Y,Y,,40395.296875,800.524090395123
169,Jack Horgan Memorial Field at Old Line Park,Jack Horgan Memorial Field at Old Line Park,N,Jack Horgan Memorial Field at Old Line Park,Horgan,Old Line Park,2558,8730 OLD LINE RD,19128,8730 OLD LINE RD,,6.1468996,ATHLETIC_SITE,ATHLETIC_OTHER,3,4,4,5,Y,Y,N,,42525.67578125,884.778727724193
170,John L Barrett Playground,John L Barrett Playground,N,John L. Barrett Playground,Barrett,Lindley Playground,1814,700 W DUNCANNON AVE,19120,641 LINDLEY AVE,"8th & Lindley;641 LINDLEY AVE;5200 N FRANKLIN ST;715 W DUNCANNON AVE",5.77555582,RECREATION_CENTER,RECREATION_SITE,4,3,"8;9",35,Y,Y,Y,,39912.859375,900.034590358884
171,John J McCreesh Sr Playground,John J McCreesh Sr Playground,N,"John J. McCreesh, Sr. Playground",McCreesh,,508,6744 REGENT ST,19142,6744 REGENT ST,6600 REGENT ST,5.29777207,RECREATION_CENTER,RECREATION_SITE,10,8,2,12,Y,Y,Y,,36499.89453125,1000.84577385992
172,Parkside Evans Recreation Center,West Fairmount Park,Y,Parkside Evans Recreation Center,Parkside Evans,Philly Pumptrack,1930,5271 PARKSIDE AVE,19131,3401 W GIRARD AVE,"5300 PARKSIDE AVE;5301 PARKSIDE AVE;3401 W GIRARD AVE",6.30525786,RECREATION_CENTER,RECREATION_SITE,7,5,4,19,Y,Y,Y,,43518.79296875,1310.63420633081
173,West Oak Lane Senior Center,West Oak Lane Senior Center,N,West Oak Lane Senior Center,West Oak Ln Senior Center,West Oak Lane Older Adult Center,3477,7210 OGONTZ AVE,19138,7210-18 OGONTZ AVE,7210-18 OGONTZ AVE,0.2288807,OLDER_ADULT_CENTER,OLDER_ADULT_CENTER,4,4,9,14,Y,Y,Y,Privately Owned. Currently in review by PPR.,1583.2890625,159.240281495758
174,Ramonita Negron Rivera Recreation and Community Center,Ramonita Negron Rivera Recreation and Community Center,N,Ramonita Negron Rivera Recreation and Community Center,Rivera,"Mann Recreation Center;Westmoreland Square;Hersch Recreation Center",1941,3201 N 05TH ST,19140,3201 N 05TH ST,5th & Allegheny,4.25280314,RECREATION_CENTER,RECREATION_SITE,5,3,7,25,Y,Y,Y,Mann Older Adult Center is also located in the building on this site. 2024-Rebuild Renovations completed.,29364.0234375,704.606694328111
175,Franklin Delano Roosevelt Playground,Franklin Delano Roosevelt Playground,N,Franklin Delano Roosevelt Playground,Roosevelt,,1943,4300 HELLERMAN ST,19135,4301 LEVICK ST,"6455 WALKER ST, Levick & Walker;4301 LEVICK ST",5.45399635,RECREATION_CENTER,RECREATION_SITE,6,2,6,15,Y,Y,Y,"2020 Playground, Sprayground, Basketball Courts Renovations Completed.",37685.375,776.139428688373
176,A Albert Cherashore Playground,A Albert Cherashore Playground,N,A. Albert Cherashore Playground,Cherashore,,1828,900 W CHEW AVE,19141,851 W OLNEY AVE,"851-951 W OLNEY AVE;9th & Olney;960 CHEW AVE",5.24054709,RECREATION_CENTER,RECREATION_SITE,4,3,9,35,Y,Y,Y,,36223.6953125,770.965730452634
177,Barnes Foundation Museum,Benjamin Franklin Parkway,Y,The Barnes Foundation Museum,Barnes, ,2805,2051 BENJAMIN FRANKLIN PKY,19130,2025L BENJAMIN FRANKLIN PKWY,"2025L BEN FRANKLIN PKWY;2051 BENJAMIN FRANKLIN PKY;19th & Pkwy",5.3924238,EVENT_VENUE,MUSEUM,9,5,5,9,N,Y,N,,37188.25390625,820.028324995253
178,William T Granahan Playground,Cobbs Creek Park,Y,William T. Granahan Playground,Granahan,,1864,6532 CALLOWHILL ST,19151,"338-50 N 65TH ST, 6525-47 VINE ST","65th & Callowhill;338-50 N 65TH ST, 6525-47 VINE ST",5.30859667,RECREATION_CENTER,RECREATION_SITE,7,8,4,19,Y,Y,Y,,36619.69140625,1032.55369891358
179,George Connell Park,George Connell Park,N,George Connell Park,Connell, ,955,6401 ELMWOOD AVE,19142,6401 ELMWOOD AVE,64th & Elmwood,5.32084152,RECREATION_CENTER,MISC_PARK,10,8,2,12,Y,Y,Y,,36655.1015625,762.551852055596
180,Mummers Museum,Mummers Museum,N,,Mummers, ,3478,200 WASHINGTON AVE,19147,"200-10 WASHINGTON AVE, 212-22 WASHINGTON AVE","200-10 WASHINGTON AVE;212-22 WASHINGTON AVE;1100 S 2nd St",0.24996743,EVENT_VENUE,MUSEUM,12,7,1,3,Y,Y,N,,1722.53515625,174.472912405944
181,West Mill Creek Playground,West Mill Creek Playground,N,West Mill Creek Playground,West Mill Creek,,1970,5100 WESTMINSTER AVE,19139,"525-53 N 52ND ST,5127-41&5100 WESTMINSTER AVE,868-76 N 51ST ST,5101-07&5100 PARRISH ST,5100-10&5072 OGDEN ST,5101&5046-64 RENO ST,5041-69 FUNSTON ST","51st & Reno;525-53 N 52ND ST,5127-41&5100 WESTMINSTER AVE,868-76 N 51ST ST,5101-07&5100 PARRISH ST,5100-10&5072 OGDEN ST,5101&5046-64 RENO ST,5041-69 FUNSTON ST",5.26909751,RECREATION_CENTER,RECREATION_SITE,7,8,3,16,Y,Y,Y,,36346.2734375,1714.43474066547
182,Lonnie Young Recreation Center of East Germantown,Lonnie Young Recreation Center of East Germantown,N,The Lonnie Young Recreation Center of East Germantown,Young,East Germantown Recreation Center,1897,1100 E CHELTEN AVE,19138,1100 E CHELTEN AVE,"Ardleigh St & E Chelten Ave;5650 ANDERSON ST",5.2289743,RECREATION_CENTER,RECREATION_SITE,4,4,8,14,Y,Y,Y,,36156.4296875,787.063397056395
183,Carousel House Recreation Center,West Fairmount Park,Y,Carousel House Recreation Center,Carousel,Recreation District HQ,1824,4300 AVENUE OF THE REPUBLIC,19131,,"1601 BELMONT AVE;1701 Belmont Ave;1701-15 BELMONT AVE",5.24413526,RECREATION_CENTER,RECREATION_SITE,7,5,4,16,Y,Y,Y,Dept of Rec created in 1987 according to signage,36185.8671875,801.625192446262
184,Eileen Fitzpatrick Playground,Eileen Fitzpatrick Playground,N,Eileen Fitzpatrick Playground,Fitzpatrick,Decatur School Playground,1983,12485 ACADEMY RD,19154,3500 ACADEMY RD,"3500 ACADEMY RD;12501 TORREY RD;Academy & Torrey",4.94086562,RECREATION_CENTER,RECREATION_SITE,2,1,10,8,Y,Y,Y,Land is owned by School District-PPR leases. Part of the Decatur School Property.,34210.4921875,762.548454057908
185,11th and Cecil B Moore Playground,11th and Cecil B Moore Playground,N,,11th and CB Moore,11th & Columbia,1135,1737 N 11TH ST,19122,1001-33 CECIL B MOORE AVE,"1001-33 CECIL B MOORE AVE;1701 N 11TH ST",5.18166632,ATHLETIC_SITE,ATHLETIC_OTHER,9,6,5,22,Y,Y,N,,35754.375,755.891228616249
186,Waterview Recreation Center,Waterview Recreation Center,N,Waterview Recreation Center,Waterview,,1980,5826 MCMAHON AVE,19144,5826 MCMAHON AVE,"5820 MCMAHON AVE;Haines & McMahon",5.16461987,RECREATION_CENTER,RECREATION_SITE,4,4,8,14,Y,Y,Y,1911 Ordinance assigned to Department of Rec.,35706.125,769.244419782271
187,Cohocksink Recreation Center,Cohocksink Recreation Center,N,Cohocksink Recreation Center,Cohocksink,,1838,2901 CEDAR ST,19134,2901 CEDAR ST,"2889 CEDAR ST, Cedar & Cambria",5.11659919,RECREATION_CENTER,RECREATION_SITE,6,2,1,24,Y,Y,Y,,35311.12890625,861.347850726562
188,McMichael Park,McMichael Park,N,,McMichael, ,880,3201 MIDVALE AVE,19129,3201-45 MIDVALE AVE,"3201-45 MIDVALE AVE, Midvale & Henry",5.84360812,PLAYGROUND_SITE,MISC_PARK,3,4,4,39,Y,Y,N,,40368.546875,861.049015268981
189,Stephen E Fotterall Square,Stephen E Fotterall Square,N,Stephen E. Fotterall Square,Fotterall,James Young Memorial Playground,1184,2400 N 11TH ST,19133,2400 N 11TH ST,11th & York,5.06784791,PLAYGROUND_SITE,SQUARE_PLAZA,8,6,5,22,Y,Y,N,,34980.1640625,739.463963673668
190,Lawrence E Murphy Recreation Center,Lawrence E Murphy Recreation Center,N,Lawrence E. Murphy Recreation Center,Murphy,Greenwich Recreation Center,1919,300 SHUNK ST,19148,300 SHUNK ST,"4th & Shunk;2600 S 3RD ST",4.95000547,RECREATION_CENTER,RECREATION_SITE,12,7,1,3,Y,Y,Y,Site Renovations started in 2023.,34092.515625,725.6670731015
191,Harrowgate Park,Harrowgate Park,N,,Harrowgate,Gates Park,639,3455 KENSINGTON AVE,19134,3455 KENSINGTON AVE,Tioga & Kensington,4.9122538,PLAYGROUND_SITE,MISC_PARK,5,2,6,24,Y,Y,N,,33915.88671875,753.320045696768
192,48th and Woodland Playground,48th and Woodland Playground,N,,48th and Woodland,"Comegys Playground;Johnsons Playground",1804,4740 WOODLAND AVE,19143,4740 WOODLAND AVE,,4.8465753,RECREATION_CENTER,RECREATION_SITE,10,8,3,18,Y,Y,Y,,33406.15625,748.801687595013
193,Dan Shissler Recreation Center,Dan Shissler Recreation Center,N,Dan Shissler Recreation Center,Shissler,Kensington Recreation Center,1844,1826 BLAIR ST,19125,1800-56 BLAIR ST,"1800-56 BLAIR ST, 1800 BLAIR ST; Blair & Berks",3.89753023,RECREATION_CENTER,RECREATION_SITE,9,2,7,26,Y,Y,Y,,26893.00390625,988.883660085742
194,East Poplar Playground,East Poplar Playground,N,East Poplar Playground,East Poplar,East Poplar Field,1851,800 N 08TH ST,19123,"882 N 08TH ST; 800 N 08TH ST; 901 N 08TH ST","820 N 08TH ST, 9th & Parish;882 N 08TH ST;800 N 08TH ST;8th and Poplar",7.92240269,RECREATION_CENTER,RECREATION_SITE,9,6,5,"9;26",Y,Y,Y,"Playground site acquired in 1948, fields added in 1975.",54648.12890625,1496.39615873168
195,Narcissa S Cruz Recreation Center,Narcissa S Cruz Recreation Center,N,Narcissa S. Cruz Recreation Center,Cruz,Manila Park,908,1401 N 06TH ST,19122,1400-52 N 05TH ST,"1400-52 N 05TH ST;1431 N 06TH ST;6th & Master;1405 N 05TH St;575 MASTER ST",4.80987949,RECREATION_CENTER,RECREATION_SITE,9,2,7,26,Y,Y,Y,,33183.89453125,723.559436276664
196,Holmesburg Recreation Center,Holmesburg Recreation Center,N,Holmesburg Recreation Center,Holmesburg,Crispin School,1873,4510 RHAWN ST,19136,"4500 DECATUR ST, 4500 RHAWN ST","4500 DECATUR ST;4500 RHAWN ST",4.68312338,RECREATION_CENTER,RECREATION_SITE,2,1,6,15,Y,Y,Y,Archdiocese of Philadelphia leases the fields,32368.74609375,812.586983441221
197,Lardners Point Park,Lardners Point Park,N,,Lardners,,1650,5202 LEVICK ST,19135,6301 MILNOR ST,6301 MILNOR ST,4.96529795,NEIGHBORHOOD_PARK,MISC_PARK,6,2,6,15,Y,Y,N,,34289.97265625,921.244420517028
198,Frederick Cione Playground,Frederick Cione Playground,N,Frederick Cione Playground,Cione,Aramingo Sqaure,1830,2600 ARAMINGO AVE,19125,2600 ARAMINGO AVE,"Aramingo & Lehigh, 2610 ARAMINGO AVE",4.75222038,RECREATION_CENTER,RECREATION_SITE,6,2,1,26,Y,Y,Y,,32793.00390625,944.978676842454
199,Pleasant Playground,Pleasant Playground,N,Pleasant Playground,Pleasant,,1936,305 SLOCUM ST,19119,6757 CHEW AVE,"6757 CHEW AVE;6750 BOYER ST;332 PLEASANT ST;Boyer & Pleasant",4.75614281,RECREATION_CENTER,RECREATION_SITE,3,4,8,14,Y,Y,Y,,32894.05078125,796.310597099573
200,Miles Mack Playground,Miles Mack Playground,N,Miles Mack Playground,Mack,"McAlpine, McAlpin",1910,736 N 36TH ST,19104,732-66 N 36TH ST,"732-66 N 36TH ST, 36th & Aspen",2.53457803,RECREATION_CENTER,RECREATION_SITE,7,8,3,16,Y,Y,Y,Rebuild Renovations began 7/2020.,17483.375,535.241442080612
201,Athletic Recreation Center,Athletic Recreation Center,N,Athletic Recreation Center,Athletic,"Jefferson Baseball Grounds;26th and Master;Athletic Square",1811,2626 W JEFFERSON ST,19121,1401-55 N 27TH ST,"1450 N 26TH ST; 1420 N 26TH ST, 1401-55 N 27TH ST",4.69342432,RECREATION_CENTER,RECREATION_SITE,9,6,5,22,Y,Y,Y,1911 Ordinance assigned to Department of Rec,32384.578125,714.978562504477
202,Happy Hollow Recreation Center,Happy Hollow Recreation Center,N,Happy Hollow Recreation Center,Happy Hollow,,1868,4800 WAYNE AVE,19144,4740 WAYNE AVE,"4740 WAYNE AVE, Wayne & Logan",4.58829954,RECREATION_CENTER,RECREATION_SITE,4,4,8,39,Y,Y,Y,,31702.01171875,858.304554336292
203,CCA Baldi School Playground,CCA Baldi School Playground,N,,Baldi School, ,2808,8725 VERREE RD,19115,8725 VERREE RD,,4.27638183,PLAYGROUND_SITE,MISC_PARK,1,1,10,7,Y,Y,N,PPR Leases from SD,29606.03125,764.710300068794
204,Private Alfred J Simpson Memorial Recreation Center,Private Alfred J Simpson Memorial Recreation Center,N,Private Alfred J. Simpson Memorial Recreation Center,Simpson,,1954,1010 ARROTT ST,19124,1010 ARROTT ST,"Arrott & Large;1000 ARROTT ST",4.55414218,RECREATION_CENTER,RECREATION_SITE,6,3,7,15,Y,Y,Y,,31463.39453125,922.875879648233
205,Reverend M Monkiewicz Recreation Center,Reverend M Monkiewicz Recreation Center,N,Reverend M. Monkiewicz Recreation Center,Monkiewicz,,1913,3201 RICHMOND ST,19134,"3201 RICHMOND ST, 2855 E ALLEGHENY AVE","2855 E ALLEGHENY AVE;Richmond & Allegheny",9.55695271,RECREATION_CENTER,RECREATION_SITE,6,2,6,24,N,N,Y,,65952.0078125,1602.2729080108
206,Ernest L Tustin Recreation Center,Ernest L Tustin Recreation Center,N,Ernest L. Tustin Recreation Center,Tustin,,1965,1951 N 60TH ST,19151,5901-29 W COLUMBIA AVE,"5901-29 W COLUMBIA AVE, 59th & Lancaster;5999 W COLUMBIA AVE",4.32379072,RECREATION_CENTER,RECREATION_SITE,7,8,4,19,Y,Y,Y,,29837.75,739.621626960358
207,Wharton Square,Wharton Square,N,Wharton Square,Wharton,,305,1300 S 23RD ST,19146,1300 S 23RD ST,"2300 WHARTON ST, 23rd & Wharton",4.29406803,RECREATION_CENTER,RECREATION_SITE,11,7,2,17,Y,Y,Y,,29592.375,681.78223897102
208,Mifflin Square,Mifflin Square,N,,Mifflin, ,126,500 WOLF ST,19148,500 WOLF ST,6th & Wolf,4.17187934,PLAYGROUND_SITE,SQUARE_PLAZA,12,7,1,3,Y,Y,N,,28736.80078125,671.921971110184
209,Belfield Recreation Center,Belfield Recreation Center,N,,Belfield,,1815,2109 W CHEW AVE,19138,"2109 W CHEW AVE, 5801 N BEECHWOOD ST","21st & Chew, 5801 N BEECHWOOD ST",4.01471298,RECREATION_CENTER,RECREATION_SITE,4,4,8,35,Y,Y,Y,,27754.3359375,1022.03696861257
210,Overington Park,Overington Park,N,,Overington,Oaklands,299,4600 LEIPER ST,19124,4600 LEIPER ST,Orthodox & Leiper,4.12413095,PLAYGROUND_SITE,MISC_PARK,6,3,7,15,Y,Y,N,,28489.21484375,672.543712405665
211,Columbus Square,Columbus Square,N,Christopher Columbus - Anthony DiProspero Playground,Columbus,"Passyunk Square;Columbus/DiProspero",966,1200 WHARTON ST,19147,1200 WHARTON ST,"1300 S 12TH ST;1201 W REED ST",4.11151702,RECREATION_CENTER,RECREATION_SITE,12,7,1,3,Y,Y,Y,,28332.359375,666.851224146249
212,Dr Nicola Capitolo Playground,Dr Nicola Capitolo Playground,N,Dr. Nicola Capitolo Playground,Capitolo,,501,900 FEDERAL ST,19147,900 FEDERAL ST,10th & Federal,4.09197487,RECREATION_CENTER,RECREATION_SITE,12,7,1,3,Y,Y,Y,,28198.2265625,652.990126661673
213,George A Vare Recreation Center,George A Vare Recreation Center,N,George A. Vare Recreation Center,Vare,,1966,2600 MORRIS ST,19145,2600 MORRIS ST,26th & Morris,4.10767749,RECREATION_CENTER,RECREATION_SITE,11,7,2,17,Y,Y,Y,Site Renovations started in 2022,28304.359375,667.187509629329
214,Mount Airy Playground,Mount Airy Playground,N,Mount Airy Playground,Mt Airy,Sedgewick Park,1917,7001 GERMANTOWN AVE,19119,7001 GERMANTOWN AVE,Germantown & Sedgwick,4.06202346,RECREATION_CENTER,RECREATION_SITE,3,4,8,14,Y,Y,Y,,28093.95703125,692.811654402257
215,Lonnie Cohen Recreation Center,Lonnie Cohen Recreation Center,N,Lonnie Cohen Recreation Center,Cohen,"Hillside;Turtle Park",1872,201 FOUNTAIN ST,19127,201 FOUNTAIN ST,Fountain & Fowler,4.07980012,RECREATION_CENTER,RECREATION_SITE,3,4,4,5,Y,Y,Y,Site renamed in 2023.,28196.57421875,833.168724674941
216,Fairhill Square,Fairhill Square,N,Fairhill Square,Fairhill, ,924,2649 N LAWRENCE ST,19133,2649 N LAWRENCE ST,2601-61 N LAWRENCE ST,2.86246211,PLAYGROUND_SITE,SQUARE_PLAZA,8,6,7,26,Y,Y,N,,19758.6640625,605.272971419118
217,Rodin Museum,Benjamin Franklin Parkway,Y,Rodin Museum,Rodin, ,3465,2151 BENJAMIN FRANKLIN PKY,19130,N/A,22nd & Benjamin Franklin Parkway,4.16431027,EVENT_VENUE,MUSEUM,9,5,5,9,N,Y,N,This is the portion of the Benjamin Franklin Parkway that is associated with the Rodin Museum. See Street Legal Card for the 22nd and Hamilton 'wedge',28719.90234375,756.229530420311
218,Stephen Girard Park,Stephen Girard Park,N,,S Girard,"Girard Estates;The Place;Farmhouse;Gentilhommiere Area",510,2101 SHUNK ST,19145,2101 SHUNK ST,"2100 SHUNK ST;22nd & Porter;2200 W Porter St",4.02028992,NEIGHBORHOOD_PARK,SQUARE_PLAZA,11,7,2,1,Y,Y,N,Gentilhommiere Area leased out.,27693.33984375,658.75314457575
219,Commodore John Barry Playground,Commodore John Barry Playground,N,Commodore John Barry Playground,Barry,,262,2838 S 18TH ST,19145,1800 JOHNSTON ST,"1800 JOHNSTON ST, 18th & Bigler",4.01253216,RECREATION_CENTER,RECREATION_SITE,11,7,2,1,Y,Y,Y,,27636.18359375,657.272497977994
220,Senator William Vincent Mullin Playground,Senator William Vincent Mullin Playground,N,Senator William Vincent Mullin Playground,Mullin,,1918,4301 PRINCETON AVE,19135,4301 PRINCETON AVE,"4301 PRINCETON AVE, Princeton & Walker",3.89356158,RECREATION_CENTER,RECREATION_SITE,2,2,6,15,Y,Y,Y,Site Renovated in 2023.,26908.62109375,826.838501245818
221,Joseph C McIlvain Playground,Joseph C McIlvain Playground,N,Joseph C. McIlvain Playground,McIlvain,Frankford Playground,1907,5200 N PENN ST,19124,5200 N PENN ST,,3.85387392,RECREATION_CENTER,RECREATION_SITE,6,2,7,15,Y,Y,Y,,26628.27734375,716.699281090308
222,Marie Dendy Recreation Center,Marie Dendy Recreation Center,N,Marie Dendy Recreation Center,Dendy,Schwartz,1902,1591 N 10TH ST,19122,1501-39 N 10TH ST,"1501-39 N 10TH ST;10th & Oxford;1515 N 10TH ST",3.74314936,RECREATION_CENTER,RECREATION_SITE,9,6,5,26,Y,Y,Y,,25826.03125,656.766291218855
223,Wister Playground,Wister Playground,N,Wister Playground,Wister,,1974,4971 BAYNTON ST,19144,4971 BAYNTON ST,"Baynton & Shedaker;4975 BAYNTON ST",2.85421964,RECREATION_CENTER,RECREATION_SITE,4,4,8,14,Y,Y,Y,,19725.765625,611.738781227234
224,Solomon Sacks Playground,Solomon Sacks Playground,N,Solomon Sacks Playground,Sacks,,1947,400 WASHINGTON AVE,19147,400 WASHINGTON AVE,4th & Washington,3.73850107,RECREATION_CENTER,RECREATION_SITE,12,7,1,3,Y,Y,Y,,25762.4765625,641.335411166527
225,Victor J Moss Memorial Field,Victor J Moss Memorial Field,N,Victor J. Moss Memorial Field,Moss,,1916,5726 TORRESDALE AVE,19135,5700 TORRESDALE AVE,"5700 TORRESDALE AVE;Torresdale & Cheltenham",3.69440024,RECREATION_CENTER,RECREATION_SITE,6,2,6,15,Y,Y,Y,Site renovations in 10/2019.,25520.21484375,640.892025119559
226,Daniel E Rumph II Recreation Center,Daniel E Rumph II Recreation Center,N,Daniel E. Rumph II Recreation Center,Rumph,"Mallery; Otto T. Mallery Playground",1945,108 E JOHNSON ST,19144,100-70 E JOHNSON ST,"100-70 E JOHNSON ST, Morton & Johnson",3.67814457,RECREATION_CENTER,RECREATION_SITE,3,4,8,14,Y,Y,Y,,25431.51171875,637.162135870578
227,Dorothy Emanuel Recreation Center,Dorothy Emanuel Recreation Center,N,Dorothy Emanuel Recreation Center,Emanuel,"Dorothy Emanuel Recreation and Teen Center; McCloskey School",1849,8545 PROVIDENT ST,19150,8500 PICKERING AVE,"8500 PICKERING AVE;8532 PICKERING AVE;Pickering & Gowen",3.67858288,RECREATION_CENTER,RECREATION_SITE,3,4,9,14,Y,Y,Y,,25459.609375,635.803095929423
228,Francisville Recreation Center,Francisville Recreation Center,N,Francisville Recreation Center,Francisville,Francisville Playground,1859,1822 WYLIE ST,19130,1737-39 FRANCIS ST,"1737-39 FRANCIS ST, Francis & Stanley",3.6815697,RECREATION_CENTER,RECREATION_SITE,9,6,5,9,Y,Y,Y,,25395.84375,635.975307920443
229,Sister Clara Muhammad Square,Sister Clara Muhammad Square,N,Sister Clara Muhammad Square,Muhammad,Durham Square,484,1035 N 48TH ST,19131,4700-30 LANCASTER AVE,"4700-30 LANCASTER AVE, 47th & Lancaster",3.59833677,PLAYGROUND_SITE,SQUARE_PLAZA,7,8,3,16,Y,Y,N,,24823.7421875,681.904065902907
230,Feltonville Recreation Center,Feltonville Recreation Center,N,Feltonville Recreation Center,Feltonville,,1853,283 E WYOMING AVE,19120,231-37 E WYOMING AVE,"231-37 E WYOMING AVE, 235 E WYOMING AVE",3.27937959,RECREATION_CENTER,RECREATION_SITE,5,3,7,25,Y,Y,Y,,22657.046875,639.562083970132
231,Walter Palumbo Recreation Center,Walter Palumbo Recreation Center,N,Walter Palumbo Recreation Center,W Palumbo,"Frank Palumbo, Jr. Recreation Center;Palumbo Recreation Center;Walter 'Chief' Palumbo",1927,700 S 09TH ST,19147,700 S 09TH ST,"9th & Bainbridge;900 BAINBRIDGE ST;725 S 10TH ST",3.221015,RECREATION_CENTER,RECREATION_SITE,12,7,1,3,Y,Y,Y,"Originally Frank Palumbo Recreation Center, later renamed to Walter Palumbo Recreation Center. Historic Designation for the sports field area on 12/2021.",22201.2421875,593.555166246199
232,Harpers Hollow Park,Harpers Hollow Park,N,,Harpers Hollow,,860,5850 OGONTZ AVE,19141,5850 OGONTZ AVE,Ogontz & Conlyn,3.60078362,NEIGHBORHOOD_PARK,CONSERVATION_DRAINAGE_WATERSHED,4,4,8,35,Y,Y,N,,24892.3359375,948.249227190264
233,Joseph Deni Recreation Center,Joseph Deni Recreation Center,N,Joseph Deni Recreation Center,Deni,,1846,1381 RUAN ST,19124,"1381 RUAN ST, 1385 RUAN ST","Adams & Church;1385 RUAN ST;1409 RUAN ST",3.52110521,PLAYGROUND_SITE,RECREATION_SITE,5,3,7,15,Y,Y,N,,24320.20703125,689.437420054931
234,James Allen Shuler Playground,James Allen Shuler Playground,N,James Allen Shuler Playground,Shuler,Whittier Playground,1878,3025 N 27TH ST,19132,2901 N 29TH ST,"2901 N 29TH ST, 27th & Clearfield, 3000 N 27TH ST",2.99198737,RECREATION_CENTER,RECREATION_SITE,3,6,4,39,Y,Y,Y,,20659.51171875,591.785175654949
235,Marian Anderson Recreation Center,Marian Anderson Recreation Center,N,Marian Anderson Recreation Center,M Anderson,,1901,776 S 17TH ST,19146,740 S 17TH ST,"740 S 17TH ST, 740-44 S 17TH ST",3.36089002,RECREATION_CENTER,RECREATION_SITE,11,7,2,17,Y,Y,Y,,23165.82421875,605.045803981513
236,John Dickinson Square,John Dickinson Square,N,,Dickinson,,960,1600 E MOYAMENSING AVE,19148,1600 E MOYAMENSING AVE,4th & Tasker,3.33034365,PLAYGROUND_SITE,RECREATION_SITE,12,7,1,3,Y,Y,N,,22945.62109375,606.105206960087
237,Disston Recreation Center,Disston Recreation Center,N,Disston Recreation Center,Disston Rec, ,1847,4500 DISSTON ST,19135,4423 LONGSHORE AVE,4423 LONGSHORE AVE,3.33070015,RECREATION_CENTER,RECREATION_SITE,2,2,6,15,Y,Y,Y,Renovations completed in 10/2020,23015.9765625,606.01935435003
238,Cloverly Park,Cloverly Park,N,Cloverly Park,Cloverly, ,772,5425 WISSAHICKON AVE,19144,5425 WISSAHICKON AVE,Wissahickon & School House,2.5442823,PLAYGROUND_SITE,MISC_PARK,4,4,8,39,Y,Y,N,,17580.22265625,531.439327669244
239,Albert W Christy Sr Recreation Center,Albert W Christy Sr Recreation Center,N,"Albert W. Christy, Sr. Recreation Center",Christy,"Sherwood Recreation Centre;55th and Christian",1829,728 S 55TH ST,19143,728 S 55TH ST,5501 CHRISTIAN ST,3.15489273,RECREATION_CENTER,RECREATION_SITE,10,8,3,18,Y,Y,Y,1911 Ordinance assigned to Department of Rec,21750.18359375,627.500685247603
240,Jefferson Square,Jefferson Square,N,Jefferson Square,Jefferson, ,199,300 WASHINGTON AVE,19147,300 WASHINGTON AVE,4th & Washington,3.12816978,NEIGHBORHOOD_PARK,SQUARE_PLAZA,12,7,1,3,Y,Y,N,,21556.421875,596.829673608253
241,Lindbergh Park,Lindbergh Park,N,,Lindbergh,"Carboni Ball Field;63rd & Lindbergh Park",1895,2800 S 63RD ST,19142,2800 S 63RD ST,63rd & Eastwick,3.12067264,ATHLETIC_SITE,MISC_PARK,10,8,3,12,Y,Y,N,,21496.234375,611.590434296082
242,William A Cibotti Recreation Center,William A Cibotti Recreation Center,N,William A. Cibotti Recreation Center,Cibotti,,498,2500 S 77TH ST,19153,2500 S 77TH ST,"7700 ELMWOOD AVE, 77th & Elmwood",3.05209218,RECREATION_CENTER,RECREATION_SITE,10,8,2,12,Y,Y,Y,,21016.62890625,632.733071623171
243,Jacob Stinger Park,Jacob Stinger Park,N,Jacob Stinger Park,Stinger,Stinger Square,443,1400 S 32ND ST,19146,1400 S 32ND ST,"3220 REED ST;33rd & Dickinson",3.09859027,PLAYGROUND_SITE,RECREATION_SITE,11,7,2,17,Y,Y,Y,,21354.1796875,589.560987269718
244,Northwood Park,Northwood Park,N,Northwood Park,Northwood, ,121,999 ARROTT ST,19124,"999 ARROTT ST;1003 FOULKROD ST","Arrott & Castor;1003 FOULKROD ST",6.749193,NEIGHBORHOOD_PARK,MISC_PARK,6,3,7,15,Y,Y,N,,46631.15625,1284.72235771807
245,Lower Mayfair Playground,Lower Mayfair Playground,N,Lower Mayfair Playground,Lower Mayfair,Ethan Allen School,1898,3023 ROBBINS ST,19149,3001 ROBBINS ST,"3001 ROBBINS ST;6300 HAWTHORNE ST;Battersby & Robbins",2.98769604,RECREATION_CENTER,RECREATION_SITE,6,2,6,15,Y,Y,Y,,20646.28125,610.318428928257
246,Inn Yard Park,East Fairmount Park,Y,,Inn Yard,Robert Evan's House,775,4250 RIDGE AVE,19129,4208-52 RIDGE AVE,4208-52 RIDGE AVE,1.41829472,PLAYGROUND_SITE,MISC_PARK,3,5,4,39,Y,Y,N,,9795.21875,424.160075265764
247,Charles H Chew Playground,Charles H Chew Playground,N,"Charles H. Chew, Sr. Playground",Chew,"Charles H. Chew, Jr. Playground",268,1800 WASHINGTON AVE,19146,1800 WASHINGTON AVE,1900 ELLSWORTH ST,2.79854277,RECREATION_CENTER,RECREATION_SITE,11,7,2,17,Y,Y,Y,"Ordinance has Sr, but should have been for Jr.",19287.55859375,588.598091389924
248,Donald P Finnegan Recreation Center,Donald P Finnegan Recreation Center,N,Donald P. Finnegan Recreation Center,D Finnegan,Oakford,452,1231 S 30TH ST,19146,"1231 S 30TH ST, 2909 WHARTON ST","2909 WHARTON ST;30th & Oakford",2.80201273,RECREATION_CENTER,RECREATION_SITE,11,7,2,17,Y,Y,Y,,19311.33203125,574.209961667073
249,Joseph V Kelly Memorial Playground,Joseph V Kelly Memorial Playground,N,Joseph V. Kelly Memorial Playground,Kelly Playground,,758,440 PARKER AVE,19128,440-42 PARKER AVE,440-42 PARKER AVE,2.77317159,PLAYGROUND_SITE,MISC_PARK,3,4,4,5,Y,Y,N,,19170.8125,569.081401919373
250,Campbell Square,Campbell Square,N,Campbell Square,Campbell,Allegheny Square,1128,2525 E ALLEGHENY AVE,19134,2525 E ALLEGHENY AVE,Allegheny & Belgrade,2.61362707,NEIGHBORHOOD_PARK,SQUARE_PLAZA,6,2,6,24,Y,Y,N,,18038.484375,535.657927594542
251,Tiffany Fletcher Recreation Center,Tiffany Fletcher Recreation Center,N,Tiffany Fletcher Recreation Center,Fletcher,Mill Creek Playground and Recreation Center,1911,4728 BROWN ST,19139,743-81 N 48TH ST,"743-81 N 48TH ST;47th & Aspen;4701 ASPEN ST;4700 BROWN ST",2.62730266,RECREATION_CENTER,RECREATION_SITE,10,8,3,16,Y,Y,Y,Name changed 12/2022,18122.0078125,534.340869939413
252,Morton Playground,Morton Playground,N,,Morton, ,1915,88 E HAINES ST,19144,88 E HAINES ST,"245 E RITTENHOUSE ST;217 E RITTENHOUSE ST;209 E RITTENHOUSE ST;Haines & Baynton",2.60299987,NEIGHBORHOOD_PARK,RECREATION_SITE,3,4,8,14,Y,Y,Y,,17993.49609375,576.516311506873
253,Woodside Park,Woodside Park,N,Woodside Park,Woodside,"Wynnefield Heights; Conshohocken-Windermere",1840,3918 CONSHOHOCKEN AVE,19131,3910-18 CONSHOHOCKEN AVE,"3910-18 CONSHOHOCKEN AVE, 3910 CONSHOHOCKEN AVE",2.61972754,PLAYGROUND_SITE,RECREATION_SITE,7,8,4,19,Y,Y,N,,18088.92578125,615.286812859967
254,Diamond Park,Diamond Park,N,,Diamond, ,635,2045 N 18TH ST,19121,1736-44 DIAMOND ST,1736-44 DIAMOND ST,0.24762491,NEIGHBORHOOD_PARK,SQUARE_PLAZA,8,6,5,22,Y,Y,N,,1708.984375,162.452688209023
255,Roberto Clemente Playground,Roberto Clemente Playground,N,Roberto Clemente Playground,Clemente,,1831,1800 WALLACE ST,19130,1800 WALLACE ST,18th & Wallace,2.54274811,RECREATION_CENTER,RECREATION_SITE,9,6,5,9,Y,Y,Y,,17538.72265625,540.780786558473
256,Juniata Park Older Adult Center,Juniata Park Older Adult Center,N,Juniata Park Older Adult Center,Juniata Older Adult Center, ,3466,1231 E SEDGLEY AVE,19124,1231 E SEDGLEY AVE,1251 E SEDGLEY AVE,2.51536334,OLDER_ADULT_CENTER,RECREATION_SITE,5,3,7,24,Y,Y,Y,,17369.2265625,564.331874107844
257,Matthias Baldwin Park,Matthias Baldwin Park,N,Matthias Baldwin Park,Baldwin,Franklintown Park,2814,429 N 19TH ST,19130,423-33 N 19TH ST,423-33 N 19TH ST,2.15206035,NEIGHBORHOOD_PARK,SQUARE_PLAZA,9,5,5,9,Y,Y,N,,14842.15234375,511.870527755057
258,Conestoga Community Playground,Conestoga Community Playground,N,Conestoga Community Playground,Conestoga,,1982,5300 MEDIA ST,19131,"1452 N 53RD ST, 5200 MEDIA ST","5200-300 MEDIA ST, 5200 MEDIA ST, 1452 N 53RD ST",2.45650337,RECREATION_CENTER,RECREATION_SITE,7,8,4,19,Y,Y,Y,"PPR originally leased from School District in 1954 and 1972, PPR and City officially acquired the properties in 2014.",16948.6328125,716.063595938843
259,Dave Dougherty (Hetzell) Field,Dave Dougherty (Hetzell) Field,N,Dave Dougherty (Hetzell) Field,Dougherty (Hetzell),Isaac D. Hetzell Playground,629,1301 E COLUMBIA AVE,19125,1301 E COLUMBIA AVE,Thompson St and Columbia Ave,2.46356186,ATHLETIC_SITE,MISC_PARK,9,2,5,26,Y,Y,N,,16995.83984375,519.129443421391
260,Bernard Samuel Playground,Bernard Samuel Playground,N,Bernard Samuel Playground,Samuel,"Recreation District HQ, Fox Square",1948,3539 GAUL ST,19134,2501 E TIOGA ST,"2501 E TIOGA ST; Tioga & Gaul",2.43285843,RECREATION_CENTER,RECREATION_SITE,6,2,6,24,Y,Y,Y,,16793.0234375,510.011526735747
261,Frank JG Dorsey Memorial Playground,Frank JG Dorsey Memorial Playground,N,Frank J.G. Dorsey Memorial Playground,Dorsey,,1848,4805 HELLERMAN ST,19135,6501 HEGERMAN ST,"6501 HEGERMAN ST;Hellerman & Edmund;4801 HELLERMAN ST",2.41678763,RECREATION_CENTER,RECREATION_SITE,6,2,6,15,Y,Y,Y,,16697.265625,568.185513742813
262,John F Kennedy Plaza (LOVE Park),Benjamin Franklin Parkway,Y,John F. Kennedy Plaza (LOVE Park),JFK (Love Park),"LOVE Park;JFK Plaza",205,1501 JOHN F KENNEDY BLVD,19102,1501 JOHN F KENNEDY BLVD,15th & JFK,2.41408104,NEIGHBORHOOD_PARK,SQUARE_PLAZA,9,5,5,9,Y,Y,N,,16643.76171875,524.728848671188
263,12th and Cambria Playground,12th and Cambria Playground,N,,12th and Cambria,,1800,2900 N 12TH ST,19133,"1149 W CAMBRIA ST, 1127-33 W CAMBRIA ST, 1135-41 W CAMBRIA ST, 2900-30 N 11TH ST","1149 W CAMBRIA ST, 1127-33 W CAMBRIA ST, 1135-41 W CAMBRIA ST, 2900-30 N 11TH ST, 2915 N 12TH ST",2.33737423,RECREATION_CENTER,RECREATION_SITE,8,3,5,25,Y,Y,Y,,16136.8828125,542.995987413907
264,Starr Garden Playground,Starr Garden Playground,N,Starr Garden Playground,Starr Garden,,1957,606 LOMBARD ST,19147,600-44 LOMBARD ST,"600-44 LOMBARD ST, 6th & Lombard",2.16683947,RECREATION_CENTER,RECREATION_SITE,12,7,1,3,Y,Y,Y,,14935.83984375,507.382393883514
265,Womrath Park,Womrath Park,N,,Womrath, ,120,4098 FRANKFORD AVE,19124,4098 FRANKFORD AVE,Kensington & Frankford,2.1676801,NEIGHBORHOOD_PARK,SQUARE_PLAZA,5,3,7,15,Y,Y,N,1911 Ordinance assigned land to Department of Rec,14970.4609375,591.724806953893
266,Thomas I Guerin Recreation Center,Thomas I Guerin Recreation Center,N,Thomas I. Guerin Recreation Center,Guerin,,1865,2201 S 16TH ST,19145,2201 S 16TH ST,16th & Jackson,2.04682161,RECREATION_CENTER,RECREATION_SITE,11,7,2,1,Y,Y,Y,,14100.3515625,503.265398259058
267,Clarkson Park,Clarkson Park,N,,Clarkson,Matthew Clarkson Park,2815,5475 N BROAD ST,19141,"5401-55 N BROAD ST, 5501-11 N BROAD ST","Board & Somerville;5401-55 N BROAD ST, 5501-11 N BROAD ST",2.07138192,NEIGHBORHOOD_PARK,SQUARE_PLAZA,4,3,9,35,Y,Y,N,,14317.015625,797.203312549049
268,Michael Foglietta Plaza,I-95 Park,Y,Michael Foglietta Plaza,Foglietta, ,1625,109 SPRUCE ST,19106,N/A,,2.05696837,NEIGHBORHOOD_PARK,GREENWAY_PARKWAY,12,5,1,9,Y,Y,N,,14179.328125,472.509856919324
269,South Philadelphia Older Adult Center,South Philadelphia Older Adult Center,N,South Philadelphia Older Adult Center,S Phila Older Adults Center,SPOAC,964,1430 E PASSYUNK AVE,19147,1430 E PASSYUNK AVE,,1.87522481,OLDER_ADULT_CENTER,OLDER_ADULT_CENTER,12,7,1,3,Y,Y,Y,,12921.546875,643.956811948015
270,Pretzel Park,Pretzel Park,N,Pretzel Park,Pretzel,Manayunk Park,749,4300 SILVERWOOD ST,19127,4300 SILVERWOOD ST,Silverwood & Rector,2.01667123,PLAYGROUND_SITE,MISC_PARK,3,4,4,5,Y,Y,N,,13934.55859375,515.74462312278
271,A Giuseppe DiSilvestro Playground,A Giuseppe DiSilvestro Playground,N,A. Giuseppe DiSilvestro Playground,DiSilvestro,,228,1700 S BROAD ST,19145,1700 S BROAD ST,"1701 S 15TH ST, Broad & Morris",1.99072817,RECREATION_CENTER,RECREATION_SITE,11,7,2,17,Y,Y,Y,Site is managed/maintained by PPR/CHOP/Public Health/Free Library,13716.41796875,496.542683771583
272,Penrose Memorial Playground,Penrose Memorial Playground,N,Penrose Memorial Playground,Penrose,,1977,1101 W SUSQUEHANNA AVE,19133,1101 W SUSQUEHANNA AVE,12th & Susquehanna,1.70811841,RECREATION_CENTER,RECREATION_SITE,8,6,5,22,Y,Y,Y,,11788.84765625,490.485417721449
273,Charles T Mitchell Jr (Seger) Park,Charles T Mitchell Jr (Seger) Park,N,"Charles T. Mitchell, Jr. Park",Mitchell (Seger),"Charles Mitchell Playground; Charles Seger Park",1951,1020 LOMBARD ST,19147,1000-42 LOMBARD ST,1000-42 LOMBARD ST,1.91129728,RECREATION_CENTER,RECREATION_SITE,12,7,1,3,Y,Y,Y,"Building is named for Charles Seger (1977); Site is named for Charles T Mitchell Jr (1976).",13174.7109375,488.311980321813
274,Eric N Casiano Field,Eric N Casiano Field,N,Eric N. Casiano Field,Casiano,"Dauphin & Oriana Fields;4th & York;4th & Dauphin",1302,2301 N 04TH ST,19133,"2301-17 N 4TH ST, 400-10 W DAUPHIN ST, 2256 N 4TH ST, 314-24 W DAUPHIN ST","4th St and York St;2301-17 N 4TH ST, 400-10 W DAUPHIN ST, 2256 N 4TH ST, 314-24 W DAUPHIN ST",1.87150518,ATHLETIC_SITE,MISC_PARK,8,6,7,26,Y,Y,N,,12916.37109375,463.647563920428
275,Venice Island Performing Arts and Recreation Center,Venice Island Performing Arts and Recreation Center,N,Venice Island Performing Arts and Recreation Center,Venice Island,,3448,25 LOCK ST,19127,"7 LOCK ST, 25 LOCK ST, 1 RECTOR ST","SCHUYLKILL and COTTON; 7 Lock St; 1 RECTOR ST",1.6819157,RECREATION_CENTER,RECREATION_SITE,3,4,4,5,Y,Y,Y,MOU with PWD and DPP shows this area as PPR's responsibility.,11620.73046875,672.453931478555
276,Hancock Playground,Hancock Playground,N,Hancock Playground,Hancock,St John's,1867,1403 N HANCOCK ST,19122,147 MASTER ST,"147 MASTER ST, Jefferson & Hancock;160 JEFFERSON ST",1.78341482,RECREATION_CENTER,RECREATION_SITE,9,2,5,26,Y,Y,Y,,12303.78125,469.019609784348
277,Howard Sayre Morris Recreation Center,Howard Sayre Morris Recreation Center,N,Howard Sayre Morris Recreation Center,Sayre Morris,,1949,5825 SPRUCE ST,19139,5800 WALNUT ST,"5835 SPRUCE, 59th & Spruce;5800 WALNUT ST",1.60589254,RECREATION_CENTER,RECREATION_SITE,10,8,3,18,Y,Y,Y,"PPR Lease began 1968; PPR is responsible for the playground equipment only. The property and building are the School Districts responsibility.",11073.77734375,481.115005326316
278,Reverend Edward P Burke Playground,Reverend Edward P Burke Playground,N,Reverend Edward P. Burke Playground,Burke,,202,2198 S 2ND ST,19148,200 SNYDER AVE,"200 SNYDER AVE;2nd & Jackson; 2144 S 2ND ST",1.22289054,RECREATION_CENTER,RECREATION_SITE,12,7,1,3,Y,Y,N,Library portion of land is not administered by PPR.,8423.921875,372.445920411598
279,Kay Park,Kay Park,N,Kay Park,Kay,Vandergrift Estate,1629,4712 PULASKI AVE,19144,4712 PULASKI AVE,,1.49309226,NEIGHBORHOOD_PARK,MISC_PARK,4,4,8,39,Y,Y,N,,10315.71875,411.951804818634
280,Ned Wolf Park,Ned Wolf Park,N,Ned Wolf Park,Wolf,,586,7018 MC CALLUM ST,19119,7018 MC CALLUM ST,Mc Callum St & W Ellet St,0.24681906,NEIGHBORHOOD_PARK,SQUARE_PLAZA,3,4,8,14,Y,Y,N,"Former Arco station, funded by Arco.",1706.61328125,180.434727338565
281,Sherwood Park,Sherwood Park,N,,Sherwood, ,181,5601 BALTIMORE AVE,19143,5601 BALTIMORE AVE,57th & Baltimore,1.6474484,PLAYGROUND_SITE,MISC_PARK,10,8,3,18,Y,Y,N,,11357.01953125,518.381899641714
282,Howell Park,Howell Park,N,Howell Park,Howell, ,1172,5215 GREENE ST,19144,5215 GREENE ST,,1.5590139,NEIGHBORHOOD_PARK,MISC_PARK,4,4,8,39,Y,Y,N,,10773.8359375,581.208914517581
283,Norman (Butch) Ellis Playground,Norman (Butch) Ellis Playground,N,Norman (Butch) Ellis Playground,Ellis,39th and Olive Playground,1803,714 N 39TH ST,19104,714 N 39TH ST,"700-14 N 39TH ST, 724 N 39TH ST",1.47978435,PLAYGROUND_SITE,RECREATION_SITE,7,8,3,16,Y,Y,Y,,10206.9765625,441.982568869768
284,Michael J Towey Playground,Michael J Towey Playground,N,Michael J. Towey Playground,Towey,,1964,1866 N HOWARD ST,19122,"1832-50 N HOWARD ST, 144 W BERKS ST","1832-50 N HOWARD ST;1832 N HOWARD ST;144 W BERKS;Masher & Berks;1876 N HOWARD ST",1.4519721,RECREATION_CENTER,RECREATION_SITE,9,6,7,26,Y,Y,Y,,10018.796875,397.541626552407
285,Fishtown Recreation Center,Fishtown Recreation Center,N,Fishtown Recreation Center,Fishtown,"Lederer Recreation Center;Lederer Pool;Thomas Hooker Hockey Rink",1856,1222 E MONTGOMERY AVE,19125,"1202-32 E MONTGOMERY AVE; 1225 E MONTGOMERY AVE","1202-32 E MONTGOMERY AVE;612-18 MOYER ST",1.75309355,RECREATION_CENTER,RECREATION_SITE,9,2,5,26,Y,Y,Y,,12094.20703125,690.942097713965
286,Shot Tower Recreation Center,Shot Tower Recreation Center,N,Shot Tower Recreation Center,Shot Tower,,969,129 CARPENTER ST,19147,101-31 CARPENTER ST,"101-31 CARPENTER ST;103 CARPENTER ST",1.43815356,RECREATION_CENTER,RECREATION_SITE,12,7,1,3,Y,Y,Y,,9910.79296875,438.476933492912
287,Marian Winfield Hissey Recreation Center,Marian Winfield Hissey Recreation Center,N,Marian Winfield Hissey Recreation Center,Hissey,Hissey Playground,569,424 E INDIANA AVE,19134,400-32 E INDIANA AVE,"400-32 E INDIANA AVE, Indiana & C",1.44120337,PLAYGROUND_SITE,RECREATION_SITE,5,3,7,24,Y,Y,N,,9949.08984375,397.405548837881
288,Shevchenko Park,Shevchenko Park,N,,Shevchenko,Taras Shevchenko Park,1170,5301 N BROAD ST,19141,5301 N BROAD ST,,1.32062148,NEIGHBORHOOD_PARK,SQUARE_PLAZA,4,3,9,35,Y,Y,N,,9127.45703125,500.982517942624
289,Jerome Brown Playground,Jerome Brown Playground,N,Jerome Brown Park Playground,Brown,"Kenderton Playground;20th and Tioga Field",1880,1987 W ONTARIO ST,19140,"1927-41 W ONTARIO ST;2001 W TIOGA ST","1927-41 W ONTARIO ST;1919-41 W ONTARIO ST;1959 W ONTARIO ST;2001 W TIOGA ST",2.5782326,RECREATION_CENTER,RECREATION_SITE,8,4,8,39,Y,Y,Y,,17805.0703125,878.415470895691
290,Howard McCall Sr Playground,Howard McCall Sr Playground,N,"Howard McCall, Sr. Playground",McCall,30th and Jefferson Playground,797,3007 JEFFERSON ST,19121,3001-15 JEFFERSON ST,3001-15 JEFFERSON ST,1.20242535,PLAYGROUND_SITE,MISC_PARK,8,6,5,22,Y,Y,N,,8297.15234375,365.134231251495
291,Nelson M Herron Playground and Recreation Center,Nelson M Herron Playground and Recreation Center,N,Nelson M. Herron Playground and Recreation Center,Herron,,2898,1322 S 02ND ST,19147,"1322 S 02ND ST, 213 REED ST","213 REED ST, American & Reed",1.11985359,RECREATION_CENTER,RECREATION_SITE,12,7,1,3,Y,Y,Y,,7716.33203125,353.934264226671
292,Buist Park,Buist Park,N,,Buist, ,8,2528 HOBSON ST,19142,2528 HOBSON ST,68th & Buist,1.10659092,NEIGHBORHOOD_PARK,SQUARE_PLAZA,10,8,2,12,Y,Y,N,,7622.26171875,357.423856729265
293,Black Coyle and McBride Playground,Black Coyle and McBride Playground,N,"Black, Coyle, and McBride Playground",Black Coyle McBride,Pop's Playground,1820,2137 E HAZZARD ST,19125,2150-72 E HUNTINGDON ST,2150-72 E HUNTINGDON ST,1.06783619,PLAYGROUND_SITE,RECREATION_SITE,9,2,1,26,Y,Y,N,Renovation in Fall of 2021.,7369.37109375,455.590481113774
294,Russell DeRitis Playground,Russell DeRitis Playground,N,Russell DeRitis Playground,DeRitis,,198,5655 GRAYS AVE,19143,5655 GRAYS AVE,57th & Grays Ferry,1.0356371,PLAYGROUND_SITE,MISC_PARK,10,8,2,12,Y,Y,N,,7136.26171875,415.298360505483
295,Fairview Park,Fairview Park,N,,Fairview, ,806,4418 MANAYUNK AVE,19128,4418 MANAYUNK AVE,,1.0108714,NEIGHBORHOOD_PARK,BREEZEWAY_ISLAND,3,4,4,5,Y,Y,N,,6985.78125,335.077426090646
296,Hawthorne Cultural Center,Hawthorne Cultural Center,N,Hawthorne Cultural Center,Hawthorne Cultural Center,"Ridgway Park;Ridgway Pool",1869,1200 CARPENTER ST,19147,"1200 CARPENTER ST;1301 CARPENTER ST","1301 CARPENTER ST;901-23 S Broad St",2.0378878,RECREATION_CENTER,RECREATION_SITE,12,7,2,3,Y,Y,Y,Ridgway Park/Pool is considered a park of Hawthorne Cultural Center.,14045.37109375,806.495617096409
297,Winston Park,Winston Park,N,Winston Park,Winston, ,1133,185 E WILLOW GROVE AVE,19118,"181-85 E WILLOW GROVE AVE;60 E WILLOW GROVE AVE","181-85 E WILLOW GROVE AVE;60 E WILLOW GROVE AVE",1.01515504,CONSERVATION_UNDEVELOPED,BREEZEWAY_ISLAND,3,4,8,14,N,Y,N,"Parceled portions assigned to DPP, but PPR is maintaining.",7024.0859375,599.428441613633
298,Konrad Square,Konrad Square,N,,Konrad, ,783,2200 E DAUPHIN ST,19125,2200-26 E DAUPHIN ST,"2200-26 E DAUPHIN ST, Tulip & Dauphin",1.01607809,NEIGHBORHOOD_PARK,SQUARE_PLAZA,9,2,1,26,Y,Y,N,,7011.2578125,334.149991836139
299,Lincoln Indoor Pool,Lincoln Indoor Pool,N,,Lincoln,Abraham Lincoln High School Indoor Pool,3471,7437 ROWLAND AVE,19136,3201 RYAN AVE,"3201 RYAN AVE;7400 ROWLAND AVE",0.86936574,POOL_SITE,RECREATION_SITE,2,1,6,15,Y,Y,Y,PPR leases out the Indoor Pool only from School District began in 1977.,6010.03515625,434.17943464309
300,Woodward Pines,Woodward Pines,N,,Woodward, ,2823,7922 LINCOLN DR,19118,"159 W SPRINGFIELD AVE, 7930-34 LINCOLN DR","159 W SPRINGFIELD AVE, 7930-34 LINCOLN DR",1.36261608,CONSERVATION_UNDEVELOPED,BREEZEWAY_ISLAND,3,4,8,14,N,Y,N,,9426.76953125,751.275512280035
301,33rd and Wallace Playground,33rd and Wallace Playground,N,,33rd and Wallace,Mantua Playground,1801,3302 WALLACE ST,19104,3300-26 WALLACE ST,"3300-26 WALLACE ST, Wallace & Mount Vernon",0.94685551,PLAYGROUND_SITE,RECREATION_SITE,7,8,3,16,Y,Y,Y,,6530.875,363.812414996341
302,Ann P Nichols Park,Ann P Nichols Park,N,Ann P. Nichols Park,Nichols,,494,5430 RACE ST,19139,5430-46 RACE ST,"5430-46 RACE ST, Race & Conestoga",0.88560537,PLAYGROUND_SITE,MISC_PARK,7,8,4,19,Y,Y,N,,6108.09765625,328.530252971226
303,Weccacoe Square,Weccacoe Square,N,Weccacoe Square,Weccacoe,Queen Village Neighbors Assn,1969,425 QUEEN ST,19147,405-25 QUEEN ST,"405-25 QUEEN ST;4th & Catharine;412 CATHARINE ST;400 Catharine St",0.90373832,NEIGHBORHOOD_PARK,RECREATION_SITE,12,7,1,3,Y,Y,N,,6228.515625,314.661066536613
304,Frankford and Pennypack Park,Frankford and Pennypack Park,N,,Frankford and Pennypack,Frankford Neighborhood Park,390,4400 PENNYPACK ST,19136,4400 PENNYPACK ST,,0.91624538,NEIGHBORHOOD_PARK,BREEZEWAY_ISLAND,2,1,6,8,Y,Y,N,,6334.9375,322.437897494398
305,Colonel Thomas J Powers Park,Colonel Thomas J Powers Park,N,Colonel Thomas J. Powers Park,Powers,,591,2987 ALMOND ST,19134,2987 ALMOND ST,Ann & Almond,0.89804708,NEIGHBORHOOD_PARK,SQUARE_PLAZA,6,2,1,24,Y,Y,N,,6197.3828125,318.784547913281
306,Gold Star Park,Gold Star Park,N,,Gold Star, ,143,613 WHARTON ST,19147,613 WHARTON ST,Wharton & Marshall,0.8829424,PLAYGROUND_SITE,MISC_PARK,12,7,1,3,Y,Y,N,Currently under construction 8/2020,6084.28515625,315.620069798698
307,Betsy Ross House,Betsy Ross House,N,Betsy Ross House,Betsy Ross House,Betsy Ross Flag House Museum,980,239 ARCH ST,19106,239-47 ARCH ST,239-47 ARCH ST,0.23618816,EVENT_VENUE,HISTORIC_SITE,9,5,1,9,Y,Y,N,,1628.484375,173.33903922709
308,Hawthorne Park,Hawthorne Park,N,,Hawthorne Park, ,2884,750 S 12TH ST,19147,750 S 12TH ST,12th & Catharine,0.874577,NEIGHBORHOOD_PARK,SQUARE_PLAZA,12,7,2,3,Y,Y,N,,6028.01953125,307.769197198538
309,East Passyunk Community Recreation Center,East Passyunk Community Recreation Center,N,East Passyunk Community Recreation Center,East Passyunk,Tolentine Community Center,1963,1027 MIFFLIN ST,19148,1025-33 MIFFLIN ST,"1025-33 MIFFLIN ST, 1025 MIFFLIN ST",0.81926792,RECREATION_CENTER,RECREATION_SITE,12,7,1,3,Y,Y,Y,Site had some renovations in 9/2020,5644.421875,342.159280993505
310,Thomas P Stokley Recreation Center,Thomas P Stokley Recreation Center,N,Thomas P. Stokley Recreation Center,Stokley,,1959,3000 EDGEMONT ST,19134,3000 EDGEMONT ST,"Edgemont & Indiana;3001 THOMPSON ST",0.84238024,PLAYGROUND_SITE,RECREATION_SITE,6,2,1,24,Y,Y,Y,,5813.19921875,302.214908763499
311,Cedar Park,Cedar Park,N,,Cedar, ,401,4917 BALTIMORE AVE,19143,4917-53 BALTIMORE AVE,"4917-53 BALTIMORE AVE, 50th & Baltimore",0.83899018,PLAYGROUND_SITE,MISC_PARK,10,8,3,18,Y,Y,N,,5783.99609375,377.916807128464
312,Waterloo Playground,Waterloo Playground,N,Waterloo Playground,Waterloo,,2901,2501 WATERLOO ST,19133,2502-12 N HOWARD ST,"2502-12 N HOWARD ST, Waterloo & Cumberland",1.03773954,RECREATION_CENTER,RECREATION_SITE,8,6,7,26,Y,Y,Y,,7162.66015625,490.133044166884
313,Tip Top Playground,Tip Top Playground,N,Tip Top,Tip Top, ,279,1013 N HOPE ST,19123,1036-66 N FRONT ST,"1036-66 N FRONT ST, Front & Allen",0.7863159,PLAYGROUND_SITE,RECREATION_SITE,9,2,1,26,Y,Y,N,,5423.81640625,316.916464090567
314,Palmer Park,Palmer Park,N,Palmer Park,Palmer,Fishtown at Palmer Park,1171,1701 FRANKFORD AVE,19125,1701-21 FRANKFORD AVE,"1701-21 FRANKFORD AVE, Frankford & Palmer",0.81570368,NEIGHBORHOOD_PARK,SQUARE_PLAZA,9,2,5,26,Y,Y,N,,5627.87109375,292.852521638213
315,Trenton and Auburn Playground,Trenton and Auburn Playground,N,,Trenton and Auburn,,583,2222 E AUBURN ST,19134,"2207-49 E RUSH ST;2263-73 E RUSH ST;2200-54 E AUBURN ST","2207-49 E RUSH ST;2263-73 E RUSH ST;2200-54 E AUBURN ST",1.47624243,PLAYGROUND_SITE,MISC_PARK,6,2,1,24,Y,Y,N,,10188.48828125,539.278306088354
316,James Otis Ford Playground,James Otis Ford Playground,N,James Otis Ford Playground,Ford,Ford PAL Recreation Center,958,633 SNYDER AVE,19148,"609-39 SNYDER AVE, 630-38 SNYDER AVE","619 SNYDER AVE;7th & Snyder",0.810065,EVENT_VENUE,RECREATION_SITE,12,7,1,3,Y,Y,Y,PAL leases from PPR. PPR Programs the Pool.,5580.4765625,322.010382519763
317,Ben Barkan Park,Ben Barkan Park,N,,Barkan,,239,4998 SPRUCE ST,19143,4936-58 SPRUCE ST,"4936-58 SPRUCE ST, 50th & Spruce",0.78107591,PLAYGROUND_SITE,MISC_PARK,10,8,3,18,Y,Y,N,,5385.63671875,303.834102270077
318,Charles Baker and Carol Baker Rice Recreation Center,Charles Baker and Carol Baker Rice Recreation Center,N,Charles Baker and Carol Baker Rice Recreation Center,Baker,Charles A. Baker Playground,1981,5433 LANSDOWNE AVE,19131,5431-43 LANSDOWNE AVE,"5431-43 LANSDOWNE AVE, Conestoga & Lansdowne;1600 N CONESTOGA ST",0.75911097,RECREATION_CENTER,RECREATION_SITE,7,8,4,19,Y,Y,Y,Name changed in 2024 to include Carol Baker Rice. Building renovation in 2024.,5237.79296875,315.120631279032
319,8th and Diamond Playground,8th and Diamond Playground,N,,8th and Diamond,,1805,2098 N 08TH ST,19122,"2032-62 N 08TH ST; 2062 N 08TH ST","2032-62 N 08TH ST, 800 DIAMOND ST, 2062 N 08TH ST",0.72494786,RECREATION_CENTER,RECREATION_SITE,8,6,5,26,Y,Y,Y,Site Renovated 2020-2021 (Rebuild).,5002.91796875,302.92795716146
320,Frank S Nelson Jr Memorial Recreation Center,Frank S Nelson Jr Memorial Recreation Center,N,"Frank S. Nelson, Jr. Memorial Recreation Center",Nelson,,1988,2528 N 03RD ST,19133,2500-34 N 3RD ST,"2500-34 N 03RD ST, 3rd & Cumberland",0.72068312,RECREATION_CENTER,RECREATION_SITE,8,6,7,26,Y,Y,Y,,4974.34375,299.56543860391
321,Fitler Square,Fitler Square,N,,Fitler, ,2904,2301 PINE ST,19103,2301-23 PINE ST,"2301-23 PINE ST, 23rd & Pine",0.72002673,NEIGHBORHOOD_PARK,SQUARE_PLAZA,11,5,2,9,Y,Y,N,,4963.78515625,292.6747069823
322,Vincent G Panati Playground,Vincent G Panati Playground,N,Vincent G. Panati Playground,Panati,,1928,3115 N 22ND ST,19132,"3101-27 N 22ND ST;2119-29 W CLEARFIELD ST","3101-27 N 22ND ST, 22nd & Clearfield;2119-29 W CLEARFIELD ST",1.10142493,EVENT_VENUE,RECREATION_SITE,8,6,8,39,Y,Y,N,Leased to Allegheny West Foundation.,7605.234375,348.814724266937
323,Heritage Park Playground,Heritage Park Playground,N,,Heritage, ,1871,1533 W CLEARFIELD ST,19132,1517-33 W CLEARFIELD ST,"1517-33 W CLEARFIELD ST,  1511-17 W CLEARFIELD ST, 1519 W CLEARFIELD ST",0.65680114,PLAYGROUND_SITE,RECREATION_SITE,8,4,8,39,Y,Y,N,,4534.96875,277.777934531516
324,Frank Glavin Playground,Frank Glavin Playground,N,The Frank Glavin Playground,Glavin,"""A&W"" Playground",1860,2612 E WESTMORELAND ST,19134,3267-81 ALMOND ST,"3267-81 ALMOND ST, 2600 E WESTMORELAND ST; Westmoreland & Almond",0.62875915,RECREATION_CENTER,RECREATION_SITE,6,2,6,24,Y,Y,Y,,4339.53515625,260.946765812856
325,Marie Winchester Playground,Marie Winchester Playground,N,Marie Winchester Playground,Winchester, ,2900,2326 N 15TH ST,19132,2316-36 N 15TH ST,"2330 N 15th St, 2316-36 N 15TH ST, 2322 N 15TH ST",0.61297534,RECREATION_CENTER,RECREATION_SITE,8,6,5,22,Y,Y,Y,,4230.8828125,303.327862951244
326,Giuseppe Bardascino Park,Giuseppe Bardascino Park,N,Giuseppe Bardascino Park,Bardascino,,557,1000 S 10TH ST,19147,1000 S 10TH ST,10th & Carpenter,0.23351651,NEIGHBORHOOD_PARK,SQUARE_PLAZA,12,7,1,3,Y,Y,N,,1609.3828125,158.235860408027
327,Triangle Park,Triangle Park,N,,Triangle Park, ,844,5419 UPLAND WAY,19131,5425R-65 UPLAND WAY,5425R-65 UPLAND WAY,0.61991909,PLAYGROUND_SITE,MISC_PARK,7,8,4,19,Y,Y,N,,4278.16796875,314.515689854892
328,Cianfrani Park,Cianfrani Park,N,,Cianfrani, ,521,721 S 08TH ST,19147,721 S 08TH ST,8th & Fitzwater,0.60877138,NEIGHBORHOOD_PARK,SQUARE_PLAZA,12,7,1,3,Y,Y,N,,4195.94921875,272.069295856777
329,Garden Court,Garden Court,N,,Garden Court,Garden City Tennis Courts Park,303,4710 SPRUCE ST,19143,4700-10 SPRUCE ST,"4700-10 SPRUCE ST, 47th & Spruce",0.58517161,ATHLETIC_SITE,MISC_PARK,10,8,3,18,Y,Y,N,,4034.765625,273.334297127641
330,Clayborne and Lewis Playground,Clayborne and Lewis Playground,N,Clayborne and Lewis Playground,Clayborne and Lewis,,2896,1101 N 38TH ST,19104,1101 N 38TH ST,"38th & Poplar, 3800 POPLAR ST",0.59067472,RECREATION_CENTER,RECREATION_SITE,7,8,3,16,Y,Y,Y,,4075.1328125,255.457752887828
331,Merritt Square,Merritt Square,N,,Merritt, ,781,1321 STEINBER ST,19124,1321 STEINBER ST,Steinber & Carey,0.56397442,NEIGHBORHOOD_PARK,SQUARE_PLAZA,5,3,7,24,Y,Y,N,,3894.44921875,246.235344884356
332,Gerald J Maguire Playground,Gerald J Maguire Playground,N,Gerald J. Maguire Playground,Maguire,Lehigh Playground,780,155 W LEHIGH AVE,19133,155-59 W LEHIGH AVE,"155-59 W LEHIGH AVE, Mascher & Lehigh",0.56109426,PLAYGROUND_SITE,MISC_PARK,5,3,7,25,Y,Y,N,,3873.109375,260.697503279888
333,Sabatino La Noce Park,Sabatino La Noce Park,N,,La Noce,,879,5119 ROCHELLE AVE,19128,5119 ROCHELLE AVE,,0.63945635,PLAYGROUND_SITE,MISC_PARK,3,4,4,5,Y,Y,N,,4417.41796875,267.569651962132
334,Mario Lanza Park,Mario Lanza Park,N,,Lanza,,47,214 CATHARINE ST,19147,214 CATHARINE ST,,0.50691821,NEIGHBORHOOD_PARK,SQUARE_PLAZA,12,7,1,3,Y,Y,N,,3493.58984375,257.62950194578
335,37th and Mount Vernon Playground,37th and Mount Vernon Playground,N,,37th and Mt Vernon,,2897,614 N 37TH ST,19104,608-16 N 37TH ST,"608-16 N 37TH ST;600 N 37TH ST;3700 MOUNT VERNON ST",0.47816674,PLAYGROUND_SITE,MISC_PARK,7,8,3,16,Y,Y,Y,,3298.015625,264.141831520469
336,James L Wright Playground,James L Wright Playground,N,James L. Wright Playground,Wright,Mantua Recreation Center,1975,3340 HAVERFORD AVE,19104,"3318-50 HAVERFORD AVE, 3321 BRANDYWINE ST","3320-50 HAVERFORD AVE, 34th & Haverford, 3318-50 HAVERFORD AVE, 3321 BRANDYWINE ST, 3390 HAVERFORD AVE, 3384 HAVERFORD AVE",0.46471748,RECREATION_CENTER,RECREATION_SITE,7,8,3,16,Y,Y,Y,,3205.25,281.150482700071
337,Hagert Street Playground,Hagert Street Playground,N,,Hagert,,847,2034 E HAGERT ST,19125,2024-40 E HAGERT ST,"2024-40 E HAGERT ST, Hagert & Coral",0.48635301,PLAYGROUND_SITE,MISC_PARK,9,2,1,26,Y,Y,N,,3356.390625,246.189236148772
338,Ramblers Recreation Center,Ramblers Recreation Center,N,,Ramblers,Harrowgate PAL Center,1937,851 E TIOGA ST,19134,"801-41 E ATLANTIC ST, 851 E TIOGA ST",801-41 E ATLANTIC ST,3.10314824,EVENT_VENUE,RECREATION_SITE,5,3,7,24,Y,Y,N,PAL leases from PPR.,21427.1015625,852.660620143739
339,Lloyd Hall Recreation Center,East Fairmount Park,Y,Lloyd Hall Recreation Center,Lloyd Hall,,997,800 KELLY DR,19130,2500 SPRING GARDEN ST,"2500 SPRING GARDEN ST;1 JOHN B KELLY DR;790 WATER WORKS DR",1.3583829,RECREATION_CENTER,RECREATION_SITE,9,5,4,9,Y,Y,Y,Located in East Fairmount Park,9370.41015625,381.574982431211
340,Wilmot Park,Wilmot Park,N,,Wilmot,"Da Square;Square Park",99,1801 MEADOW ST,19124,1801 MEADOW ST,Hawthorne St & Meadow St,0.42003749,PLAYGROUND_SITE,RECREATION_SITE,6,2,7,15,Y,Y,N,Historic Designation for the land on 10/2021.,2901.28125,238.74141012824
341,Anna M Ross Park,Anna M Ross Park,N,Anna M. Ross Park,Ross,10th & Glenwood,762,1000 W GLENWOOD AVE,19133,1000 W GLENWOOD AVE,"10th & Clearfield, 1000 W GLENWOOD AVE",0.41942457,NEIGHBORHOOD_PARK,BREEZEWAY_ISLAND,8,3,5,25,Y,Y,N,,2895.8515625,244.792519801751
342,Emanuel Weinberg Park,Emanuel Weinberg Park,N,Emanuel Weinberg Park,Weinberg, ,185,2205 S 06TH ST,19148,2201-09 S 6TH ST,"2201-09 S 06TH ST, 6th & Jackson",0.42156817,NEIGHBORHOOD_PARK,SQUARE_PLAZA,12,7,1,3,Y,Y,N,,2904,251.829964571915
343,Corporal George J Reed Jr Memorial Playground,Corporal George J Reed Jr Memorial Playground,N,"Corporal George J. Reed, Jr. Memorial Playground",Reed, ,1173,213 W ONTARIO ST,19140,213 W ONTARIO ST,Ontario & Decatur,0.39665047,PLAYGROUND_SITE,MISC_PARK,5,3,7,25,Y,Y,N,,2738.859375,222.705225540592
344,Wissahickon Neighbors Playground,Wissahickon Neighbors Playground,N,Wissahickon Neighbors Playground,Wissahickon Neighbors, ,2902,3901 TERRACE ST,19128,3901 TERRACE ST,"Terrace St & Hermit St;3901 TERRACE ST;200 HERMIT ST",0.39599126,PLAYGROUND_SITE,MISC_PARK,3,4,4,5,Y,Y,N,,2735.8359375,207.744401151363
345,Louis I Kahn Park,Louis I Kahn Park,N,,Kahn, ,377,328 S 11TH ST,19107,328-38 S 11TH ST,"328-38 S 11TH ST, 11th & Pine",0.38831797,NEIGHBORHOOD_PARK,SQUARE_PLAZA,12,5,1,9,Y,Y,N,NA-Wash West Historic District (Archives-2025),2676.83984375,265.758044448162
346,Benson Park,Benson Park,N,,Benson,Sharswood Park,571,1444 N 04TH ST,19122,"1440R N 04TH ST, 1442R-44 N 04TH ST, 1445 N LAWRENCE ST","1440R-44 N 04TH ST;1440R N 04TH ST, 1442R-44 N 04TH ST, 1445 N LAWRENCE ST",0.39455089,PLAYGROUND_SITE,MISC_PARK,9,2,7,26,Y,Y,N,,2722.0546875,266.828588477275
347,Christ Church Park,Christ Church Park,N,,Christ Church, ,2827,35 N 02ND ST,19106,36-38 N 2ND ST,"201-17 MARKET ST;36-38 N 2ND ST;22-26 North 2ND ST",0.13202668,EVENT_VENUE,HISTORIC_SITE,9,5,1,9,Y,Y,N,,910.2734375,146.123074505194
348,John (Steve) Schmidt Playground,John (Steve) Schmidt Playground,N,John (Steve) Schmidt Playground,Schmidt,,1978,113 W ONTARIO ST,19140,113-23 W ONTARIO ST,"113-23 W ONTARIO ST, Howard & Ontario",0.36659651,RECREATION_CENTER,RECREATION_SITE,5,3,7,25,Y,Y,Y,,2531.3203125,223.887683285531
349,Delancey Park,Delancey Park,N,,Delancey,Three Bears Park,115,311 DELANCEY ST,19106,311-19 DELANCEY ST,"311-19 DELANCEY ST, 3rd & Delancey",0.58590132,PLAYGROUND_SITE,MISC_PARK,12,5,1,9,Y,Y,N,"St. Peter's Way to PPR (Ord 1969, pgs1222-1227)",4038.71875,523.356874986837
350,Edward Shippen Plaza (Bainbridge Green),Edward Shippen Plaza (Bainbridge Green),N,Edward Shippen Plaza/'Bainbridge Green',Shippen (Bainbridge Green), ,1225,300 BAINBRIDGE ST,19147,,"300-400 BAINBRIDGE ST, 4th & Bainbridge",0.34839707,BREEZEWAY_GREENWAY,BREEZEWAY_ISLAND,12,7,1,3,Y,Y,N,,2401.3203125,738.797591517877
351,Market Square Park,Market Square Park,N,,Market,Market Place,1141,5501 GERMANTOWN AVE,19144,5501 GERMANTOWN AVE,Germantown & Church,0.34663528,NEIGHBORHOOD_PARK,SQUARE_PLAZA,4,4,8,14,Y,Y,N,,2395.75,214.115994900968
352,Northeast Lions Park,Northeast Lions Park,N,Northeast Lions Park,NE Lions,"Barnes & Loney Park;Fox Chase Park",542,7966 OXFORD AVE,19111,7966 OXFORD AVE,Oxford Ave & Loney St,0.38465705,NEIGHBORHOOD_PARK,SQUARE_PLAZA,1,1,10,2,Y,Y,N,,2661.8203125,203.962463932034
353,Hedge Street Park,Hedge Street Park,N,Hedge Street Park,Hedge,"Hedge and Plum Playground;New Park",37,4610 HEDGE ST,19124,4610 HEDGE ST,4628 Hedge St,0.3152331,PLAYGROUND_SITE,MISC_PARK,6,2,7,15,Y,Y,N,,2177.42578125,189.598088382889
354,Etting Park,Etting Park,N,,Etting, ,694,3255 N MARSTON ST,19129,3255 N MARSTON ST,,0.3088643,PLAYGROUND_SITE,SQUARE_PLAZA,3,6,4,39,Y,Y,N,,2132.91796875,183.571729696826
355,Strawberry Mansion Playground,Strawberry Mansion Playground,N,,Strawberry Mansion Playground,Ridge Ave Neighborhood Park,808,3369 RIDGE AVE,19132,3369 RIDGE AVE,3369-3403 Ridge Ave,0.38469129,PLAYGROUND_SITE,MISC_PARK,8,6,4,22,Y,Y,N,,2655.70703125,209.174288916209
356,Montgomery and Croskey Play Lot,Montgomery and Croskey Play Lot,N,,Montgomery and Croskey,,614,2235 W MONTGOMERY AVE,19121,2225-37 W MONTGOMERY AVE,2225-37 W MONTGOMERY AVE,0.20059611,EVENT_VENUE,MISC_PARK,8,6,5,22,Y,Y,N,,1384.30078125,153.051777781172
357,Frank Palumbo Sr Park,Frank Palumbo Sr Park,N,Frank Palumbo Sr. Park,F Palumbo,"Florence Park;Frank Palumbo Park",2,723 CATHARINE ST,19147,723 CATHARINE ST,7th & Catharine,0.20163431,NEIGHBORHOOD_PARK,SQUARE_PLAZA,12,7,1,3,Y,Y,N,,1389.70703125,151.868300787733
358,Hamilton Park,Hamilton Park,N,,Hamilton, ,891,547 RISING SUN AVE,19140,547 RISING SUN AVE,6th & Butler,0.17701495,CONSERVATION_UNDEVELOPED,BREEZEWAY_ISLAND,4,3,7,25,N,N,N,,1222.5234375,148.01385406864
359,Charles J Buckley Park,Charles J Buckley Park,N,Charles J. Buckley Park,Buckley, ,1316,8199 GERMANTOWN AVE,19118,N/A,,0.16285209,NEIGHBORHOOD_PARK,BREEZEWAY_ISLAND,3,4,8,14,Y,Y,N,,1126.83984375,150.998056413413
360,John C Anderson Cultural Center,John C Anderson Cultural Center,N,John C. Anderson Cultural Center,J Anderson,John Anderson Playground,3479,5323 OVERBROOK AVE,19131,5325 OVERBROOK AVE,"5235 OVERBROOK AVE;5391 OVERBROOK AVE",0.1333158,RECREATION_CENTER,RECREATION_SITE,7,8,4,19,Y,Y,Y,"Parcel is Library, PPR only responsible for this portion of the parcel.",920.3515625,144.316737608412
361,Mantua Community Garden,Mantua Community Garden,N,,Mantua Garden,"Arco Plaza;34th Street Park;Gateway to Brandywine St Park",34,520 N 34TH ST,19104,520 N 34TH ST,,0.14797187,GARDEN,SQUARE_PLAZA,7,8,3,16,Y,Y,N,No gardening activity here. It is a passive plaza.,1020.578125,127.642552175771
362,Madison War Memorial,Madison War Memorial,N,,Madison,Doughboy,307,595 N 02ND ST,19123,563-65 N 2ND ST,563-65 N 02ND ST,0.14119737,NEIGHBORHOOD_PARK,SQUARE_PLAZA,9,5,1,9,Y,Y,N,,973.79296875,139.425982696477
363,22nd and Ontario Park,22nd and Ontario Park,N,,22nd and Ontario, ,1185,3400 N 22ND ST,19140,3400-02 N 22ND ST,3400-02 N 22ND ST,0.14864762,PLAYGROUND_SITE,MISC_PARK,3,4,8,39,Y,Y,N,,1026.5234375,133.954567446901
364,Louis P Paolone Sr Park,Louis P Paolone Sr Park,N,,Paolone,,349,732 SEARS ST,19147,716-34 SEARS ST,"718-34 SEARS, 8th & Sears;716-34 SEARS ST",0.08951299,NEIGHBORHOOD_PARK,SQUARE_PLAZA,12,7,1,3,Y,Y,N,,616.82421875,135.443415251707
365,Daly Park,Daly Park,N,,Daly, ,917,1240 W SEDGELY AVE,19133,,12th & Sedgley,0.08468241,NEIGHBORHOOD_PARK,BREEZEWAY_ISLAND,8,3,5,25,Y,Y,N,,584.6875,101.152227232666
366,Beck Park,Beck Park,N,,Beck, ,195,839 S 02ND ST,19147,839 S 02ND ST,,0.07427522,NEIGHBORHOOD_PARK,SQUARE_PLAZA,12,7,1,3,Y,Y,N,,511.875,111.415873714396
367,Coxe Park,Coxe Park,N,,Coxe, ,128,2132 CHERRY ST,19103,2132-34 CHERRY ST,"2132-34 CHERRY ST, Beechwood & Cherry",0.10927524,PLAYGROUND_SITE,MISC_PARK,9,5,5,9,Y,Y,N,,753.53125,128.267414900576
368,Greble Post War Memorial,Greble Post War Memorial,N,,Greble Post,Pennsport Veterans Memorial,94,1327 S 03RD ST,19147,1327 S 03RD ST,3rd & Moyamensing,0.0484247,NEIGHBORHOOD_PARK,SQUARE_PLAZA,12,7,1,3,Y,Y,N,,333.66796875,81.2089484928991
369,Cecil B Moore Recreation Center,Cecil B Moore Recreation Center,N,Cecil B. Moore Recreation Center,CB Moore,"C.B. Moore; Connie Mack Playground; 22nd & Huntingdon",1825,2563 N 22ND ST,19132,2020-50 W LEHIGH AVE,"2020-50 W LEHIGH AVE, 2551 N 22ND ST, 20th & Lehigh, 2501 N 22ND ST",2.13805948,RECREATION_CENTER,RECREATION_SITE,8,6,5,22,Y,Y,Y,1911 Ordinance assigned to Department of Rec,14759.44140625,577.106872149446
370,18th and Jackson War Memorial,18th and Jackson War Memorial,N,,18th and Jackson, ,1215,1800 W PASSYUNK AVE,19145,N/A,,0.08338347,CONSERVATION_UNDEVELOPED,SQUARE_PLAZA,11,7,2,1,Y,Y,N,There is no parcel here,574.43359375,148.36318055492
371,22nd and Catharine Park,22nd and Catharine Park,N,,22nd and Catharine,Catharine Park,1222,2200 CATHARINE ST,19146,2200 CATHARINE ST,,0.04624413,PLAYGROUND_SITE,MISC_PARK,11,7,2,17,Y,Y,N,,318.76171875,78.4027011938228
372,I-95 Park,I-95 Park,N,,I-95 Park,Statue of Peace Plaza (Front/Catharine St),1228,401 S FRONT ST,19147,,401 S FRONT ST,5.89063146,BREEZEWAY_GREENWAY,GREENWAY_PARKWAY,12,"5;7",1,"3;9",Y,Y,N,,40600.0234375,3327.58362270442
373,General Casimir Pulaski Park,General Casimir Pulaski Park,N,General Casimir Pulaski Park,Pulaski, ,809,3001 E ALLEGHENY AVE,19134,3001 E ALLEGHENY AVE,,1.93025181,NEIGHBORHOOD_PARK,MISC_PARK,6,2,"1;6",24,Y,Y,N,,13318.6640625,769.893104018157
374,Manton Street Park,Manton Street Park,N,,Manton, ,28,405 MANTON ST,19147,"405-07 MANTON ST, 1216 S 4TH ST","405-11 MANTON ST;405-07 MANTON ST, 1216 S 4TH ST",0.06139004,GARDEN,URBANAGRICULTURE_GARDEN,12,7,1,3,Y,Y,N,,423.046875,102.607064375069
375,Shofuso Japanese Garden,West Fairmount Park,Y,Shofuso Japanese Garden,Japanese Garden,"Japanese House and Garden;Pine Breeze Villa and Shofuso",3480,4301 LANSDOWNE DR,19131,3401 W GIRARD AVE,Lansdowne Dr & Horticultural Dr,1.08152702,EVENT_VENUE,MUSEUM,7,5,4,16,N,Y,N,Located within the boundaries of the Fairmount Park Horticulture Center. Designed and created in 1953,7461.2734375,340.730248941931
376,Stiles Street Play Lot,Stiles Street Play Lot,N,,Stiles,,945,1608 W STILES ST,19121,1608 W STILES ST,,0.01924607,PLAYGROUND_SITE,MISC_PARK,9,6,5,22,Y,Y,N,,132.7734375,59.5591635309677
377,Paines Park,Benjamin Franklin Parkway,Y,,Paines,,3490,400 MARTIN LUTHER KING DRIVE,19103,302 N 24TH ST,302 N 24TH ST,2.82547076,NEIGHBORHOOD_PARK,MISC_PARK,9,5,5,9,N,Y,N,,19487.26953125,670.256703961444
378,June 5th Memorial Park,June 5th Memorial Park,N,,June 5th,22nd & Market Memorial Park,3076,2140 MARKET ST,19103,2140 MARKET ST,,0.11207899,NEIGHBORHOOD_PARK,SQUARE_PLAZA,9,5,5,9,Y,Y,N,,772.80078125,141.897666503713
379,Ingersoll Park,Ingersoll Park,N,,Ingersoll,16th & Master Park,3104,1300 N 16TH ST,19121,1312-26 N 16TH ST,"16th & Master;1312-26 N 16TH ST",0.77307554,NEIGHBORHOOD_PARK,SQUARE_PLAZA,9,6,5,22,Y,Y,N,,5333.69921875,325.578454941917
380,Eakins Oval,Benjamin Franklin Parkway,Y,Eakins Oval,Eakins,The Oval,1850,2451 BENJAMIN FRANKLIN PKWY,19130,N/A,,7.82011816,NEIGHBORHOOD_PARK,GREENWAY_PARKWAY,9,5,5,9,Y,Y,N,,53911.02734375,864.5590780916
381,Maja Park,Benjamin Franklin Parkway,Y,,Maja,"Century Park;Park Towne",2812,2250 BENJAMIN FRANKLIN PKWY,19130,N/A,,3.7469606,NEIGHBORHOOD_PARK,GREENWAY_PARKWAY,9,5,5,9,N,Y,N,Renamed in 2021.,25840.4609375,942.744409919041
382,Poquessing Creek Park 4,Poquessing Creek Park,Y,Poquessing Creek Park,Poquessing Creek Park 4, ,1647,3601 ACADEMY RD,19154,,,60.7728333,WATERSHED_PARK,CONSERVATION_DRAINAGE_WATERSHED,"1;2",1,10,8,Y,Y,N,,420818.1953125,8833.63625820835
383,Poquessing Creek Park 3,Poquessing Creek Park,Y,Poquessing Creek Park,Poquessing Creek Park 3, ,1648,3125 MECHANICSVILLE RD,19154,,,32.52364482,WATERSHED_PARK,CONSERVATION_DRAINAGE_WATERSHED,1,1,10,8,Y,Y,N,,225312.1328125,2820.75980631304
384,Poquessing Creek Park 5,Poquessing Creek Park,Y,Poquessing Creek Park,Poquessing Creek Park 5,Millbrook,1642,4341 WHITING RD,19154,"4341 WHITING RD, 4302 WOODHAVEN RD",4302 WOODHAVEN RD,23.33737787,WATERSHED_PARK,CONSERVATION_DRAINAGE_WATERSHED,2,1,10,8,Y,Y,N,This area was formerly known as Millbrook,161504.015625,2423.72233823525
385,Poquessing Creek Park 8,Poquessing Creek Park,Y,Poquessing Creek Park,Poquessing Creek Park 8, ,2797,9925 HEGERMAN ST,19114,,9900-99 HEGERMAN ST,17.21969994,WATERSHED_PARK,CONSERVATION_DRAINAGE_WATERSHED,2,1,6,8,Y,Y,N,,119103.6484375,2354.22158161082
386,Poquessing Creek Park 2,Poquessing Creek Park,Y,Poquessing Creek Park,Poquessing Creek Park 2, ,2813,1300 POQUESSING CREEK DR,19116,,1300-2600 POQUESSING CRK DR,3.53737081,WATERSHED_PARK,CONSERVATION_DRAINAGE_WATERSHED,1,1,10,7,Y,Y,N,,24513.578125,1156.56337500129
387,Fairmount Drainage Right of Way (Alburger Ave),Fairmount Drainage Rights of Way (Pennypack),Y,,Drain ROW (Pennypack-Alburger), ,2909,190 ALBURGER AVE,19115,,,52.6457418,CONSERVATION_UNDEVELOPED,CONSERVATION_DRAINAGE_WATERSHED,1,1,10,7,N,N,N,Along Ballard Brook,364531.44921875,6428.22488757743
388,Poquessing Creek Park 6,Poquessing Creek Park,Y,Poquessing Creek Park,Poquessing Creek Park 6, ,1639,130 DIMARCO DR,19154,,,15.40258201,WATERSHED_PARK,CONSERVATION_DRAINAGE_WATERSHED,2,1,10,8,Y,Y,N,,106574.72265625,2109.76850278387
389,Poquessing Creek Park 7,Poquessing Creek Park,Y,Poquessing Creek Park,Poquessing Creek Park 7, ,1638,10501 KNIGHTS RD,19154,"10725 KNIGHTS RD, 10501 KNIGHTS RD",10725 KNIGHTS RD,12.210538,WATERSHED_PARK,CONSERVATION_DRAINAGE_WATERSHED,2,1,10,8,Y,Y,N,,84473.49609375,2115.70105188065
390,Emily Community Garden,Emily Community Garden,N,,Emily Garden,Growing Home Garden,3443,742 EMILY ST,19148,732-42 EMILY ST,732-42 EMILY ST,0.10990014,GARDEN,URBANAGRICULTURE_GARDEN,12,7,1,3,Y,Y,N,Site renovations planned for 2021,757.109375,113.602003738799
391,Fairmount Drainage Right of Way (Waldemire Dr),Fairmount Drainage Rights of Way (Poquessing),Y,,Drain ROW (Poquessing-Waldemire), ,1643,10901 WALDEMIRE DR,19154,,10901-11899 WALDEMIRE DR,52.18054485,CONSERVATION_UNDEVELOPED,CONSERVATION_DRAINAGE_WATERSHED,2,1,10,8,N,N,N,Along the Byberry Creek and Tributaries,361173.21875,8166.29184219442
392,Fairmount Drainage Right of Way (Verree Rd),Fairmount Drainage Rights of Way (Pennypack),Y,,Drain ROW (Pennypack-Verree), ,2796,8601 VERREE RD,19115,,,22.13645544,CONSERVATION_UNDEVELOPED,CONSERVATION_DRAINAGE_WATERSHED,1,1,10,7,N,N,N,Along Pauls Run,153248.04296875,2962.72745367495
393,Waverly Street Community Garden,Waverly Street Community Garden,N,Waverly Street Community Garden,Waverly Garden,,99999,1131 WAVERLY ST,19147,1123-31 WAVERLY ST,1123-31 WAVERLY ST,0.0927526,GARDEN,URBANAGRICULTURE_GARDEN,12,7,1,9,Y,Y,N,NA-Wash West Historic District (Archives-2025),639.375,110.819503354346
394,Fairmount Drainage Right of Way (Chesterfield Rd),Fairmount Drainage Rights of Way (Poquessing),Y,,Drain ROW (Poquessing-Chesterfield), ,1640,3460 MORRELL AVE,19114,,,25.35715539,CONSERVATION_UNDEVELOPED,CONSERVATION_DRAINAGE_WATERSHED,2,1,10,8,N,N,N,Along the Byberry Creek and Tributaries,175460.29296875,4426.56859110228
395,Fairmount Drainage Right of Way (Willits Rd),Fairmount Drainage Rights of Way (Pennypack),Y,,Drain ROW (Pennypack-Willits), ,2803,2870 WILLITS RD,19136,,,5.65855728,CONSERVATION_UNDEVELOPED,CONSERVATION_DRAINAGE_WATERSHED,2,1,6,8,N,N,N,Along Wooden Bridge Run,39138.3359375,1091.14528855371
396,Fairmount Drainage Right of Way (Maxwell St),Fairmount Drainage Rights of Way (Pennypack),Y,,Drain ROW (Pennypack-Maxwell), ,2804,2620 MAXWELL ST,19152,,,5.12006293,CONSERVATION_UNDEVELOPED,CONSERVATION_DRAINAGE_WATERSHED,2,1,6,8,N,N,N,Along Axe Factory Run,35417.31640625,1402.27099550291
397,Fairmount Drainage Right of Way (Crestmont Ave),Fairmount Drainage Rights of Way (Poquessing),Y,,Drain ROW (Poquessing-Crestmont), ,1636,3777 MORRELL AVE,19114,,,8.09036412,CONSERVATION_UNDEVELOPED,CONSERVATION_DRAINAGE_WATERSHED,2,1,10,8,N,N,N,Along the Byberry Creek and Tributaries,55966.71484375,2293.46384390194
398,Fairmount Drainage Right of Way (Thornton Rd),Fairmount Drainage Rights of Way (Poquessing),Y,,Drain ROW (Poquessing-Thornton), ,1646,3099 WOODHAVEN RD,19154,12240 THORNTON RD,12240 THORNTON RD,3.29824624,CONSERVATION_UNDEVELOPED,CONSERVATION_DRAINAGE_WATERSHED,2,1,10,8,N,N,N,Along the Byberry Creek and Tributaries,22839.921875,640.714906734993
399,3rd and Norris Playground,3rd and Norris Playground,N,,3rd and Norris, ,2903,273 W NORRIS ST,19122,"259-61 W NORRIS ST, 263-73 W NORRIS ST","259-61 W NORRIS ST;263-73 W NORRIS ST;253-73 W NORRIS ST",0.23280938,ATHLETIC_SITE,MISC_PARK,9,6,7,26,Y,Y,N,,1606.54296875,165.15367207228
400,Glen Foerd on the Delaware,Glen Foerd on the Delaware,N,,Glen Foerd,"Glen Foerd Mansion;Glengarry",1634,5001 GRANT AVE,19114,5001 GRANT AVE,,22.93712262,EVENT_VENUE,HISTORIC_SITE,2,1,6,8,Y,Y,N,,158610.9765625,1665.91660244268
401,Allens Lane Art Center,Allens Lane Art Center,N,,Allens Ln Center, ,1807,651 W ALLENS LN,19119,621 W ALLENS LN,"601 W ALLENS LN;621 W ALLENS LN",6.57464071,EVENT_VENUE,OTHER,3,4,8,14,Y,Y,N,,45463.75,878.306104649741
402,Eric W (Hank) Gathers Jr Recreation Center,Eric W (Hank) Gathers Jr Recreation Center,N,"Eric W. (Hank) Gathers, Jr. Recreation Center",Gathers,Moylan Recreation Center,1852,2501 W DIAMOND ST,19121,2501-59 DIAMOND ST,"2501-19 W DIAMOND ST, 25th & Diamond",3.69149134,RECREATION_CENTER,RECREATION_SITE,8,6,5,22,Y,Y,Y,,25478.70703125,757.60537263736
403,River Field,Benjamin Franklin Parkway,Y,River Field,River Field, ,1940,302 N 24TH ST,19103,302 N 24TH ST,302 N 24TH ST,6.55978075,ATHLETIC_SITE,GREENWAY_PARKWAY,9,5,5,9,N,Y,N,,45230.67578125,1043.0357643579
404,Levy Park,Benjamin Franklin Parkway,Y,,Levy,Horwitz-Wasserman Holocaust Memorial Plaza,2911,1635 ARCH ST,19103,1619-29 ARCH ST,1619-29 ARCH ST,0.60928376,BREEZEWAY_GREENWAY,SQUARE_PLAZA,9,5,5,9,N,Y,N,"Needs verification on ownership (PWD and Bill are different); Redesign - Bill 170989 (12/14/17); Unsure of borders along 17th St",4200.3046875,362.245331011754
405,Kingsessing Recreation Center,Kingsessing Recreation Center,N,Kingsessing Recreation Center,Kingsessing,,1886,4901 KINGSESSING AVE,19143,4901 KINGSESSING AVE,51st & Chester,9.15488446,RECREATION_CENTER,RECREATION_SITE,10,8,3,12,Y,Y,Y,,63103.75390625,1042.24271531366
406,William Lanier Park,William Lanier Park,N,,Lanier,,407,1600 S 29TH ST,19145,1600 S 29TH ST,2900 TASKER ST,4.11996987,PLAYGROUND_SITE,RECREATION_SITE,11,7,2,17,Y,Y,N,,28390.578125,666.204445371211
407,Irish and Scottish Immigration Memorials,I-95 Park,Y,,Irish and Scottish Memorials, ,2818,111 S FRONT ST,19106,N/A,,1.85245297,NEIGHBORHOOD_PARK,GREENWAY_PARKWAY,12,5,1,9,Y,Y,N,,12770.60546875,455.335777659226
408,Korean War Veterans Memorial,I-95 Park,Y,Korean War Veteran's Memorial,Korean Memorial, ,1887,109 SPRUCE ST,19106,109 SPRUCE ST,,1.30860311,NEIGHBORHOOD_PARK,GREENWAY_PARKWAY,12,5,1,9,Y,Y,N,,9020.6484375,386.448702554653
409,Philadelphia Vietnam Veterans Memorial,I-95 Park,Y,,Vietnam Memorial, ,1626,10 SPRUCE ST,19106,,,1.96488141,NEIGHBORHOOD_PARK,GREENWAY_PARKWAY,12,5,1,9,Y,Y,N,,13544.15234375,468.718820690118
410,Northern Liberties Recreation Center,Northern Liberties Recreation Center,N,Northern Liberties Recreation Center,Northern Liberties,"District 6 HQ (Recreation);Cement Park",1921,315 FAIRMOUNT AVE,19123,"313-27 FAIRMOUNT AVE, 706-12 N 3RD ST","313-27 FAIRMOUNT AVE, 321 FAIRMOUNT AVE;706-12 N 3RD ST",0.65472838,RECREATION_CENTER,RECREATION_SITE,9,2,1,9,Y,Y,Y,Site Renovated in 2023.,4515.63671875,339.355374018606
411,Aviator Park,Benjamin Franklin Parkway,Y,Aviator Park,Aviator,Logan Square,2817,200 N 19TH ST,19103,200 N 19TH ST,,1.89704317,NEIGHBORHOOD_PARK,GREENWAY_PARKWAY,9,5,5,9,N,Y,N,Aviator Park is part of Logan Square.,13077.96875,500.296847342188
412,Sister Cities Park,Benjamin Franklin Parkway,Y,Sister Cities Park,Sister Cities,Logan Square,2820,200 N 18TH ST,19103,200 N 18TH ST,18th & Logan Circle,1.73993371,NEIGHBORHOOD_PARK,SQUARE_PLAZA,9,5,5,9,N,Y,N,Sister Cities Park is part of Logan Square,11993.93359375,486.135996953049
413,Howard and Reed Park,Howard and Reed Park,N,,Howard and Reed, ,433,105 REED ST,19147,107 REED ST,"105-09 REED ST;107 REED ST",0.07930873,NEIGHBORHOOD_PARK,BREEZEWAY_ISLAND,12,7,1,3,Y,Y,N,,546.46875,92.313925202624
414,Cret Park,Benjamin Franklin Parkway,Y,Cret Park,Cret,"Three Parkway Plaza; Cafe Cret",2821,110 N 16TH ST,19103,110 N 16TH ST,"110-12 N 16TH ST;3 Parkway Plaza; 16th & Arch",1.12740364,NEIGHBORHOOD_PARK,GREENWAY_PARKWAY,9,5,5,9,N,Y,N,,7773.375,414.218816215818
415,Torun Triangle,Benjamin Franklin Parkway,Y,,Torun,Kopernicus Triangle,2826,1716 RACE ST,19103,1716-34 RACE ST,1716-34 RACE ST,0.62816961,NEIGHBORHOOD_PARK,GREENWAY_PARKWAY,9,5,5,9,N,Y,N,,4331.37890625,431.298863702273
416,Binswanger Triangle,Benjamin Franklin Parkway,Y,Binswanger Triangle,Binswanger, ,3491,2200 BENJ FRANKLIN PKY,19130,N/A,,0.22313156,NEIGHBORHOOD_PARK,GREENWAY_PARKWAY,9,5,5,9,N,Y,N,There is no parcel here,1549.29296875,227.284171524713
417,Tacony Boat Launch,Tacony Boat Launch,N,Tacony Boat Launch,Tacony Launch,"Princeton Avenue Boat Launch;Link Logistics Trail",3089,5198 PRINCETON AVE,19135,"7071R MILNOR ST;5150 PRINCETON AVE",7071R MILNOR ST,12.91445289,BOAT_SITE,BOATHOUSE_LAUNCH,6,2,6,15,Y,Y,N,New extension between Princeton and Cottman acquired in 2024.,89227.62890625,2170.06421906836
418,Reliance Triangle,Reliance Triangle,N,,Reliance,Bulldog Park,3301,2501 PENNSYLVANIA AVE,19130,2501 PENNSYLVANIA AVE,,0.34552557,NEIGHBORHOOD_PARK,BREEZEWAY_ISLAND,9,6,5,9,Y,Y,N,,2383.00390625,208.367146928609
419,Sartain Garden,Sartain Garden,N,,Sartain Garden,Sartain Street Community Garden,99999,201 S SARTAIN ST,19107,1114-18 LOCUST ST,1114-18 LOCUST ST,0.08407544,GARDEN,URBANAGRICULTURE_GARDEN,12,5,1,9,Y,Y,N,NA-Wash West Historic District (Archives-2025),579.60546875,104.185412049336
420,Carpenters Woods,Wissahickon Valley Park,Y,Carpenter's Woods,Carpenters Woods,,1627,801 W SEDGWICK ST,19119,"7001 WISSAHICKON AVE, 7045-99 GREENE ST","7001 WISSAHICKON AVE, 7045-99 GREENE ST",42.23405266,CONSERVATION_UNDEVELOPED,CONSERVATION_DRAINAGE_WATERSHED,3,4,8,14,N,Y,N,,291988.39453125,3032.9537260652
421,Officer Robert Hayes Memorial Playground Woods,Officer Robert Hayes Memorial Playground,Y,,Hayes Woods,"Swenson Park, Conwell",3084,9800 E ROOSEVELT BLVD,19115,9800 E ROOSEVELT BLVD,9850 E ROOSEVELT BLVD,19.06267393,CONSERVATION_UNDEVELOPED,CONSERVATION_DRAINAGE_WATERSHED,1,1,10,7,N,Y,N,,131964.12109375,1473.62221713363
422,Grays Ferry Crescent,Grays Ferry Crescent,N,,Grays Ferry Crescent,,1366,3696 WHARTON ST,19146,"1200R S 36TH ST, 3600 GRAYS FERRY AVE, 3699 GRAYS FERRY AVE, 1101 S 34TH ST","3501R GRAYS FERRY AVE;1200R S 36TH ST, 3600 GRAYS FERRY AVE, 3699 GRAYS FERRY AVE, 1101 S 34TH ST",14.02562564,BREEZEWAY_GREENWAY,GREENWAY_PARKWAY,11,7,2,17,Y,Y,N,,96681.73046875,3392.7483342645
423,Hope Park,Hope Park,N,Hope Park,Hope,,3080,201 E INDIANA AVE,19134,201-19 E INDIANA AVE,201-19 E INDIANA AVE,1.23247944,NEIGHBORHOOD_PARK,MISC_PARK,5,3,7,24,Y,Y,N,,8508.55859375,390.25448646884
424,Logan Square,Benjamin Franklin Parkway,Y,Logan Square,Logan,East/West Triangle,224,200 N 18TH ST,19103,"200 N 18TH ST, 200 N 19TH ST","20th & Parkway;200 N 19TH ST",3.32928278,NEIGHBORHOOD_PARK,GREENWAY_PARKWAY,9,5,5,9,Y,Y,N,"Logan Square includes Aviator Park, Galusha Pennypacker Park, Shakespeare Park, and Sister Cities Park",22965.5703125,1485.55307183542
425,Titan Park,Titan Park,N,,Titan,,339,110 TITAN ST,19147,108-10 TITAN ST,108-10 Titan Street,0.03128543,NEIGHBORHOOD_PARK,SQUARE_PLAZA,12,7,1,3,Y,Y,N,BILL # 1251 1978 PENNSPORT URBAN R.A.PARCEL NO.16,215.56640625,57.9861073936467
426,Dodge Tract,Wissahickon Valley Park,Y,,Dodge,Donation Parcel,3094,7900 CHEROKEE ST,19118,7900 CHEROKEE ST,,6.62630209,CONSERVATION_UNDEVELOPED,CONSERVATION_DRAINAGE_WATERSHED,3,4,8,14,N,N,N,"Needs verification on ownership. Ordinance Bill #150475; Removed area NW of Valley Green Rd, not part of Natural Lands Trust's transfer",45830.44140625,1066.46755248147
427,Philadelphia Stars Negro League Memorial Park,Philadelphia Stars Negro League Memorial Park,N,,Stars Negro League,Memorial Park,3535,1538 BELMONT AVE,19104,N/A,Belmont Ave and Parkside Ave,0.24872725,NEIGHBORHOOD_PARK,SQUARE_PLAZA,7,8,4,19,Y,Y,N,In 2003 Ordinance to renovate this park to present conditions.,1716.2109375,219.470656397751
428,Glendinning Rock Garden,East Fairmount Park,Y,,Glendinning,,3585,1299 BREWERY HILL DR,19121,,"1201 KELLY DR, Girard Ave & Kelly Dr",2.78599924,NEIGHBORHOOD_PARK,HISTORIC_SITE,8,5,4,22,N,Y,N,,19214.484375,665.139962856432
429,Galusha Pennypacker Park,Benjamin Franklin Parkway,Y,Galusha Pennypacker Park,Pennypacker,Logan Square,2816,1856 VINE ST,19103,,200 N 18TH ST,1.13391423,NEIGHBORHOOD_PARK,SQUARE_PLAZA,9,5,5,9,N,Y,N,Galusha Pennypacker Park is part of Logan Square. Renovated in 2017.,7825.95703125,826.453366275697
430,Shakespeare Park,Benjamin Franklin Parkway,Y,Shakespeare Park,Shakespeare,Logan Square,3601,1948 VINE ST,19103,,200 N 18TH ST,1.17760482,NEIGHBORHOOD_PARK,SQUARE_PLAZA,9,5,5,9,N,Y,N,Shakespeare Park is part of Logan Square. Renovated in 2017.,8119.796875,607.449111125169
431,Bristol Street Warehouse,Bristol Street Warehouse,N,,Bristol,,3601,1632 E BRISTOL ST,19124,1610-32 E BRISTOL ST,1610-32 E BRISTOL ST,1.97235085,PPR_OPERATIONS_FACILITY,OPERATIONS,5,3,7,24,N,N,N,Operations Warehouse Site,13622.44140625,532.007860285031
432,Cobbs Creek Park,Cobbs Creek Park,Y,Cobbs Creek Park,Cobbs Creek Park,,3056,,19143,"12 COBBS CREEK PKWY;6501 COBBS CREEK PKWY;6100 BALTIMORE AVE;6300-01 MARKET ST;6300 SPRUCE ST;7800 CITY AVE;7400 LANSDOWNE AVE;SEE ALIAS ADDRESSES","12 COBBS CREEK PKWY;6501 COBBS CREEK PKWY;6100 BALTIMORE AVE;6300-01 MARKET ST;6300 SPRUCE ST;7800 CITY AVE;7400 LANSDOWNE AVE;338-50 N 65TH ST;6525-47 VINE ST;6801 HAVERFORD AVE",348.00546633,WATERSHED_PARK,CONSERVATION_DRAINAGE_WATERSHED,"7;10",8,"2;3;4","12;18;19",Y,Y,N,1911 Ordinance assigned portion near 60th and Baltimore to Department of Rec,2399212.890625,36071.269379344
433,John A Lee Cultural Center,John A Lee Cultural Center,N,John A. Lee Cultural Center,Lee Cultural Center,John A. Lee Recreation Center,1892,4372 HAVERFORD AVE,19104,4310 HAVERFORD AVE,"4310 HAVERFORD AVE, 4328 HAVERFORD AVE, 44th & Haverford",9.59475417,RECREATION_CENTER,RECREATION_SITE,10,8,3,16,Y,Y,Y,,66172.3984375,1081.90500300712
434,Ben-Gurion Place,Ben-Gurion Place,N,,Ben-Gurion,,3764,107 N INDEPENDENCE MALL E,19106,N/A,Between N Independence Mall E and N 4th St,0.38716458,BREEZEWAY_GREENWAY,BREEZEWAY_ISLAND,9,5,1,9,Y,Y,N,There is no parcel here,2669.3515625,377.605807408221
435,Commerce Street Walk,Commerce Street Walk,N,,Commerce,,3775,25 N 04TH ST,19106,N/A,Between N 4th St and N 3rd St,0.37266405,BREEZEWAY_GREENWAY,BREEZEWAY_ISLAND,9,5,1,9,Y,Y,N,There is no parcel here,2569.36328125,443.692868714668
436,Burholme Park,Burholme Park,N,,Burholme,,490,7370 CENTRAL AVE,19111,7370 CENTRAL AVE,Cottman & Central,55.58898764,PLAYGROUND_SITE,MISC_PARK,1,1,10,2,Y,Y,N,,384589.23828125,3521.43390110798
437,Historic Rittenhouse Town,Wissahickon Valley Park,Y,Historic Rittenhouse Town,Historic Rittenhouse Town,,1939,6014 WISSAHICKON AVE,19144,5800 WISSAHICKON AVE,"5800 WISSAHICKON AVE;206-210 LINCOLN DR;206-211 RITTENHOUSETOWN LN;236-280 RITTENHOUSETOWN LN;4500 ORANGE TRL",10.57129188,EVENT_VENUE,HISTORIC_SITE,3,4,4,39,N,Y,N,,73053.04296875,1688.5378231797
438,Organic Recycling Center,West Fairmount Park,Y,Organic Recycling Center,Recycling Center,,3628,3850 FORD RD,19131,3401 W GIRARD AVE,3401 W GIRARD AVE,13.83521124,PPR_OPERATIONS_FACILITY,OPERATIONS,7,5,4,16,Y,Y,N,,95509.13671875,1786.41263895022
439,Belmont Grove,West Fairmount Park,Y,,Belmont Grove,Belmont Grove Picnic Area,3630,2076 BELMONT MANSION DR,19131,3401 W GIRARD AVE,"Belmont & Chamounix;3401 W GIRARD AVE",11.76143952,PLAYGROUND_SITE,MISC_PARK,7,5,4,16,N,Y,N,,81187.16015625,1318.67676026821
440,Clifford Park,Wissahickon Valley Park,Y,,Clifford,Thomas Mansion Grounds,1832,6141 WISSAHICKON AVE,19144,6331 WISSAHICKON AVE,6331 WISSAHICKON AVE,23.06689393,ATHLETIC_SITE,MISC_PARK,3,4,8,14,Y,Y,N,,159427.4765625,1692.81369143992
441,Blue Bell Park,Wissahickon Valley Park,Y,Blue Bell Park,Blue Bell,Blue Bell Hill,1311,844 W WALNUT LN,19144,N/A,Walnut & Park,8.33085041,ATHLETIC_SITE,ATHLETIC_OTHER,3,4,4,"14;39",Y,Y,N,,57575.33984375,1502.75967778722
442,Saul High School Farm,Wissahickon Valley Park,Y,,Saul Farm,,3659,7107 HENRY AVE,19128,,,35.30503938,FARM,URBANAGRICULTURE_FARM,3,4,4,5,N,Y,N,School District sublets to Weavers Way Cooperative Association,244124.2578125,4300.97455860214
443,Parkwood,Parkwood,N,,Parkwood,Parkwood Youth Organization Recreation Center,3663,3359 MECHANICSVILLE RD,19154,3102 MECHANICSVILLE RD,"3301 MECHANICSVILLE RD;3102 MECHANICSVILLE RD;Dunksferry & Mechanicsville",30.68184386,EVENT_VENUE,ATHLETIC_OTHER,1,1,10,8,Y,Y,N,,212493.0703125,2064.96541275665
444,American Swedish Historical Museum,Franklin Delano Roosevelt Park,Y,American Swedish Historical Museum,American Swedish Museum,American Swedish Museum,3666,1900 PATTISON AVE,19145,3500 S BROAD ST,3500 S BROAD ST,1.67415347,EVENT_VENUE,MUSEUM,11,7,2,1,Y,Y,N,Museum building is owned by museum. Land is City's.,11527.3515625,455.637191295444
445,Andorra Natural Area,Wissahickon Valley Park,Y,,Andorra,,3667,9750 FORBIDDEN DR,19128,"9001 LYKENS LN, 950 NORTHWESTERN AVE","9001 LYKENS LN, 950 NORTHWESTERN AVE",155.61328324,CONSERVATION_UNDEVELOPED,CONSERVATION_DRAINAGE_WATERSHED,3,4,4,5,Y,Y,N,,1076923.6875,6222.67398987843
446,Cobbs Creek Community Environmental Center,Cobbs Creek Park,Y,,Cobbs Environ Center,"Cobbs Creek EEC;Cobbs Creek Environmental Education Center;Cobbs Creek Stables",1835,700 COBBS CREEK PKWY,19143,6300 SPRUCE ST,6300 SPRUCE ST,1.45077158,RECREATION_CENTER,ENVIRONMENTAL_EDUCATION_CENTER,10,8,3,18,Y,Y,Y,,10002.78515625,597.832117044943
447,Saylors Grove,Wissahickon Valley Park,Y,,Saylors Grove,,3713,669 W RITTENHOUSE ST,19144,5800 WISSAHICKON AVE,"6020 WISSAHICKON AVE;5800 WISSAHICKON AVE;5964 WISSAHICKON AVE",3.31909025,CONSERVATION_UNDEVELOPED,CONSERVATION_DRAINAGE_WATERSHED,3,4,4,39,N,Y,N,,22933.0703125,724.458668215627
448,South Street Community Garden,South Street Community Garden,N,South Street Community Garden,South St Garden,South St Community Garden,99999,839 SOUTH ST,19147,831-39 SOUTH ST,831-39 SOUTH ST,0.20561013,GARDEN,URBANAGRICULTURE_GARDEN,12,7,1,3,Y,Y,N,,1417.25,154.38477282629
449,Brewerytown Garden,Brewerytown Garden,N,,Brewerytown Garden,Brewerytown Community Garden,3767,1341 N 27TH ST,19121,"2634-44 MASTER ST, 1339 N 27TH ST, 1331 N 27TH St","2634-44 MASTER ST, 1339 N 27TH ST, 1331 N 27TH St",0.47675355,GARDEN,URBANAGRICULTURE_GARDEN,9,6,5,22,Y,Y,N,,3289.49609375,357.616128486443
450,Discovery Center at East Fairmount Reservoir,East Fairmount Park,Y,The Discovery Center at East Fairmount Reservoir,Discovery Center,East Park Leadership and Conservation Center (EPLAC),3778,3395 RESERVOIR DR,19121,2500 SPRING GARDEN ST,"3401 RESERVOIR DR;2500 SPRING GARDEN ST;3369 RESERVOIR DR",51.19320334,EVENT_VENUE,ENVIRONMENTAL_EDUCATION_CENTER,8,5,4,22,Y,Y,N,,353306.35546875,2752.23241759845
451,Boathouse Row,East Fairmount Park,Y,,Boathouse Row,,0,870 KELLY DR,19130,2500 SPRING GARDEN ST,,4.22572982,EVENT_VENUE,BOATHOUSE_LAUNCH,9,5,5,9,N,Y,N,"Located in East Fairmount Park. Unofficial boundary that denotes the area known as Boathouse Row, includes all boathouses in this stretch of Kelly Drive (except Lloyd Hall)",29150.53125,1199.69685983337
452,Mollbore Terrace Park at 8th St,Mollbore Terrace Park,Y,,Mollbore (8th), ,235,703 MOLLBORE TER,19148,701 1/2 MOLLBORE TER,"1226 MOLLBORE TER, Mollbore Ter & 8th;701 1/2 MOLLBORE TER",0.47767174,CONSERVATION_UNDEVELOPED,BREEZEWAY_ISLAND,12,7,1,3,N,N,N,,3289.86328125,269.054244737424
453,Mollbore Terrace Park at 11th St,Mollbore Terrace Park,Y,,Mollbore (11th), ,431,1032 MOLLBORE TER,19148,1032 MOLLBORE TER,"1226 MOLLBORE TER, Mollbore Ter & 11th",0.47016871,CONSERVATION_UNDEVELOPED,BREEZEWAY_ISLAND,12,7,2,3,N,N,N,,3238.23828125,267.731995884458
454,Mollbore Terrace Park at 12th St,Mollbore Terrace Park,Y,,Mollbore (12th), ,283,1226 MOLLBORE TER,19148,1226 MOLLBORE TER,Mollbore Ter & 12th,0.48177909,CONSERVATION_UNDEVELOPED,BREEZEWAY_ISLAND,12,7,2,3,N,N,N,,3318.21875,270.604900821173
455,Yorktown at Saratoga Pl,Yorktown Commons,Y,,Yorktown (Saratoga),Yorktown at N Dondil Pl,3497,1599 DONDILL PL,19122,N/A,,0.10026905,BREEZEWAY_GREENWAY,BREEZEWAY_ISLAND,9,6,5,22,Y,Y,N,,691.8203125,136.999599352069
456,Yorktown at Queens Pl,Yorktown Commons,Y,,Yorktown (Queens),,3498,1501 QUEENS PL,19122,N/A,,0.1299073,BREEZEWAY_GREENWAY,BREEZEWAY_ISLAND,9,6,5,22,Y,Y,N,,896.3203125,144.796838844761
457,Yorktown at Betsy Ross Pl,Yorktown Commons,Y,,Yorktown (Betsy Ross),Yorktown at S Dondil Pl,3499,1401 DONDILL PL,19122,N/A,,0.09913596,BREEZEWAY_GREENWAY,BREEZEWAY_ISLAND,9,6,5,22,Y,Y,N,,683.9765625,135.14207685482
458,Yorktown at Guilford Pl,Yorktown Commons,Y,,Yorktown (Guilford),,3500,1400 GUILFORD PL,19122,N/A,,0.12570222,BREEZEWAY_GREENWAY,BREEZEWAY_ISLAND,9,6,5,22,Y,Y,N,,867.26953125,141.941051556176
459,Yorktown at Patrick Henry,Yorktown Commons,Y,,Yorktown (Patrick Henry),,3501,1220 PATRICK HENRY PL,19122,N/A,,0.22130763,BREEZEWAY_GREENWAY,BREEZEWAY_ISLAND,9,6,5,22,Y,Y,N,,1526.80078125,194.979257773413
460,Yorktown at Kings Pl,Yorktown Commons,Y,,Yorktown (Kings),,3502,1303 KINGS PL,19122,N/A,,0.10000627,BREEZEWAY_GREENWAY,BREEZEWAY_ISLAND,9,6,5,22,Y,Y,N,,689.953125,126.261657342485
461,Lucien E Blackwell Park,Lucien E Blackwell Park,N,Lucien E. Blackwell Park,Blackwell,Mill Creek Park,3835,4615 FAIRMOUNT AVE,19139,4615 FAIRMOUNT AVE,,2.05984146,NEIGHBORHOOD_PARK,MISC_PARK,10,8,3,16,Y,Y,N,PPR has long term lease of land from PHA.,14207.46875,482.730046530542
462,Fish Hatchery at Pleasant Hill Park,Pleasant Hill Park,Y,,Fish Hatchery,"Torresdale Fish Hatchery;Pleasant Hill Beach;Fish Hatchery Boat Ramp/Launch",1255,9201 N DELAWARE AVE,19136,9201 N DELAWARE AVE,"Delaware River & Linden;8900 N DELAWARE AVE;9200 DELAWARE AVE;5220 LINDEN AVE",37.53172166,PLAYGROUND_SITE,RECREATION_SITE,2,1,6,8,N,Y,N,"Former PWD Site; Historic Buildings on SW are leased out.",259459,3119.59221386718
463,Vine Street Park (95),Vine Street Park,Y,,Vine (95),Wood Street Park,2798,VINE STREET EXP,19107,"ROW;521-31 VINE ST;316-52 N 3RD ST;320-338 N LAWRENCE ST;319-321 WOOD ST;405-409 WOOD ST;316-340 YORK AVE","676 and Vine St (N 6th St to Letitia St);Callowhill St (N 6th St to N 3rd St); Wood St (N 6th St to Letitia St)",7.16199688,BREEZEWAY_GREENWAY,GREENWAY_PARKWAY,9,5,1,9,Y,Y,N,Vine Street Expressway Agreement with PENNDOT 4/22/1986,49387.3046875,3601.83525415174
464,Burholme Park Driving Range,Burholme Park,Y,,Burholme Range,Burholme Family Fun Center,489,401 W COTTMAN AVE,19111,7370 CENTRAL AVE,"Cottman & Central;7370 CENTRAL AVE",12.33293663,GOLF_FACILITY,ATHLETIC_GOLF,1,1,10,2,N,Y,N,,85322.69140625,1178.90286051033
465,Morris and Penn Park,Morris and Penn Park,N,,Morris and Penn,West Penn Playground,3830,353 W PENN ST,19144,"351 W PENN ST; 353 W PENN ST; 355 W PENN ST","351-55 W PENN ST;351 W PENN ST; 353 W PENN ST; 355 W PENN ST",0.09678958,NEIGHBORHOOD_PARK,MISC_PARK,4,4,8,39,Y,Y,N,Renovation completed and opened in 5/2024.,668.75,104.538957328775
466,Peters Island,Peters Island,N,,Peters Island,,3111,,19131,,,1.91202222,CONSERVATION_UNDEVELOPED,CONSERVATION_DRAINAGE_WATERSHED,7,5,4,16,N,N,N,,13178.890625,668.192510898296
467,Manayunk Bridge,Manayunk Bridge,N,Manayunk Bridge,Manayunk Bridge,Dupont & High St,0,100 DUPONT ST,19127,111 DUPONT ST,"High St and Dupont St;111 DUPONT ST",1.90923087,BREEZEWAY_GREENWAY,GREENWAY_PARKWAY,3,4,4,5,Y,Y,N,"PPR has a long term lease with SEPTA for this site (Manayunk Canal, Ivy Ridge Branch (Cynwyd Branch)); Elevated Bridge goes over PPR Site Manayunk Canal",13192.1015625,1798.95196693561
468,Ivy Ridge Greenway,Ivy Ridge Greenway,N,,Ivy Ridge,"Ivy Ridge Branch;Cynwyd Branch",0,4850 UMBRIA ST,19127,4850 UMBRIA ST,4850 UMBRIA ST,3.66853243,CONSERVATION_UNDEVELOPED,UNDEVELOPED,3,4,4,5,N,N,N,"Undeveloped Greenway/Breezeway; PPR has a long term lease with SEPTA for this site (Manayunk Canal, Ivy Ridge Branch (Cynwyd Branch))",25352.67578125,2593.64472792097
469,Dr Martin Luther King Jr Older Adult Center,Dr Martin Luther King Jr Older Adult Center,N,"Dr. Martin Luther King, Jr. Older Adult Center",King Older Adult Center,M.L. King Older Adult Center,3078,2102 W CECIL B MOORE AVE,19121,"2100-06 CECIL B MOORE AVE; 2100-04 CECIL B MOORE AVE","2100-06 CECIL B MOORE AVE; 2100-04 CECIL B MOORE AVE",0.33109929,OLDER_ADULT_CENTER,OLDER_ADULT_CENTER,8,6,5,22,Y,Y,Y,Formerly a Redevelopment site,2284.7265625,197.563800699177
470,Dr Martin Luther King Jr Recreation Center,Dr Martin Luther King Jr Recreation Center,N,"Dr. Martin Luther King, Jr. Recreation Center",King Rec,ML King Recreation Center,1985,2101 W CECIL B MOORE AVE,19121,2101-35 CECIL B MOORE AVE,2101-35 CECIL B MOORE AVE,5.25372097,RECREATION_CENTER,RECREATION_SITE,8,6,5,22,Y,Y,Y,,36254.09375,760.502501414181
471,Devereaux Ave Trailhead at K and T Trail,Devereaux Ave Trailhead at K and T Trail,N,,Devereaux Trailhead,,0,5298 DEVEREAUX AVE,19135,STREET ROW - Legal Card LC008654,,0.24867625,BREEZEWAY_GREENWAY,GREENWAY_PARKWAY,6,2,6,15,N,N,N,Parking lot trailhead for the K&T Trail,1717.6328125,180.743253608873
472,Basilica Green,Benjamin Franklin Parkway,Y,,Basilica Green,,3123,1773 RACE ST,19103,201-07 N 18TH ST,201-07 N 18TH ST,0.23518674,NEIGHBORHOOD_PARK,GREENWAY_PARKWAY,9,5,5,9,N,Y,N,,1621.7265625,165.433982017794
473,31st and York Courts,31st and York Courts,N,,31st and York,Strawberry Mansion 31st and York Pocket Park,3832,3101 W YORK ST,19132,2400-06 N 31ST ST,2400-06 N 31ST ST,0.22689692,ATHLETIC_SITE,ATHLETIC_OTHER,8,6,5,22,Y,Y,N,,1566.296875,166.36188221404
474,31st and Cumberland Play Lot,31st and Cumberland Play Lot,N,,31st and Cumberland,Strawberry Mansion 31st and Cumberland Pocket Park,3833,2462 N 31ST ST,19132,2458-62 N 31ST ST,2458-62 N 31ST ST,0.20888698,PLAYGROUND_SITE,MISC_PARK,8,6,5,22,Y,Y,N,,1442.015625,160.101189228674
475,31st and Huntingdon Play Lot,31st and Huntingdon Play Lot,N,,31st and Huntingdon,"Napa Street Playground; Strawberry Mansion 31st and Huntingdon Pocket Park",3834,2550 N 31ST ST,19132,2548-56 N 31ST ST,2548-56 N 31ST ST,0.22439763,PLAYGROUND_SITE,MISC_PARK,8,6,5,22,Y,Y,N,,1549.14453125,171.781001179808
476,Carpenter Green Park,Carpenter Green Park,N,,Carpenter Green,"Carpenter's Green;17th and Carpenter Play Lot; Carpenter Green Park and Greenspace",3831,920 S 17TH ST,19146,914-28 S 17TH ST,914-28 S 17TH ST,0.28240523,NEIGHBORHOOD_PARK,SQUARE_PLAZA,11,7,2,17,Y,Y,N,Maintenance is split between PPR and the FCGP.,1946.3515625,184.887552759158
477,South Philadelphia High School Park,South Philadelphia High School Park,N,,S Phila HS Park,,3839,2125 S BROAD ST,19148,2101 S BROAD ST,"2101-49 S BROAD ST;2101 S BROAD ST",0.49027023,EVENT_VENUE,MISC_PARK,12,7,1,3,N,N,N,School District land leased to PPR. Renovated and opened 11/2022.,3377.49609375,445.932478247458
478,Fletcher B Amos Playground,Fletcher B Amos Playground,N,Fletcher B. Amos Playground,Amos,,1809,1843 N 16TH ST,19121,1817-59 N 16TH ST,"1817-59 N 16TH ST;1839 N 16TH ST",1.01672491,RECREATION_CENTER,RECREATION_SITE,8,6,5,22,Y,Y,Y,,7016.18359375,383.238357227692
479,Rail Park,Rail Park,N,The Rail Park,Rail Park,,3838,1250 NOBLE ST,19123,,1136 CALLOWHILL ST,0.87210895,BREEZEWAY_GREENWAY,GREENWAY_PARKWAY,9,5,1,9,Y,Y,N,Elevated former railway. ,6009.953125,825.079375954843
480,Williams Moore Reed Memorial Park,Williams Moore Reed Memorial Park,N,Williams Moore Reed Memorial Park,Williams Moore Reed,11th and Venango Play Lot,3079,3600 N 11TH ST,19140,3600 N 11TH ST,3600 N 11TH ST,0.9728607,PLAYGROUND_SITE,RECREATION_SITE,8,3,5,25,Y,Y,N,"Former School District Site that was acquired by the City/PPR in 2020. Renovation in 2021, name change ordinance approved March 2022. Renovation still happening in 2023.",6718.48828125,325.853575896864
481,Maplewood Mall Plazas,Maplewood Mall Plazas,N,,Maplewood,,3840,1 W ARMAT ST,19144,"5530-34 GERMANTOWN AVE; 5537-41 GREENE ST","5530-34 GERMANTOWN AVE; 5537-41 GREENE ST; Germantown Ave & W Armat St; Greene St & W Armat St",0.40225666,BREEZEWAY_GREENWAY,SQUARE_PLAZA,4,4,8,14,Y,Y,N,Property maintained by Streets and Germantown Special Services District.,2781.375,310.009261490058
482,Nicetown Park,Nicetown Park,N,,Nicetown,Nicetown Triangle,2957,4301 GERMANTOWN AVE,19140,"4327-43 N GRATZ ST;4327R N GRATZ ST;4301-05 GERMANTOWN AVE;4369-71 GERMANTOWN AVE","4327-43 N GRATZ ST;4327R N GRATZ ST;4301-05 GERMANTOWN AVE;4377 GERMANTOWN AVE;4369-71 GERMANTOWN AVE",3.0184954,PLAYGROUND_SITE,MISC_PARK,4,4,8,39,Y,Y,N,,20853.47265625,1283.91736081831
483,Wissahickon East,Wissahickon East,N,,Wissahickon East,"Nomar; Donation Parcel; Brown-Souza-Jacobs; Conservation Plan",3093,7530 ANDERSON ST,19119,"315 WOODBROOK LN; 7530 ANDERSON ST","7530 ANDERSON ST; 315 WOODBROOK LN",5.6176792,CONSERVATION_UNDEVELOPED,CONSERVATION_DRAINAGE_WATERSHED,3,4,8,14,N,N,N,Conservation Easement held by Chestnut Hill Historical Society (2006),38866.35546875,951.750342566345
484,Ottinger Tract,Ottinger Tract,N,,Ottinger, ,2807,7808 NIXON ST,19128,"7808 NIXON ST, 7868 NIXON ST",7868 NIXON ST,4.48293164,CONSERVATION_UNDEVELOPED,CONSERVATION_DRAINAGE_WATERSHED,3,4,4,5,N,N,N,,30993.546875,1441.50508308208
485,25th and Dauphin District Headquarters,25th and Dauphin District Headquarters,N,,25th and Dauphin (District HQ),"Maintenance Division;Neighborhood Parks and Construction Unit Headquarters;District 6 Satellite Office",718,2501 W SEDGLEY AVE,19132,"2503-09 W SEDGLEY AVE;2200-08 N 25TH ST","2503-09 W SEDGLEY AVE;2200-08 N 25TH ST",0.46464849,PPR_OPERATIONS_FACILITY,OPERATIONS,8,6,5,22,N,N,N,,3207.203125,278.243037133301
486,Sedgely and Fletcher Warehouse,Sedgely and Fletcher Warehouse,N,,Sedgely Warehouse,"Sedgley Storeroom;Maintenance Warehouse;Central Warehouse",3103,2528 W SEDGLEY AVE,19132,2528-34 W SEDGLEY AVE,"W Sedgley Ave & N 26th St;2528-34 W SEDGLEY AVE",0.77389878,PPR_OPERATIONS_FACILITY,OPERATIONS,8,6,5,22,N,N,N,School District land and facility that PPR leases from 1975.,5341.640625,356.178092436914
487,Bartrams Mile Trail Greenway (56th),Bartrams Mile Trail Greenway,Y,,Bartrams Greenway (56th),"Bartram's Mile; Bartrams South",3100,3101 S 56TH ST,19143,3101 S 56TH ST,"3101 S 56TH ST;3000 S 56TH ST",2.51777216,BREEZEWAY_GREENWAY,GREENWAY_PARKWAY,10,8,3,12,N,Y,N,,17346.91796875,1010.07434557967
488,Bartrams Mile Trail Greenway (Grays Ferry),Bartrams Mile Trail Greenway,Y,,Bartrams Greenway (Grays Ferry),"Bartram's Mile North End;Bartram's Trail Extension",3791,1637 S 49TH ST,19143,1637 S 49TH ST,"S 49TH ST and BOTANIC AVE;1637 S 49TH ST;1633 S 49TH ST;1699 S 49TH ST",5.30709359,BREEZEWAY_GREENWAY,GREENWAY_PARKWAY,10,8,3,18,N,Y,N,,36569.36328125,1226.84081903488
489,Fox Chase - Lorimer Trail Greenway (Rhawn),Fox Chase - Lorimer Trail Greenway (Rhawn),N,,Fox Chase-Lorimer Greenway,,99999,439 RHAWN ST,19111,,"Rhawn St and Elberon Ave;8217 BURHOLME AVE",3.58934194,CONSERVATION_UNDEVELOPED,UNDEVELOPED,1,1,10,7,N,N,N,No Public Access. Undeveloped Land awaiting Fox Chase - Lorimer Trail.,24840.63671875,2152.44727892535
490,Officer Robert Hayes Memorial Playground,Officer Robert Hayes Memorial Playground,N,Officer Robert Hayes Memorial Playground,Hayes,"Swenson Park, Conwell",1923,9949 PRESIDENT ST,19115,"9850 E ROOSEVELT BLVD, 9800 E ROOSEVELT BLVD","9850 E ROOSEVELT BLVD, 9800 E ROOSEVELT BLVD",20.17329781,RECREATION_CENTER,RECREATION_SITE,1,1,10,7,Y,Y,Y,,139660.02734375,1698.9022773078
491,Philadelphia Museum of Art,East Fairmount Park,Y,The Philadelphia Museum of Art,Museum of Art,Art Museum Complex,3463,2600 BENJAMIN FRANKLIN PKY,19130,2500 SPRING GARDEN ST,"26th & Ben Franklin Pkwy;2500 SPRING GARDEN ST;2850 ANNE DHARNONCOURT WAY",24.54720443,EVENT_VENUE,MUSEUM,9,5,4,9,Y,Y,N,,169318.58984375,1983.03698103219
492,Boone Park,Boone Park,N,,Boone,Manayunk Park,602,4200 BOONE ST,19128,"4200 BOONE ST, 4171 CHURCHVIEW ST","Boone & Churchview;4171 CHURCHVIEW ST",1.81363648,CONSERVATION_UNDEVELOPED,CONSERVATION_DRAINAGE_WATERSHED,3,4,4,5,Y,Y,N,,12531.55859375,895.215465539649
493,Loretto and Gilham Triangle,Loretto and Gilham Triangle,N,,Loretto and Gilham,"Cranford Ave andd Magee Ave Traffic Island; Northeast Garden",245,1385 GILHAM ST,19111,Registry - 144N070092,6540 LORETTO AVE,0.16159528,CONSERVATION_UNDEVELOPED,BREEZEWAY_ISLAND,1,1,9,2,N,N,N,Site Renovated in 2022.,1116.875,144.697863813498
494,Spring Gardens,Spring Gardens,N,The Spring Gardens,Spring Gardens,,3800,1828 NORTH ST,19130,"1818-28 NORTH ST;1832 NORTH ST;1801-33 WALLACE ST;629-35 N 19TH ST;620-24 N 18TH ST","1818-28 NORTH ST;1832 NORTH ST;1801-33 WALLACE ST;629-35 N 19TH ST;620-24 N 18TH ST",1.96307283,GARDEN,URBANAGRICULTURE_GARDEN,9,6,5,9,Y,Y,N,Lease from 2021-2036.,13540.66796875,489.451075034604
495,Vine Street Park (676 East),Vine Street Park,Y,,Vine (676E), ,2798,VINE STREET EXP,19107,ROW,676 and Vine St (N Broad St to N 8th St),1.42806971,BREEZEWAY_GREENWAY,GREENWAY_PARKWAY,9,5,1,9,N,N,N,Vine Street Expressway Agreement with PENNDOT 4/22/1986,9847.74609375,4402.45938262078
496,Benjamin Franklin Parkway,Benjamin Franklin Parkway,N,Benjamin Franklin Parkway,Benjamin Franklin Pkwy,The Parkway,1226,2001 BENJAMIN FRANKLIN PKY,19130,N/A,2001 BENJAMIN FRANKLIN PKY,14.94470572,NEIGHBORHOOD_PARK,GREENWAY_PARKWAY,9,5,"4;5",9,Y,Y,N,22nd and Hamilton 'wedge' added (Street Legal Card),103068.57421875,9195.44602912477
497,Vine Street Park (676 West),Vine Street Park,Y,,Vine (676W), ,2798,VINE STREET EXP,19107,ROW,676 and Vine St (N 18th St to N Broad St),3.27800726,BREEZEWAY_GREENWAY,GREENWAY_PARKWAY,9,5,5,9,N,N,N,Vine Street Expressway Agreement with PENNDOT 4/22/1986,22605.55859375,4699.37087924196
498,Winter Street Greenway,Benjamin Franklin Parkway,Y,,Winter Greenway,"Rob Stuart Memorial Dog Park; Winter Street Greenway",0,BENJ FRANKLIN PKY,0,N/A,,0.78129229,PLAYGROUND_SITE,GREENWAY_PARKWAY,9,5,5,9,N,Y,N,Named in 2021. Winter (21st-22nd) has a dog park 'Rob Stuart Memorial Dog Park',5386.80078125,679.857405941277
499,61st and Cobbs Creek Park,Cobbs Creek Park,Y,,61st and Cobbs Creek, ,3481,61ST & COBBS CREEK,19143,6300 SPRUCE ST,"61ST & COBBS CREEK;6300 SPRUCE ST",5.1638777,NEIGHBORHOOD_PARK,MISC_PARK,10,8,3,18,Y,Y,N,,35596.9375,1037.39564506396
500,Lawrence Court Breezeways,Lawrence Court Breezeways,N,,Lawrence Breezeway,Lawrence Court Walkways,3867,335 LAWRENCE CT,19106,335-37 LAWRENCE CT,335-37 LAWRENCE CT,0.28228832,BREEZEWAY_GREENWAY,BREEZEWAY_ISLAND,12,5,1,9,N,Y,N,,1945.86328125,394.259400972099
501,Mann Center for the Performing Arts,West Fairmount Park,Y,The Mann Center for the Performing Arts,Mann Center,"The Mann Center;Robin Hood Dell West",3634,5038 AVENUE OF THE REPUBLIC,19131,3401 W GIRARD AVE,"5201 PARKSIDE AVE;5396 N GEORGES HILL DR;3401 W GIRARD AVE",16.6413264,EVENT_VENUE,OTHER,7,5,4,19,N,Y,N,,114842.84765625,1626.1128750881
502,Northeast Older Adult Center,George C Pelbano Playground,Y,George C. Pelbano Playground,NE Older Adult Center,,3087,2138 SOLLY AVE,19152,8101 BUSTLETON AVE,"8101 BUSTLETON AVE, Bustleton & Solly; 2124 SOLLY AVE",0.64746754,OLDER_ADULT_CENTER,OLDER_ADULT_CENTER,1,1,10,7,Y,Y,Y,Site has Northeast Older Adult Center.,4478.65234375,271.490666263583
503,Laura Sims Skating Rink,Cobbs Creek Park,Y,Laura Sims Skate House,Sims,"Cobbs Creek Recreation Center and Pool;Cobbs Creek Park;Laura Sims Rink, Cobbs Creek Ice Rink",984,200 S 63RD ST,19139,12 COBBS CREEK PKWY,"200 S 63RD ST;200 COBBS CREEK PKWY;12 COBBS CREEK PKWY",3.02269117,RECREATION_CENTER,RECREATION_SITE,10,8,3,18,Y,Y,Y,,20845.48046875,671.483696633783
504,Fernhill Park,Fernhill Park,N,,Fernhill, ,833,4600 MORRIS ST,19144,"4600 MORRIS ST, 4526 PULASKI AVE","Abbottsford & Morris;4526 PULASKI AVE;500 W ABBOTTSFORD AVE",42.61907835,PLAYGROUND_SITE,RECREATION_SITE,4,4,8,39,Y,Y,N,,294423.921875,4327.84189844655
505,School District Area (Gorgas),Susan Gorgas Park,Y,,Gorgas (School District),,0,,19128,6300 RIDGE AVE,"6300 RIDGE AVE, Ridge & Hermitage",8.44687675,EVENT_VENUE,ATHLETIC_OTHER,3,4,4,5,N,N,N,1927 Transferred to SD to manage and maintain.,58382.015625,986.309217860615
506,Susan Gorgas Park,Susan Gorgas Park,Y,Susan Gorgas Park,Gorgas,,803,6424 RIDGE AVE,19128,6300 RIDGE AVE,"6300 RIDGE AVE, Ridge & Hermitage",12.67557668,PLAYGROUND_SITE,RECREATION_SITE,3,4,4,5,Y,Y,N,,87612.01171875,1246.79451550874
507,Mann Older Adult Center,Ramonita Negron Rivera Recreation and Community Center,Y,Mann Older Adult Center,Mann Older Adult Center,"Mann Recreation Center;Westmoreland Square;Hersch Recreation Center",922,3201 N 05TH ST,19140,3201 N 05TH ST,5th & Allegheny,1.28211819,OLDER_ADULT_CENTER,OLDER_ADULT_CENTER,5,3,7,25,Y,Y,Y,Shares building with Rivera Recreation. 2024-Rebuild Renovations completed.,8852.37890625,387.44379898827
